bjdCode,codeAptNm,codeHallNm,codeHeatNm,codeMgrNm,codeSaleNm,address,hoCnt,kaptAcompany,kaptAddr,kaptBaseFloor,kaptBcompany,kaptCode,kaptDongCnt,kaptFax,kaptMarea,kaptMparea_135,kaptMparea_136,kaptMparea_60,kaptMparea_85,kaptName,kaptTarea,kaptTel,kaptTopFloor,kaptUrl,kaptUsedate,kaptdEcntp,kaptdaCnt,ktownFlrNo,privArea,zipcode,cleaned_address,lat,lon,전기사용량
1162010200,아파트,혼합식,개별난방,위탁관리,혼합,서울특별시 관악구 신원로 26,592.0,신림5재개발조합,서울특별시 관악구 신림동 1695- 신림동부,1.0,동부건설(주),A15101101,4,028695240,48383.33,26.0,0.0,245.0,321.0,신림동부,50827.7,028576463,19, ,19930719.0,9.0,592.0,19.0,34845.45,8775.0,서울특별시 관악구 신림동 1695-,37.4811549763764,126.928270805228,0
1162010200,아파트,계단식,개별난방,위탁관리,분양,서울특별시 관악구 관천로24길 3,157.0,동심아파트재건축조합,서울특별시 관악구 신림동 1718- 보라매갑을,2.0,갑을건설,A15101501,1,028721573,13973.281,0.0,0.0,44.0,113.0,보라매갑을,19382.0,028721574,18, ,20031231.0,5.0,157.0,18.0,10883.68,8706.0,서울특별시 관악구 신림동 1718-,37.4890432899816,126.921857334211,0
1162010200,아파트,계단식,개별난방,위탁관리,분양,서울특별시 관악구 난곡로 66,349.0,신림7구역 재개발조합,서울특별시 관악구 신림동 1736- 신림2차푸르지오,2.0,대우건설(주),A15101503,8,028655445,36131.56,89.0,0.0,86.0,174.0,신림2차푸르지오,54428.577,028655757,15, ,20070206.0,12.0,349.0,15.0,30125.1879,8861.0,서울특별시 관악구 신림동 1736-,37.4610652506245,126.91987541193,0
1162010200,아파트,계단식,개별난방,위탁관리,분양,서울특별시 관악구 난곡로 55,2810.0,금호외,서울특별시 관악구 신림동 1735- 관악산휴먼시아,3.0,한국토지주택공사,A15101504,39,028621033,411422.55,594.0,0.0,880.0,1336.0,관악산휴먼시아,411433.0,028610020,20, ,20080313.0,81.0,2810.0,20.0,234236.56,8862.0,서울특별시 관악구 신림동 1735-,37.4597417150822,126.920752798392,0
1162010200,아파트,계단식,개별난방,위탁관리,분양,서울특별시 관악구 호암로 519,177.0,삼두아파트재건축주택조합,서울특별시 관악구 신림동 1733- 신림벽산블루밍,1.0,벽산건설,A15101505,3,028732774,17481.07,14.0,0.0,54.0,109.0,신림벽산블루밍,23719.17,028712774,15, ,20050929.0,7.0,177.0,15.0,13902.4,8848.0,서울특별시 관악구 신림동 1733-,37.4641771612062,126.931318530058,0
1162010200,아파트,계단식,개별난방,위탁관리,분양,서울특별시 관악구 호암로 399,1482.0,한국토지주택공사,서울특별시 관악구 신림동 1714- 삼성산주공3단지,6.0,대한주택공사,A15101506,9,0232851277,163623.3952,428.0,0.0,384.0,670.0,삼성산주공3단지,218680.6,028733747,25,APT7777,20000803.0,27.0,1482.0,25.0,126730.58,8847.0,서울특별시 관악구 신림동 1714-,37.4613714617228,126.925454992929,0
1162010200,아파트,복도식,중앙난방,위탁관리,혼합,서울특별시 관악구 광신길 160,960.0,LH,서울특별시 관악구 신림동 1704-1 신림주공1단지,1.0,LH,A15101507,7,028711612,59756.16,0.0,0.0,960.0,0.0,신림주공1단지,60799.0,028894523,23,kohom.or.kr,19951006.0,14.0,960.0,23.0,38725.94,8848.0,서울특별시 관악구 신림동 1704-1,37.4660331365776,126.927370774223,0
1162010200,아파트,혼합식,중앙난방,위탁관리,분양,서울특별시 관악구 신림로29길 8,1634.0,현대산업개발,서울특별시 관악구 신림동 1694- 신림현대,1.0,현대산업개발,A15101508,12,028731958,161040.0,600.0,0.0,704.0,330.0,신림현대,171854.0,028757446,15,신림현대.apti.co.kr,19930525.0,38.0,1634.0,15.0,126268.65,8845.0,서울특별시 관악구 신림동 1694-,37.4755685048005,126.932811143723,0
1162010200,아파트,복도식,개별난방,위탁관리,임대,서울특별시 관악구 난곡로 63,512.0,한국토지주택공사,서울특별시 관악구 신림동 1735-2 관악산휴먼시아3단지,3.0,양우건설,A15101702,4,028542229,40654.7456,0.0,0.0,512.0,0.0,관악산휴먼시아3단지,40654.827,028542228,20, ,20080313.0,6.0,512.0,20.0,20387.84,8862.0,서울특별시 관악구 신림동 1735-2,37.4610624003317,126.918605173435,0
1162010200,아파트,복도식,개별난방,위탁관리,분양,서울특별시 관악구 대학18길 9,227.0,경원연립재건축조합,서울특별시 관악구 신림동 1705- 신림금호타운1차,2.0,금호건설주식회사,A15101901,2,028739443,23378.8833,0.0,0.0,115.0,112.0,신림금호타운1차,28344.26,028896512,20, ,19970502.0,0.0,227.0,20.0,16149.0,8824.0,서울특별시 관악구 신림동 1705-,37.4651360569375,126.937561029256,0
1162010200,아파트,계단식,개별난방,위탁관리,분양,서울특별시 관악구 미성3길 16,213.0,삼천리난우연립재건축조합,서울특별시 관악구 신림동 1734- 신림동부센트레빌,2.0,동부건설,A15102202,4,028586671,22315.05,28.0,0.0,41.0,144.0,신림동부센트레빌,33472.0,028586674,15, ,20060424.0,6.0,213.0,15.0,17266.79,8865.0,서울특별시 관악구 신림동 1734-,37.4729529742383,126.916061909122,0
1162010100,아파트,복도식,,위탁관리,혼합,서울특별시 관악구 낙성대로15길 66,216.0,sh,서울특별시 관악구 봉천동 1725- 봉천인헌아파트,0.0,s.h공사,A15105002,3,028761216,17200.08,0.0,0.0,216.0,0.0,봉천인헌아파트,17200.08,028881217,7, ,19981022.0,0.0,216.0,7.0,10037.86,8800.0,서울특별시 관악구 봉천동 1725-,37.468034829997,126.961769042702,0
1162010100,아파트,계단식,개별난방,위탁관리,분양,서울특별시 관악구 보라매로 62,710.0,외환은행 주택조합,서울특별시 관악구 봉천동 1698-1 보라매삼성,0.0,삼성중공업,A15105004,8,028854778,86842.94,0.0,0.0,0.0,710.0,보라매삼성,93237.0,028854777,15,www.보라매삼성.com,19960425.0,25.0,710.0,15.0,60240.45,8709.0,서울특별시 관악구 봉천동 1698-1,37.4948015028766,126.927602560192,0
1162010100,아파트,계단식,개별난방,위탁관리,분양,서울특별시 관악구 관악로 125,254.0,삼성중공업,서울특별시 관악구 봉천동 1591-2 서울대입구삼성아파트,3.0,삼성중공업,A15105005,3,0262788982,26742.58,63.0,0.0,119.0,72.0,서울대입구삼성아파트,35903.0,028718982,18, ,19991028.0,6.0,254.0,18.0,20465.0,8833.0,서울특별시 관악구 봉천동 1591-2,37.4764721426091,126.952079961311,0
1162010100,아파트,계단식,개별난방,위탁관리,분양,서울특별시 관악구 솔밭로7길 16,297.0,현대산업개발,서울특별시 관악구 봉천동 1713- 낙성대현대홈타운,0.0,현대산업개발,A15105006,2,028731985,39182.719,141.0,0.0,0.0,156.0,낙성대현대홈타운,52610.465,028731984,21, ,20020225.0,10.0,297.0,21.0,29449.943,8741.0,서울특별시 관악구 봉천동 1713-,37.4798859472233,126.963907514458,0
1162010100,아파트,혼합식,개별난방,위탁관리,분양,서울특별시 관악구 관악로30길 27,2104.0,재건축조합,서울특별시 관악구 봉천동 1717- 관악푸르지오아파트,4.0,대우건설,A15105302,23,0267463400,202953.61,118.0,0.0,1158.0,828.0,관악푸르지오아파트,272722.89,028820185,24,www.kaprugio.com,20040826.0,36.0,2104.0,24.0,152563.11,8734.0,서울특별시 관악구 봉천동 1717-,37.4889663493891,126.960643252066,0
1162010100,아파트,복도식,개별난방,위탁관리,임대,서울특별시 관악구 구암길 106,1843.0,삼성물산,서울특별시 관악구 봉천동 1712-1 관악드림타운제2,5.0,삼성물산,A15105503,5,0232856502,85295.883,0.0,0.0,1843.0,0.0,관악드림타운제2,114254.12,0232855302,24, ,20030906.0,24.0,1843.0,24.0,60376.68,8725.0,서울특별시 관악구 봉천동 1712-1,37.491279413488,126.948664640266,0
1162010100,아파트,복도식,개별난방,위탁관리,임대,서울특별시 관악구 관악로30길 40,717.0,우성건설(주),서울특별시 관악구 봉천동 1706-1 봉천우성제2,2.0,우성건설(주),A15105602,2,028894786,36079.44,0.0,0.0,717.0,0.0,봉천우성제2,36085.9,028894785,21, ,20001213.0,0.0,717.0,21.0,21811.14,8735.0,서울특별시 관악구 봉천동 1706-1,37.4851434998778,126.961578514322,0
1162010100,아파트,계단식,개별난방,위탁관리,분양,서울특별시 관악구 인헌12길 46-2,180.0,SH공사,서울특별시 관악구 봉천동 1707- 봉천은천1단지,3.0,자유종합건설(주),A15106101,4,0232854091,15247.08,0.0,0.0,0.0,180.0,봉천은천1단지,28876.0,028712632,16, ,20010625.0,4.0,180.0,16.0,15247.08,8797.0,서울특별시 관악구 봉천동 1707-,37.4716685170903,126.965275037928,0
1162010100,아파트,혼합식,개별난방,위탁관리,분양,서울특별시 관악구 인헌12길 46-1,384.0,도시개발공사,서울특별시 관악구 봉천동 1707-1 봉천은천2단지,3.0,(주)일성건설,A15106103,8,028773778,29808.452,0.0,0.0,384.0,0.0,봉천은천2단지,41621.01,028873168,15, ,20000918.0,7.0,384.0,15.0,21356.44,8797.0,서울특별시 관악구 봉천동 1707-1,37.4706668327352,126.964563654363,0
1162010300,아파트,계단식,개별난방,위탁관리,분양,서울특별시 관악구 남부순환로256라길 25,170.0,재건축 조합,서울특별시 관악구 남현동 1136- 남현동한일유앤아이,1.0,한일건설,A15108001,3,025985718,18546.27,18.0,0.0,12.0,140.0,남현동한일유앤아이,26068.0,025985718,11,남현한일유엔아이.apt.co.kr,20050330.0,9.0,170.0,11.0,14893.06,8803.0,서울특별시 관악구 남현동 1136-,37.4716280775458,126.973712308909,0
1162010300,아파트,계단식,개별난방,위탁관리,분양,서울특별시 관악구 남현길 91,174.0,칠성화성재건축조합,서울특별시 관악구 남현동 1135- 남현우림루미아트,2.0,우림건설,A15108003,4,0234871890,18874.06,20.0,0.0,0.0,154.0,남현우림루미아트,24957.519,0234871894,13, ,20041229.0,9.0,174.0,13.0,15307.5,8809.0,서울특별시 관악구 남현동 1135-,37.4726996250015,126.975269854648,0
1162010100,아파트,혼합식,개별난방,위탁관리,분양,서울특별시 관악구 관악로 285,1261.0,동아건설,서울특별시 관악구 봉천동 1703- 성현동아,3.0,동아건설,A15176202,10,028895174,144013.14,355.0,0.0,262.0,644.0,성현동아,185932.69,028895173,24,성현동아.apti.co.kr,20000509.0,26.0,1261.0,24.0,111028.35,8726.0,서울특별시 관악구 봉천동 1703-,37.4893683065275,126.955131608572,0
1162010200,아파트,계단식,개별난방,위탁관리,분양,서울특별시 관악구 문성로 86,171.0,신라연립,서울특별시 관악구 신림동 1700- 라이프아파트,1.0,라이프건설,A15177101,1,028681872,17619.914,22.0,0.0,77.0,72.0,라이프아파트,17619.914,028681871,22, ,19960327.0,4.0,171.0,22.0,13150.95,8863.0,서울특별시 관악구 신림동 1700-,37.4771351654163,126.913159063631,0
1162010100,아파트,복도식,개별난방,위탁관리,임대,서울특별시 관악구 양녕로 31,560.0,서울시,서울특별시 관악구 봉천동 1708-2 봉천두산3단지,3.0,두산건설,A15178203,3,0232854236,33773.824,0.0,0.0,560.0,0.0,봉천두산3단지,33773.83,0232854235,23,happy.i-sh.co.kr/main.do?deptid=70167,20001228.0,5.0,560.0,23.0,17556.18,8751.0,서울특별시 관악구 봉천동 1708-2,37.4851598206672,126.945757007246,0
1162010200,아파트,복도식,개별난방,위탁관리,임대,서울특별시 관악구 광신길 86,818.0,대한주택공사,서울특별시 관악구 신림동 1713- 신림주공2단지,1.0,금강종합건설,A15179403,6,0232850752,31910.18,0.0,0.0,818.0,0.0,신림주공2단지,63137.11,0232850751,25, ,20000803.0,10.0,818.0,25.0,31910.18,8848.0,서울특별시 관악구 신림동 1713-,37.4644976172183,126.926906437819,0
1162010200,아파트,혼합식,개별난방,위탁관리,분양,서울특별시 관악구 난곡로 167,465.0,난곡아파트 재건축조합,서울특별시 관악구 신림동 1727- 임광관악파크,0.0,임광,A15179701,5,028684535,36786.51,79.0,0.0,215.0,171.0,임광관악파크,63357.34,028307227,25, ,20030929.0,11.0,465.0,25.0,36786.51,8858.0,서울특별시 관악구 신림동 1727-,37.4693712854316,126.918648843524,0
1162010100,아파트,혼합식,개별난방,위탁관리,분양,서울특별시 관악구 구암5가길 49,203.0,봉천동양연립재건축조합,서울특별시 관악구 봉천동 1716- 봉천벽산타운2차,3.0,벽산건설,A15180701,1,028881892,20284.93,37.0,0.0,72.0,94.0,봉천벽산타운2차,30975.0,028881897,19, ,20030612.0,0.0,203.0,19.0,15564.18,8724.0,서울특별시 관악구 봉천동 1716-,37.4925170944347,126.946162048315,0
1162010100,아파트,계단식,개별난방,위탁관리,분양,서울특별시 관악구 성현로 80,3544.0,"삼성물산,동아건설",서울특별시 관악구 봉천동 1712- 관악드림타운,2.0,"삼성물산,동아건설",A15180705,44,0266721058,389395.928,1032.0,0.0,1044.0,1468.0,관악드림타운,531140.0,0266721055,27,WWW.dreamtownapt.com,20030906.0,92.0,3544.0,27.0,302517.6,8725.0,서울특별시 관악구 봉천동 1712-,37.4898474387668,126.952985510916,0
1162010100,아파트,계단식,개별난방,위탁관리,분양,서울특별시 관악구 청룡길 78,374.0,봉천10구역주택재개발정비사업조합,서울특별시 관악구 봉천동 1560-61 서울대입구아이원 (1560-61),2.0,풍림산업(주),A15184101,7,028727017,36225.133,45.0,0.0,159.0,170.0,서울대입구아이원 (1560-61),48356.99,028727006,15, ,20061130.0,14.0,374.0,15.0,29075.29,8831.0,서울특별시 관악구 봉천동 1560-61,37.4783125177698,126.945373832508,0
1162010200,아파트,복도식,개별난방,자치관리,분양,서울특별시 관악구 문성로 74,492.0,건영,서울특별시 관악구 신림동 746-43 신림건영1차,0.0,건영,A15185704,3,028543728,37092.24,0.0,0.0,216.0,276.0,신림건영1차,37550.0,028543718,12, ,19841016.0,6.0,492.0,12.0,27001.8,8863.0,서울특별시 관악구 신림동 746-43,37.4767561074089,126.912058124803,0
1162010200,아파트,복도식,개별난방,자치관리,분양,서울특별시 관악구 조원로2길 13,280.0,라이프,서울특별시 관악구 신림동 1656- 신림미성,0.0,라이프,A15190301,2,028698742,25263.6,140.0,0.0,0.0,140.0,신림미성,25263.6,028648742,10, ,19821023.0,4.0,280.0,10.0,22940.1,8769.0,서울특별시 관악구 신림동 1656-,37.4827892255973,126.90291924339,0
1162010200,아파트,계단식,개별난방,위탁관리,분양,서울특별시 관악구 남부순환로 1430,1456.0,미도재건축조합,서울특별시 관악구 신림동 1730- 신림푸르지오,2.0,대우건설,A15190705,23,028634463,176283.46,350.0,263.0,94.0,749.0,신림푸르지오,254293.0,028543765,24, ,20050621.0,33.0,1456.0,24.0,145820.53,8770.0,서울특별시 관악구 신림동 1730-,37.4792384454661,126.909039951252,0
1162010100,아파트,계단식,개별난방,위탁관리,분양,서울특별시 관악구 은천로33길 5,487.0,동부건설,서울특별시 관악구 봉천동 1719- 관악동부센트레빌,0.0,동부건설,A15192201,7,0262657500,47547.3214,71.0,0.0,230.0,186.0,관악동부센트레빌,64146.63,028850826,20, ,20040528.0,17.0,487.0,20.0,37580.23,8729.0,서울특별시 관악구 봉천동 1719-,37.4873001209776,126.950155935997,0
1162010100,아파트,복도식,개별난방,위탁관리,임대,서울특별시 관악구 관악로37길 20,829.0,봉천동재개발조합,서울특별시 관악구 봉천동 1703-1 봉천동아제2,3.0,동아건설,A15192202,4, ,54249.76,0.0,0.0,836.0,0.0,봉천동아제2,54249.76,028849524,24, ,20000509.0,0.0,836.0,24.0,27387.36,8726.0,서울특별시 관악구 봉천동 1703-1,37.4875554407187,126.95598852611,0
1162010100,아파트,복도식,개별난방,위탁관리,임대,서울특별시 관악구 양녕로 117,799.0,서울시,서울특별시 관악구 봉천동 1718-1 관악벽산블루밍임대,2.0,벽산블루밍,A15178204,3,0232859615,26413.342,0.0,0.0,799.0,0.0,관악벽산블루밍임대,48061.6,0232859614,22, ,20050705.0,9.0,799.0,22.0,26303.08,8715.0,서울특별시 관악구 봉천동 1718-1,37.4915087835926,126.942726707191,0
1162010200,아파트,혼합식,개별난방,위탁관리,분양,서울특별시 관악구 조원로13길 15,112.0,현대건설,서울특별시 관악구 신림동 551-9 신림2차현대,2.0,현대건설,A15178401,1,0232812151,11526.88,16.0,0.0,48.0,48.0,신림2차현대,14904.0,0232812159,16, ,19961220.0,0.0,112.0,16.0,8752.8,8701.0,서울특별시 관악구 신림동 551-9,37.4844975229565,126.908897557162,0
1162010200,아파트,복도식,개별난방,위탁관리,임대,서울특별시 관악구 난곡로 80,150.0,SH공사,서울특별시 관악구 신림동 1736-1 신림SH빌(임대),3.0,SH공사,A15101509,1,028622145,6862.5,0.0,0.0,150.0,0.0,신림SH빌(임대),11702.26,028622144,15, ,20071126.0,2.0,150.0,15.0,4624.5,8861.0,서울특별시 관악구 신림동 1736-1,37.4625381803389,126.919545026803,0
1162010100,아파트,복도식,개별난방,위탁관리,분양,서울특별시 관악구 남부순환로218길 37,208.0,대호아이피종합건설,서울특별시 관악구 봉천동 867-12 프라비다2,4.0,대호아이피종합건설,A10026710,1,028899524,7385.12,0.0,0.0,208.0,0.0,프라비다2,10936.04,028821333,15, ,20130227.0,1.0,208.0,15.0,4093.11,8787.0,서울특별시 관악구 봉천동 867-12,37.4796436603018,126.950464811358,0
1162010200,아파트,계단식,개별난방,위탁관리,분양,서울특별시 관악구 양지길 50-5,140.0,청빛산업개발(주),서울특별시 관악구 신림동 1721- 관악우정하이비전아파트 1단지,1.0,우정건설(주),A10026910,2,028727426,15206.48,0.0,0.0,0.0,140.0,관악우정하이비전아파트 1단지,19269.15,028727794,18, ,20040611.0,2.0,140.0,18.0,11789.8,8846.0,서울특별시 관악구 신림동 1721-,37.4714301466898,126.929078207674,0
1162010100,아파트,계단식,,관리방식미정,혼합,서울특별시 관악구 청룡16길 43,565.0,봉천제12-2구역 주택재개발정비사업조합,서울특별시 관악구 봉천동 1555-1 이편한세상 서울대입구2단지,3.0,대림산업(주),A10025422,9,028839896,59985.0,42.0,0.0,155.0,368.0,이편한세상 서울대입구2단지,89186.81,028829895,19, ,20190625.0,23.0,565.0,19.0,45369.83,8830.0,서울특별시 관악구 봉천동 1555-1,37.4766334506936,126.943195705239,0
1162010100,아파트,혼합식,개별난방,위탁관리,혼합,서울특별시 관악구 참숯1길 19,519.0,봉천제12의1구역주택재개발조합,서울특별시 관악구 봉천동 1544-1 이편한세상서울대입구2차(5단지),3.0,삼호건설,A10024894,10,0269521781,50986.19,52.0,0.0,191.0,276.0,이편한세상서울대입구2차(5단지),81591.57,0269521780,18,e-snu2.xisnd.co.kr,20200429.0,17.0,519.0,18.0,38982.52,8830.0,서울특별시 관악구 봉천동 1544-1,37.477304218918,126.94238244228,0
1162010300,아파트,계단식,개별난방,위탁관리,분양,서울특별시 관악구 남현길 144,88.0,흥화공업(주),서울특별시 관악구 남현동 1132- 남현동 흥화 브라운아파트,1.0,흥화공업(주),A10025511,2,025981153,9789.4,24.0,0.0,11.0,53.0,남현동 흥화 브라운아파트,12210.0,025981154,12, ,20030628.0,4.0,88.0,12.0,7938.31,8803.0,서울특별시 관악구 남현동 1132-,37.4711399371862,126.973032959605,0
1162010100,아파트,혼합식,개별난방,위탁관리,분양,서울특별시 관악구 은천로 93,2105.0,벽산건설,서울특별시 관악구 봉천동 1718- 관악벽산블루밍,0.0,벽산건설,A15178201,18,028779862,225224.87,536.0,0.0,753.0,816.0,관악벽산블루밍,226769.0,028779864,25, ,20050630.0,42.0,2105.0,25.0,172529.89,8715.0,서울특별시 관악구 봉천동 1718-,37.4873527233282,126.945428874003,0
1162010100,아파트,복도식,개별난방,위탁관리,임대,서울특별시 관악구 참숯5길 7,206.0,봉천12-2구역 주택재개발정비사업조함,서울특별시 관악구 봉천동 1540-37 e편한세상서울대입구 3단지,2.0,대림산업,A10025428,2,028839892,10882.687,0.0,0.0,206.0,0.0,e편한세상서울대입구 3단지,17045.62,028839891,14, ,20190625.0,4.0,206.0,14.0,7569.73,8830.0,서울특별시 관악구 봉천동 1540-37,37.4773564837839,126.940755420806,0
1162010100,아파트,계단식,,위탁관리,혼합,서울특별시 관악구 청룡10길 45,711.0,봉천제12-2구역 주택재개발정비사업조합,서울특별시 관악구 봉천동 1540-37 e편한세상서울대입구1단지아파트,3.0,대림산업(주),A10025423,10,028899893,75807.86,56.0,0.0,196.0,459.0,e편한세상서울대입구1단지아파트,111619.76,028829891,20, ,20190625.0,26.0,711.0,20.0,57164.09,8830.0,서울특별시 관악구 봉천동 1540-37,37.4772309328484,126.943055742779,0
1162010100,아파트,계단식,개별난방,위탁관리,혼합,서울특별시 관악구 청룡16길 43,1276.0,봉천제12-2구역 주택재개발정비사업조합,서울특별시 관악구 봉천동 1540-37 e편한세상서울대입구아파트,3.0,대림산업,A10025092,19,028829893,136592.29,98.0,0.0,351.0,827.0,e편한세상서울대입구아파트,200806.57,028829891,20,e-seoulapt.co.kr,20190625.0,49.0,1276.0,20.0,102533.92,8830.0,서울특별시 관악구 봉천동 1540-37,37.4766334506936,126.943195705239,0
1162010100,아파트,복도식,개별난방,위탁관리,분양,서울특별시 관악구 관악로 133,184.0,동우재건축조합,서울특별시 관악구 봉천동 1701- 봉천건영6차아파트,2.0,(주)건영,A15176602,3,0262981175,17959.74,19.0,0.0,76.0,89.0,봉천건영6차아파트,23306.0,028781875,19, ,19990517.0,3.0,184.0,19.0,13760.34,8833.0,서울특별시 관악구 봉천동 1701-,37.4769280464726,126.952062711984,0
1162010100,아파트,,,기타,,서울 관악구 남부순환로230길 117,, ,서울특별시 관악구 봉천동 1715- 부미아띠랑스힐,, ,A15105007,1,028724195,,0.0,0.0,0.0,53.0,부미아띠랑스힐,,028724195,1, ,,,53.0,12.0,4438.95,,서울특별시 관악구 봉천동 1715-,37.4747740367494,126.954426300774,0
1162010200,,계단식,개별난방,위탁관리,분양,서울특별시 관악구 호암로16길 5,109.0,서초건설,서울특별시 관악구 신림동 1724- 신림서초아파트,1.0,서초건설,A10024634,1,028786963,10497.03,0.0,0.0,24.0,85.0,신림서초아파트,13158.0,0264076963,15, ,20030902.0,4.0,109.0,15.0,8252.31,8821.0,서울특별시 관악구 신림동 1724-,37.4640463294621,126.932246557542,0
1162010200,아파트,복도식,개별난방,자치관리(직영),분양,서울특별시 관악구 호암로 541,127.0,태흥건설(주),서울특별시 관악구 신림동 1698- 태흥아파트,2.0,태흥건설(주),A10024621,1,028848776,12811.46,0.0,0.0,110.0,17.0,태흥아파트,12813.0,028753731,1, ,19950327.0,,127.0,21.0,8027.39,8848.0,서울특별시 관악구 신림동 1698-,37.466021748776,126.931073018846,0
1162010200,아파트,혼합식,개별난방,위탁관리,분양,서울특별시 관악구 남부순환로198길 7,156.0,삼성연립재건축조합,서울특별시 관악구 신림동 10-622 신림현대성우,2.0,성우종합건설(주),A15185201,1,028755972,15618.24,17.0,0.0,71.0,68.0,신림현대성우,21207.0,028742659,17, ,19981026.0,4.0,156.0,17.0,11990.49,8780.0,서울특별시 관악구 신림동 10-622,37.4836349466017,126.937192875508,0
1162010100,아파트,복도식,개별난방,위탁관리,임대,서울특별시 관악구 청림5길 28,392.0,대우,서울특별시 관악구 봉천동 1717-1 관악푸르지오제2단지,0.0,대우건설(주),A15105301,1,028823226,28443.52,0.0,0.0,392.0,0.0,관악푸르지오제2단지,28443.52,028823225,20,happy.i-sh.co.kr/main.do?deptid=70198,20040826.0,0.0,392.0,20.0,12689.04,8734.0,서울특별시 관악구 봉천동 1717-1,37.4895955788785,126.960271587162,0
1162010200,아파트,혼합식,개별난방,자치관리,분양,서울특별시 관악구 난곡로35길 28-7,338.0,(주)건영,서울특별시 관악구 신림동 721-2 신림건영2차,0.0,(주)건영,A15188101,4,0263344586,26535.5326,0.0,0.0,255.0,83.0,신림건영2차,27699.78,028684586,13, ,19880105.0,6.0,338.0,13.0,19563.56,8858.0,서울특별시 관악구 신림동 721-2,37.4714477335735,126.917450108404,0
1162010100,주상복합,계단식,개별난방,위탁관리,분양,서울특별시 관악구 관악로 195,108.0,(주)풍성주택,서울특별시 관악구 봉천동 859-17 관악위버폴리스,6.0,(주)풍성주택,A10024514,1,028830320,22273.19,104.0,2.0,0.0,2.0,관악위버폴리스,32278.865,028830120,20, ,20100222.0,2.0,108.0,20.0,11560.932,8745.0,서울특별시 관악구 봉천동 859-17,37.4825638239353,126.953098728924,0
1162010200,아파트,계단식,개별난방,위탁관리,분양,서울특별시 관악구 대학20길 27,336.0,지하철공사조합,서울특별시 관악구 신림동 255-189 대학동현대(구신림9동),0.0,현대건설,A15186002,5,0262786250,26679.3086,0.0,0.0,0.0,336.0,대학동현대(구신림9동),35204.0,028736250,15, ,19911012.0,14.0,336.0,15.0,27297.74,8824.0,서울특별시 관악구 신림동 255-189,37.4643963201766,126.937548871364,0
1162010200,아파트,혼합식,개별난방,자치관리,분양,서울특별시 관악구 신림로3길 40,783.0,건영,서울특별시 관악구 신림동 1703-1 건영3차아파트,0.0,건영,A15101903,7,028711695,74941.88,0.0,0.0,212.0,571.0,건영3차아파트,77543.0,028729643,15, ,19960618.0,17.0,783.0,15.0,57240.97,8816.0,서울특별시 관악구 신림동 1703-1,37.4667834195006,126.941886248025,0
1162010200,아파트,계단식,개별난방,위탁관리,혼합,서울특별시 관악구 조원로 25,1143.0,강남아파트재건축조합,서울특별시 관악구 신림동 1644- 힐스테이트뉴포레,3.0,현대엔지니어링,A10023661,7, ,96098.3047,0.0,0.0,1007.0,136.0,힐스테이트뉴포레,146677.998,028536401,35, ,20220829.0,27.0,1143.0,35.0,69443.34,8700.0,서울특별시 관악구 신림동 1644-,37.483708310871,126.905433298638,0
1162010100,,혼합식,개별난방,위탁관리,분양,서울특별시 관악구 청림3길 10,142.0,봉천신시장재개발정비사업조합,서울특별시 관악구 봉천동 1729- 서희스타힐스,4.0,주식회사 서희건설,A10024666,1,028711563,22192.28,0.0,0.0,71.0,71.0,서희스타힐스,29813.52, ,15, ,20150910.0,5.0,142.0,15.0,10082.58,8731.0,서울특별시 관악구 봉천동 1729-,37.4886505222551,126.95950602146,0
1162010200,아파트,혼합식,개별난방,자치관리(직영),분양,서울특별시 관악구 신림로3가길 7,126.0,조합,서울특별시 관악구 신림동 1706- 신림2차금호타운,2.0,금호건설,A10024749,1,0260837334,12764.0,16.0,0.0,60.0,50.0,신림2차금호타운,12765.21,028767331,16, ,19980601.0,1.0,126.0,16.0,9680.62,8816.0,서울특별시 관악구 신림동 1706-,37.4682378425488,126.944342536615,0
1162010100,아파트,혼합식,개별난방,위탁관리,분양,서울특별시 관악구 관악로 304,2134.0,봉천제1구역주택개량재개발조합,서울특별시 관악구 봉천동 1000- 관악현대,0.0,현대건설,A15105303,26,028732308,235925.683,739.0,0.0,513.0,882.0,관악현대,245533.544,028731787,15,관악현대.apti.co.kr,19920427.0,61.0,2134.0,15.0,184527.43,8730.0,서울특별시 관악구 봉천동 1000-,37.4920505661271,126.957711000956,0
1162010100,아파트,계단식,개별난방,위탁관리,분양,서울특별시 관악구 관악로28길 80,118.0,미주연립재건축조합,서울특별시 관악구 봉천동 1724- 관악월드메르디앙아파트,1.0,월드건설(주),A10024638,2,028733138,12179.0,0.0,0.0,0.0,118.0,관악월드메르디앙아파트,12368.98,028733148,14, ,20051202.0,6.0,118.0,14.0,9729.0,8736.0,서울특별시 관악구 봉천동 1724-,37.4835249228558,126.959145284638,0
1162010100,아파트,혼합식,개별난방,자치관리,분양,서울특별시 관악구 인헌길 68,251.0,현대건설(주),서울특별시 관악구 봉천동 179-58 낙성대현대,0.0,현대건설(주),A15181602,3,028876835,30141.62,0.0,90.0,0.0,161.0,낙성대현대,30142.0,028711077,15, ,19880311.0,5.0,251.0,15.0,23497.11,8797.0,서울특별시 관악구 봉천동 179-58,37.4723656704257,126.966353193028,0
1162010100,아파트,혼합식,중앙난방,위탁관리,분양,서울특별시 관악구 관악로30길 12,1597.0,봉천 7-1 재개발조합,서울특별시 관악구 봉천동 1706- 관악우성아파트,2.0,우성건설,A15105603,8,028843746,179254.907,410.0,0.0,440.0,747.0,관악우성아파트,225184.0,028843744,29, ,20001213.0,30.0,1597.0,29.0,136819.32,8735.0,서울특별시 관악구 봉천동 1706-,37.4841357625535,126.960607343765,0
1162010200,아파트,계단식,개별난방,위탁관리,분양,서울특별시 관악구 조원로16길 7,304.0,(주)신도종합건설,서울특별시 관악구 신림동 1722- 신림신도브래뉴,2.0,(주)신도종합건설,A15101802,4,028616542,33851.4,63.0,0.0,0.0,241.0,신림신도브래뉴,45238.0,028564929,19,http//신림신도브래뉴.apti.co.kr,20030401.0,3.0,304.0,19.0,27404.79,8767.0,서울특별시 관악구 신림동 1722-,37.4838779255481,126.911299929111,0
1162010100,아파트,계단식,개별난방,위탁관리,분양,서울특별시 관악구 행운10길 21,363.0,까치산공원주택재건축정비사업조합,서울특별시 관악구 봉천동 1728- 관악파크푸르지오,5.0,대우건설,A15105008,7,028899791,37240.9,0.0,0.0,95.0,268.0,관악파크푸르지오,37249.48,028899790,22, ,20140919.0,11.0,363.0,22.0,28354.25,8735.0,서울특별시 관악구 봉천동 1728-,37.4822590156576,126.962151071938,0
1162010200,아파트,복도식,,자치관리,혼합,서울특별시 관악구 미성5길 40,197.0,sh공사,서울특별시 관악구 신림동 1712- 신림초원,1.0,대양건설(주),A15188801,1,028553491,17332.119,0.0,0.0,197.0,0.0,신림초원,17432.08,028563491,18, ,19990707.0,0.0,197.0,18.0,10119.97,8865.0,서울특별시 관악구 신림동 1712-,37.4733555004007,126.914118365347,0
1162010100,아파트,계단식,개별난방,위탁관리,분양,서울특별시 관악구 은천로15길 24,281.0,관악아파트 재건축조합,서울특별시 관악구 봉천동 1720- 봉천벽산블루밍3차,2.0,벽산건설,A15178202,5,028873752,29590.92,44.0,0.0,57.0,180.0,봉천벽산블루밍3차,38222.0,028873751,23, ,20041220.0,8.0,281.0,23.0,23485.31,8715.0,서울특별시 관악구 봉천동 1720-,37.4878032656855,126.944352221335,0
1162010200,아파트,혼합식,개별난방,위탁관리,분양,서울특별시 관악구 관천로27길 2,201.0,(주)우방,서울특별시 관악구 신림동 1715- 신림우방,2.0,(주)우방,A15187101,3,028616105,20918.27,46.0,0.0,108.0,47.0,신림우방,27367.29,028518283,24, ,19991130.0,0.0,201.0,24.0,15720.68,8703.0,서울특별시 관악구 신림동 1715-,37.4884649259288,126.918643067851,0
1162010100,,복도식,개별난방,위탁관리,임대,서울특별시 관악구 남부순환로224길 31,201.0,라온스테이2030,서울특별시 관악구 봉천동 854-3 BX201 청년주택,2.0,강남건영(주),A10023372,1,028760204,8239.52,0.0,0.0,201.0,0.0,BX201 청년주택,8239.52,028760203,20,www.bx201.co.kr,20220510.0,0.0,201.0,20.0,4158.0,8788.0,서울특별시 관악구 봉천동 854-3,37.4794446116971,126.953302601211,0
1162010100,연립주택,,,,분양,서울특별시 관악구 은천로39길 56,, ,서울특별시 관악구 봉천동 1021- 일두아파트,, ,A10023490,1, ,,0.0,0.0,204.0,0.0,일두아파트,,028771985,1, ,19851120.0,0.0,204.0,6.0,9701.76,8726.0,서울특별시 관악구 봉천동 1021-,37.4889701928515,126.954067603784,0
1162010200,아파트,혼합식,개별난방,위탁관리,분양,서울특별시 관악구 미성길 122,373.0,남광토건(주),서울특별시 관악구 신림동 1686- 신림쌍용,4.0,산호재건축조합,A15102203,3,028613282,36419.8278,54.0,0.0,229.0,90.0,신림쌍용,50881.25,028613281,18, ,19980227.0,8.0,373.0,18.0,27415.96,8866.0,서울특별시 관악구 신림동 1686-,37.4728285117404,126.912173514333,0
1162010200,아파트,계단식,개별난방,위탁관리,분양,서울특별시 관악구 신림로48길 17-20,236.0,송파지구연예인지역주택조합,서울특별시 관악구 신림동 1702-1 신림건영4차,3.0,(주)건영종합건설,A15102902,3,028751962,25289.4296,0.0,0.0,0.0,236.0,신림건영4차,28599.0,028861223,19, ,19970523.0,2.0,236.0,19.0,20030.8,8778.0,서울특별시 관악구 신림동 1702-1,37.4798598469548,126.933314259238,0
1162010100,아파트,,,기타,,서울특별시 관악구 관악로5길 42,, ,서울특별시 관악구 봉천동 1700- 봉천갑을,, ,A15176603,1, ,,0.0,0.0,41.0,54.0,봉천갑을,,028831343,1, ,,,95.0,14.0,6829.46,8833.0,서울특별시 관악구 봉천동 1700-,37.4750846730618,126.952068524516,0
1162010200,주상복합,복도식,개별난방,위탁관리(직영+위탁),임대,서울특별시 관악구 남부순환로180길 6,299.0,신림리더스하우징,서울특별시 관악구 신림동 1745- 최강타워,6.0,보미건설,A10022801,2,028839058,22890.23,0.0,0.0,299.0,0.0,최강타워,22890.23,028839057,22, ,20230530.0,5.0,299.0,22.0,9901.1,8777.0,서울특별시 관악구 신림동 1745-,37.4837589483107,126.930629680819,0
1162010200,아파트,계단식,,위탁관리,분양,서울 관악구 미성5길 33,132.0,(주)한양건설,서울특별시 관악구 신림동 1563-82 신림한양아파트,1.0,(주)한양건설,A10022412,3,028677286,11192.28,0.0,0.0,0.0,132.0,신림한양아파트,14551.0,028697286,18, ,19920218.0,4.0,132.0,,,,서울특별시 관악구 신림동 1563-82,37.4728546408497,126.91538372702,0
1162010200,아파트,혼합식,개별난방,위탁관리,분양,서울특별시 관악구 호암로 417,630.0,신림제2-2구역재개발조합,서울특별시 관악구 신림동 1693- 관악국제산장,0.0,국제종합건설,A15176701,8,028860427,63759.6,0.0,0.0,120.0,510.0,관악국제산장,72052.0,028860422,15, ,19930824.0,19.0,630.0,15.0,50109.3,8848.0,서울특별시 관악구 신림동 1693-,37.4613351494786,126.927479872415,0
1162010200,아파트,혼합식,개별난방,위탁관리,분양,서울 관악구 조원로11길 24,119.0,우민건설,서울특별시 관악구 신림동 1719- 우민조원아파트,0.0,우민건설,A10022424,1, ,12382.2,111.0,0.0,0.0,8.0,우민조원아파트,12406.2,028663454,1, ,20030613.0,,119.0,,,,서울특별시 관악구 신림동 1719-,37.4842011058482,126.907524620292,0
1162010100,아파트,계단식,개별난방,위탁관리,분양,서울특별시 관악구 봉천로 387,2001.0,두산,"서울특별시 관악구 봉천동 1708- 봉천두산1,2단지",0.0,두산,A15106901,25,0232850169,217088.76,510.0,0.0,753.0,738.0,"봉천두산1,2단지",283601.04,0232850168,23, ,20001228.0,47.0,2001.0,23.0,166396.71,8750.0,서울특별시 관악구 봉천동 1708-,37.4837602834938,126.942701190325,0
1162010100,아파트,복도식,개별난방,위탁관리,혼합,서울특별시 관악구 양녕로6나길 18,277.0,SH공사,서울특별시 관악구 봉천동 1705- 봉천신봉,2.0,(주)국제종합토건,A15106001,2,028765070,20728.62,0.0,0.0,277.0,0.0,봉천신봉,20728.62,028765020,15,sinbong.aptgate.co.kr,19990511.0,3.0,277.0,15.0,12868.6,8746.0,서울특별시 관악구 봉천동 1705-,37.4845625325737,126.948971236602,0
1162010300,아파트,복도식,,위탁관리,분양,서울 관악구 승방길 66,129.0,칠성재건축위원회,서울특별시 관악구 남현동 1138- 예성그랑펠리체아파트,3.0,예성종합건설,A10021899,3, ,13.0,110.0,19.0,0.0,0.0,예성그랑펠리체아파트,19.0,0234712226,12, ,20070328.0,5.0,129.0,,,,서울특별시 관악구 남현동 1138-,37.4729736956294,126.978402009855,0
1162010100,도시형 생활주택(아파트),복도식,,위탁관리,분양,서울 관악구 남부순환로 1777-7,114.0,대호아이피개발(주),서울특별시 관악구 봉천동 893-1 프라비다 M,2.0,대호아이피종합건설(주),A10021724,1,0261058691,4053.84,0.0,0.0,114.0,0.0,프라비다 M,,0261058690,20, ,20141107.0,1.0,114.0,,,,서울특별시 관악구 봉천동 893-1,37.4823862782126,126.947625231145,0
1162010200,아파트,,,,분양,서울 관악구 양지길 52-1,, ,서울특별시 관악구 신림동 1726- 관악우정하이비전아파트 2단지,, ,A10020921,1, ,0.0,,,,,관악우정하이비전아파트 2단지,0.0,02-872-7794,1, ,20040611.0,,,,,,서울특별시 관악구 신림동 1726-,37.4707974304681,126.926963496421,0
1162010200,도시형 생활주택(아파트),복도식,,위탁관리,분양,서울 관악구 신림로65길 27,130.0,주식회사코람코자산신탁,서울특별시 관악구 신림동 1433-55 프라비다트라움,1.0,대호아이피종합건설주식회사,A10021742,1,0261058691,2996.86,0.0,0.0,130.0,0.0,프라비다트라움,4328.0,0261058690,11, ,20131217.0,3.0,130.0,,,,서울특별시 관악구 신림동 1433-55,37.4848187225214,126.928081647142,0
1162010100,아파트,계단식,,위탁관리,분양,서울 관악구 봉천로 576,121.0,새한연립 재건축 조합,서울특별시 관악구 봉천동 1629-2 동아타운아파트,0.0,동아건설산업(주),A10021687,1,028727400,10049.63,14.0,28.0,79.0,0.0,동아타운아파트,20017.0,028727637,16, ,19991030.0,1.0,121.0,,,,서울특별시 관악구 봉천동 1629-2,37.4769738774324,126.961320975076,0
1162010100,도시형 생활주택(아파트),복도식,개별난방,위탁관리,분양,서울 관악구 남부순환로 1773,117.0,한국자산신탁(주),서울특별시 관악구 봉천동 893-12 마에스트로캠퍼스타운,2.0,(주)한미글로벌건축사사무소,A10021647,1,0261058691,3207.23,0.0,0.0,117.0,0.0,마에스트로캠퍼스타운,,0261058690,1, ,20121019.0,1.0,117.0,,,,서울특별시 관악구 봉천동 893-12,37.48213912809,126.947212611798,0
1162010100,아파트,계단식,개별난방,위탁관리,혼합,서울 관악구 구암5길 28,997.0,봉천제 4-1-2구역 주택재개발 정비사업 조합,서울특별시 관악구 봉천동 1699-1 힐스테이트관악센트씨엘,0.0,현대건설,A10020964,9, ,93461.21,592.0,6.0,67.0,332.0,힐스테이트관악센트씨엘,154393.53,028771060,1, ,20241230.0,,997.0,,,,서울특별시 관악구 봉천동 1699-1,37.4904233317703,126.946158010411,0
1162010200,도시형 생활주택(주상복합),복도식,개별난방,위탁관리,임대,서울 관악구 신림로 99,413.0,캡스톤서림역청년주택일반사모부동산투자 유한회사,서울특별시 관악구 신림동 1747- 센터스퀘어 서울대점,0.0,요진건설산업,A10021418,1, ,25977.29,56.0,0.0,318.0,39.0,센터스퀘어 서울대점,32088.0,028750980,1, ,20240814.0,6.0,413.0,,,,서울특별시 관악구 신림동 1747-,37.4702240714953,126.938430746227,0
