bjdCode,codeAptNm,codeHallNm,codeHeatNm,codeMgrNm,codeSaleNm,address,hoCnt,kaptAcompany,kaptAddr,kaptBaseFloor,kaptBcompany,kaptCode,kaptDongCnt,kaptFax,kaptMarea,kaptMparea_135,kaptMparea_136,kaptMparea_60,kaptMparea_85,kaptName,kaptTarea,kaptTel,kaptTopFloor,kaptUrl,kaptUsedate,kaptdEcntp,kaptdaCnt,ktownFlrNo,privArea,zipcode,전기사용금액,가스사용금액,난방사용금액,전기사용량,가스사용량,난방사용량,냉수사용량,온수사용량,냉수사용금액,온수사용금액,집계날짜,cleaned_address,lat,lon
1153010200,아파트,계단식,개별난방,자치관리,분양,서울 구로구 공원로 41,104.0,현대건설(주),서울특별시 구로구 구로동 108- 현대파크빌아파트,2.0,(주)현대건설,A10020947,1,028690642,23127.247,0.0,104.0,0.0,0.0,현대파크빌아파트,23127.2471,028690690,1, ,19991206.0,0.0,104.0,,,,0,0,0,0,0,0,0,0,0,0,202401,서울특별시 구로구 구로동 108-,37.50036882384,126.889924711112
1153010100,주상복합,타워형,개별난방,위탁관리,분양,서울 구로구 경인로 584,96.0,(주)고속도로관리공단,서울특별시 구로구 신도림동 412-3 신도림팰러티움,5.0,(주)고속도로관리공단,A10021030,1, ,15526.8,0.0,96.0,0.0,0.0,신도림팰러티움,26554.76,0226721300,26, ,20061009.0,2.0,96.0,,,,0,0,0,0,0,0,0,0,0,0,202401,서울특별시 구로구 신도림동 412-3,37.5038211816766,126.881697047054
1153010200,아파트,계단식,개별난방,위탁관리,분양,서울 구로구 구일로8길 121,116.0,현대건설(주),서울특별시 구로구 구로동 642-33 구로현대의보아파트,0.0,현대건설(주),A10021077,1,028390144,13267.7,116.0,0.0,0.0,0.0,구로현대의보아파트,13268.09,028390990,1, ,19941004.0,,116.0,,,,0,0,0,0,0,0,0,0,0,0,202401,서울특별시 구로구 구로동 642-33,37.4985533776036,126.876430284326
1153011100,아파트,복도식,개별난방,위탁관리,임대,서울 구로구 오리로 1102-13,138.0,sh공사,서울특별시 구로구 천왕동 280-2 천왕연지마을2단지,1.0,sh공사,A10021128,1,0226888822,10071.66,33.0,0.0,50.0,55.0,천왕연지마을2단지,10071.66,0226880022,1, ,20170830.0,,138.0,,,,0,0,0,0,0,0,0,0,0,0,202401,서울특별시 구로구 천왕동 280-2,37.4847535592833,126.842429822378
1153010200,아파트,계단식,개별난방,위탁관리,분양,서울 구로구 도림로20길 50,111.0,우민산업개발(주),서울특별시 구로구 구로동 1279- 우민늘푸른아파트,1.0,우민산업개발(주),A10021214,1,028574125,10782.74,69.0,0.0,0.0,42.0,우민늘푸른아파트,,028574144,1, ,20041008.0,5.0,111.0,,,,0,0,0,0,0,0,0,0,0,0,202401,서울특별시 구로구 구로동 1279-,37.4882597225362,126.893837128928
1153010200,아파트,계단식,개별난방,자치관리,분양,서울 구로구 구로동로42길 77,109.0,안흥재건축조합,서울특별시 구로구 구로동 1270- 뉴홍현솔레디움아파트,0.0,(주)홍현건설,A10021330,1, ,11580.39,109.0,0.0,0.0,0.0,뉴홍현솔레디움아파트,14631.0,028652908,1,(주)홍현건설,20021223.0,0.0,109.0,,,,0,0,0,0,0,0,0,0,0,0,202401,서울특별시 구로구 구로동 1270-,37.4988496409134,126.883537704987
1153010200,아파트,계단식,개별난방,위탁관리,분양,서울 구로구 구로동로28길 42,148.0,신영건설,서울특별시 구로구 구로동 1287- 구로지웰아파트,0.0,신영건설,A10021345,2,028593391,11855.614,33.0,0.0,0.0,115.0,구로지웰아파트,16265.0,028593390,1, ,20110930.0,,148.0,,,,0,0,0,0,0,0,0,0,0,0,202401,서울특별시 구로구 구로동 1287-,37.4906747727463,126.886837616352
1153010700,아파트,복도식,개별난방,자치관리,분양,서울 구로구 서해안로34가길 22,104.0,동인건설,서울특별시 구로구 개봉동 335-1 개봉동인아파트,2.0,동인건설,A10021547,1,0226899881,7379.51,9.0,0.0,0.0,95.0,개봉동인아파트,1004000.0,0226899881,1,없음,19891025.0,,104.0,,,,0,0,0,0,0,0,0,0,0,0,202401,서울특별시 구로구 개봉동 335-1,37.4938718727456,126.849080707963
1153010700,도시형 생활주택(주상복합),복도식,개별난방,자치관리,분양,서울 구로구 개봉로23가길 10,149.0,주식회사 새미홀딩스,서울특별시 구로구 개봉동 493- 한양 아이클래스 구로,2.0,한양산업개발,A10021629,1, ,14375.9351,134.0,0.0,0.0,15.0,한양 아이클래스 구로,13594.0,0236662083,1, ,20180213.0,,149.0,,,,0,0,0,0,0,0,0,0,0,0,202401,서울특별시 구로구 개봉동 493-,37.495322189037,126.856873016533
1153010200,주상복합,복도식,개별난방,위탁관리,분양,서울 구로구 가마산로27길 24,, ,서울특별시 구로구 구로동 106-10 순영1차 웰라이빌,0.0, ,A10021636,1, ,0.0,,,,,순영1차 웰라이빌,,02-859-9890,1, ,20031108.0,0.0,,,,,0,0,0,0,0,0,0,0,0,0,202401,서울특별시 구로구 구로동 106-10,37.4981673851665,126.891568832095
1153010200,아파트,계단식,개별난방,위탁관리,분양,서울 구로구 구로중앙로8길 41-23,129.0,경남기업,서울특별시 구로구 구로동 1285- 대림역경남아너스빌,1.0,경남기업,A10021832,3,028638822,17129.14,32.0,97.0,0.0,0.0,대림역경남아너스빌,17130.0,028638822,15,없음,20090519.0,4.0,129.0,,,,0,0,0,0,0,0,0,0,0,0,202401,서울특별시 구로구 구로동 1285-,37.4936810424271,126.892994020472
1153010600,아파트,복도식,,위탁관리,분양,서울 구로구 중앙로1길 18-18,123.0,(주)삼희산업,서울특별시 구로구 고척동 324- 고척신원프라자,4.0,신원종합건설(주),A10021933,1, ,11629.71,123.0,0.0,0.0,0.0,고척신원프라자,24390.0,0226180948,17, ,19970430.0,,123.0,,,,0,0,0,0,0,0,0,0,0,0,202401,서울특별시 구로구 고척동 324-,37.4992309400309,126.86358074399
1153010200,,계단식,개별난방,위탁관리,분양,서울 구로구 디지털로 318,100.0,보람건설,서울특별시 구로구 구로동 1271- 보람쉬움아파트,2.0,보람건설,A10022110,2,028381274,9647.024,88.0,0.0,0.0,12.0,보람쉬움아파트,14031.0,028381274,20, ,20030421.0,,100.0,,,,0,0,0,0,0,0,0,0,0,0,202401,서울특별시 구로구 구로동 1271-,37.4867517418133,126.897344081238
1153010200,,계단식,개별난방,위탁관리,분양,서울 구로구 구일로8길 79,125.0,영화건설주식회사,서울특별시 구로구 구로동 1268- 구로영화참마음아파트,0.0,영화건설주식회사,A10022146,1,028526615,10580.07,0.0,0.0,0.0,125.0,구로영화참마음아파트,17280.0,028526614,0, ,20010504.0,,125.0,,,,0,0,0,0,0,0,0,0,0,0,202401,서울특별시 구로구 구로동 1268-,37.4967424446468,126.874548486602
1153010800,,복도식,개별난방,위탁관리,임대,서울 구로구 경인로27길 7,82.0,서울주택도시공사,서울특별시 구로구 오류동 359- 숲에리움헹복주택,4.0,보미건설,A10022360,1,0226860180,3035.98,0.0,0.0,82.0,0.0,숲에리움헹복주택,10328.0,0226880180,18, ,20201125.0,4.0,82.0,,,,0,0,0,0,0,0,0,0,0,0,202401,서울특별시 구로구 오류동 359-,37.4970283791018,126.845121920929
1153010100,,복도식,개별난방,위탁관리,분양,서울 구로구 경인로66길 5,120.0,(주)신성건설,서울특별시 구로구 신도림동 640- 신성은하수아파트,0.0,(주)신성건설,A10022406,1, ,12764.55,120.0,0.0,0.0,0.0,신성은하수아파트,1745650.0,0226713534,17, ,19970701.0,,120.0,,,,0,0,0,0,0,0,0,0,0,0,202401,서울특별시 구로구 신도림동 640-,37.5076249285371,126.88738681414
1153010200,아파트,,,,분양,서울 구로구 가마산로20다길 46,, ,서울특별시 구로구 구로동 1286- 다울숲아파트,, ,A10022507,1, ,,,,,,다울숲아파트,,07081610815,1, ,20100419.0,,,,,,0,0,0,0,0,0,0,0,0,0,202401,서울특별시 구로구 구로동 1286-,37.4924048456347,126.888500533757
1153010100,아파트,,,,분양,서울 구로구 경인로67길 23,, ,서울특별시 구로구 신도림동 338- 신도림2차 푸르지오 아파트,, ,A10022522,1, ,,,,,,신도림2차 푸르지오 아파트,,0236672496,1, ,20080926.0,,,,,,0,0,0,0,0,0,0,0,0,0,202401,서울특별시 구로구 신도림동 338-,37.5104826397728,126.889481191271
1153010700,,계단식,개별난방,위탁관리,분양,서울특별시 구로구 남부순환로97길 74,72.0,조합,서울특별시 구로구 개봉동 487- 개봉상우2차아파트,0.0,상우건설,A10022878,1,0226113297,2708.46,0.0,0.0,0.0,72.0,개봉상우2차아파트,6500.0,0226173297,19, ,20050603.0,2.0,72.0,19.0,5372.46,8328.0,5103530,0,0,19367,0,0,1186,0,1549200,0,202401,서울특별시 구로구 개봉동 487-,37.4935473114591,126.862112563801
1153010200,,계단식,개별난방,위탁관리,분양,서울특별시 구로구 가마산로25길 9,208.0,(주)에이텐피에프브이,서울특별시 구로구 구로동 103-6 구로오네뜨시티,4.0,남해종합건설(주),A10023471,1,028538277,7336.32,0.0,0.0,208.0,0.0,구로오네뜨시티,21151.0,028538270,20, ,20220128.0,4.0,208.0,20.0,4211.36,8301.0,6869524,0,0,26128,0,0,2133,0,2520320,0,202401,서울특별시 구로구 구로동 103-6,37.4966251468796,126.890315032666
1153010600,,계단식,개별난방,위탁관리,임대,서울특별시 구로구 중앙로5길 59,746.0,(주)고척아이파크뉴스테이위탁관리부동산투자회사,서울특별시 구로구 고척동 102-1 고척아이파크RD,2.0,HDC현대산업개발,A10023598,5,0226833337,68294.4982,0.0,0.0,0.0,746.0,고척아이파크RD,98021.1,0220662223,35, ,20220831.0,22.0,746.0,35.0,52645.67,8225.0,53664640,0,0,211822,0,0,0,0,0,0,202401,서울특별시 구로구 고척동 102-1,37.5014057554418,126.859404270704
1153010600,주상복합,계단식,개별난방,위탁관리,임대,서울특별시 구로구 경인로43길 49,1459.0,(주)고청아이파크대한뉴스테이 위탁관리부동산투자회사,서울특별시 구로구 고척동 100-7 고척아이파크MD,3.0,현대산업개발,A10023604,6,0226131775,155227.3164,0.0,0.0,0.0,1459.0,고척아이파크MD,326213.41,0226131777,45,고척아이파크MD.apti.co.kr,20220831.0,32.0,1459.0,45.0,104499.69,8226.0,106496324,0,0,388629,0,0,0,0,0,0,202401,서울특별시 구로구 고척동 100-7,37.4991318775075,126.857590075507
1153010200,주상복합,혼합식,개별난방,자치관리,분양,서울 구로구 구로중앙로 68,98.0,신안건설,서울특별시 구로구 구로동 100-8 신안타워아파트,0.0,신안건설,A10023681,1,028569984,7848.62,16.0,0.0,50.0,32.0,신안타워아파트,21415.65,028589984,21, ,19981010.0,,98.0,21.0,7848.62,,0,0,0,0,0,0,0,0,0,0,202401,서울특별시 구로구 구로동 100-8,37.495860314768,126.888807280468
1153010700,아파트,혼합식,개별난방,위탁관리,임대,서울특별시 구로구 경인로 302,1089.0,(주)서울개봉뉴스테이위탁관리부동산투자회사,서울특별시 구로구 개봉동 497- 개봉역 센트레빌레우스,2.0,"범양건영, 동부건설",A10024745,8,0226127010,162541.7468,0.0,0.0,47.0,1042.0,개봉역 센트레빌레우스,163756.623,0226125000,35, ,20200720.0,33.0,1089.0,35.0,85540.6388,8274.0,75546140,0,0,313543,0,0,17857,0,20301600,0,202401,서울특별시 구로구 개봉동 497-,37.4956939531171,126.855990711712
1153010600,,복도식,개별난방,자치관리(직영),분양,서울특별시 구로구 경인로47가길 10,74.0,신영연립 재건축조합,서울특별시 구로구 고척동 322- 고척성원,10.0,성원 산업개발,A10024846,1,0260844658,5964.4,0.0,0.0,36.0,38.0,고척성원,8344.39,0226824656,10,www.k-apt.go.kr,19961227.0,,74.0,10.0,5264.2,8222.0,0,0,0,0,0,0,0,0,0,0,202401,서울특별시 구로구 고척동 322-,37.5019622160634,126.865676015663
1153011200,아파트,계단식,지역난방,위탁관리,분양,서울특별시 구로구 항동로 8,337.0,우남건설,서울특별시 구로구 항동 216-1 구로항동우남퍼스트빌,2.0,우남건설,A10024849,5,0226122163,37841.91,55.0,0.0,0.0,282.0,구로항동우남퍼스트빌,57050.87,0226122162,20, ,20200603.0,9.0,337.0,20.0,30018.4582,8368.0,28425601,0,22396030,106998,0,207,6338,2344,7440270,25757590,202401,서울특별시 구로구 항동 216-1,37.4774455134372,126.821005436345
1153011200,아파트,계단식,지역난방,위탁관리,분양,서울특별시 구로구 부광로 96-16,345.0,제일건설(주),서울특별시 구로구 항동 207-1 구로항동제일풍경채포레스트,1.0,제일건설(주),A10024927,4,0236668246,38795.15,49.0,0.0,0.0,296.0,구로항동제일풍경채포레스트,54257.0,0236668245,17, ,20200227.0,13.0,345.0,17.0,30059.9003,8362.0,28696840,0,35164160,106904,0,320,5811,2294,6580440,15048000,202401,서울특별시 구로구 항동 207-1,37.4754390766619,126.81637914092
1153011200,아파트,계단식,지역난방,위탁관리,분양,서울특별시 구로구 연동로 233,419.0,중흥건설(주),서울특별시 구로구 항동 100-5 항동중흥S클래스베르데카운티,2.0,중흥건설(주),A10025115,6,0269596581,52889.3992,36.0,32.0,0.0,351.0,항동중흥S클래스베르데카운티,80443.968,0269596580,20, ,20191206.0,0.0,419.0,20.0,38763.9624,8362.0,38537240,0,46244000,138862,0,419,7396,3191,8361730,19703600,202401,서울특별시 구로구 항동 100-5,37.4816933475507,126.820550970603
1153011200,아파트,계단식,지역난방,위탁관리,분양,서울특별시 구로구 항동로 42,634.0,국제자산신탁(주),서울특별시 구로구 항동 153- 항동 한양수자인 에듀힐즈,2.0,한양건설(주),A10025193,9,0226173018,70273.064,103.0,0.0,0.0,531.0,항동 한양수자인 에듀힐즈,99765.5988,0226173016,18, ,20190927.0,26.0,634.0,18.0,54404.3191,8368.0,51702680,0,65452750,202411,0,465,11096,4418,12837150,19881000,202401,서울특별시 구로구 항동 153-,37.4779178799278,126.825135722238
1153011200,아파트,계단식,지역난방,위탁관리,혼합,서울특별시 구로구 항동로 72,297.0,SH공사,서울특별시 구로구 항동 84- 항동하버라인4단지아파트,2.0,동부건설,A10025302,4,0226114261,43054.4,0.0,0.0,297.0,0.0,항동하버라인4단지아파트,43054.4,0226114260,15, ,20190531.0,13.0,297.0,15.0,17419.54,8368.0,19295360,0,14556838,81664,0,149,5077,2311,5518170,14762932,202401,서울특별시 구로구 항동 84-,37.4812930891046,126.826871035904
1153011200,아파트,복도식,지역난방,위탁관리,임대,서울특별시 구로구 연동로 191-5,276.0,한신공영,서울특별시 구로구 항동 243- 항동하버라인 11단지 아파트,2.0,서울주택도시공사,A10025386,3,0226850911,21826.84,0.0,0.0,276.0,0.0,항동하버라인 11단지 아파트,21828.38,0226840911,15, ,20190222.0,5.0,276.0,15.0,9134.44,8368.0,7199900,0,15117820,26804,0,72,1712,712,1863550,0,202401,서울특별시 구로구 항동 243-,37.4780432643291,126.822333327571
1153011200,아파트,계단식,지역난방,위탁관리,혼합,서울특별시 구로구 연동로 234,646.0,서울주택도시공사,서울특별시 구로구 항동 - 항동하버라인2단지,2.0,계룡건설,A10025387,6,0220660599,59326.82,0.0,0.0,447.0,199.0,항동하버라인2단지,91223.42,0220661599,18, ,20190715.0,18.0,646.0,18.0,42318.42,8362.0,40151052,791760,44372530,183765,0,360,10306,4355,10816730,25259000,202401,서울특별시 구로구 항동 - 항동하버라인2,37.4817306289239,126.822146411499
1153011200,도시형 생활주택(아파트),복도식,,위탁관리,임대,서울특별시 구로구 항동로 60,297.0,서울도시주택공사,서울특별시 구로구 항동 135-57 하버라인10단지,2.0,동부건설,A10025527,3,0226840910,24.0,0.0,0.0,297.0,0.0,하버라인10단지,25.0,0226830910,13, ,20190222.0,7.0,297.0,13.0,9837.93,8368.0,6701150,0,10215450,32069,0,73,1838,875,2039500,4611250,202401,서울특별시 구로구 항동 135-57,37.4793797900634,126.825823102553
1153011200,아파트,복도식,지역난방,위탁관리,임대,서울특별시 구로구 항동로 68,298.0,서울주택도시공사,서울특별시 구로구 항동 - 항동 하버라인9단지,2.0,동부건설,A10025564,3,0226830999,24548.06,0.0,0.0,298.0,0.0,항동 하버라인9단지,24549.21,0226820999,12, ,20190222.0,7.0,298.0,12.0,9837.62,8368.0,6713110,0,11278770,32144,0,80,1901,949,2135990,5029700,202401,서울특별시 구로구 항동 - 항동 하버라인9,37.4804265202648,126.825842832721
1153011200,아파트,혼합식,지역난방,위탁관리,혼합,서울특별시 구로구 항동로 43,1170.0,SH주택공사,서울특별시 구로구 항동 - 항동하버라인3단지,2.0,한신공영,A10025614,12,0226880365,158333.84,0.0,0.0,836.0,334.0,항동하버라인3단지,158337.45,0236660361,18, ,20190225.0,37.0,1170.0,18.0,73991.07,8368.0,67340364,0,58640140,310418,0,521,19253,7878,18176650,63623130,202401,서울특별시 구로구 항동 - 항동하버라인3,37.4789423906036,126.824571211875
1153010200,주상복합,계단식,개별난방,자치관리,분양,서울특별시 구로구 공원로 63,72.0,희훈건설,서울특별시 구로구 구로동 110-1 희훈타워빌,5.0,희훈건설,A10025743,1,028614076,13248.0,53.0,20.0,0.0,0.0,희훈타워빌,21596.83,028614075,30, ,19980418.0,,73.0,30.0,9596.55,8295.0,0,0,0,0,0,0,0,0,0,0,202401,서울특별시 구로구 구로동 110-1,37.5020041382799,126.888854942576
1153011200,아파트,혼합식,지역난방,위탁관리,임대,서울특별시 구로구 서해안로 2036,384.0,서울주택도시공사,서울특별시 구로구 항동 - 항동하버라인8단지,2.0,(주)대보건설,A10025858,5,0226110079,43046.0,0.0,0.0,384.0,0.0,항동하버라인8단지,43196.0,0226110078,15, ,20181030.0,9.0,384.0,15.0,18226.01,8368.0,19516160,0,25261391,78077,0,148,4497,1617,4580220,0,202401,서울특별시 구로구 항동 - 항동하버라인8,37.4756237727979,126.818706218661
1153011100,아파트,복도식,개별난방,위탁관리,임대,서울특별시 구로구 금오로 882,298.0,서울주택도시공사,서울특별시 구로구 천왕동 276- 천왕이펜하우스8단지,1.0,동우건설(주),A10026039,4,0220600562,22688.45,0.0,0.0,298.0,0.0,천왕이펜하우스8단지,22557.92,0220600561,15, ,20180917.0,4.0,298.0,15.0,10446.4,8366.0,7236170,0,0,32626,0,0,2481,0,2722910,0,202401,서울특별시 구로구 천왕동 276-,37.4760030858366,126.842316036524
1153010800,아파트,타워형,개별난방,위탁관리,임대,서울특별시 구로구 경인로20가길 68,890.0,lh공사,서울특별시 구로구 오류동 64-25 서울 오류동 행복주택,0.0,"롯데건설, 금호건설, 계룔건설",A10026434,4,0226138583,55593.8776,0.0,0.0,890.0,0.0,서울 오류동 행복주택,57092.96,0226118582,18, ,20180226.0,0.0,890.0,18.0,27721.7,8272.0,22336980,0,0,170586,0,0,7900,0,8492980,0,202401,서울특별시 구로구 오류동 64-25,37.4955852449417,126.846646657201
1153011100,아파트,복도식,개별난방,위탁관리,임대,서울특별시 구로구 오류로 36-13,181.0,서울주택도시공사,서울특별시 구로구 천왕동 - 천왕연지마을1단지 아파트,1.0,대들보건설,A10026729,1,0226880014,11248.23,0.0,0.0,181.0,0.0,천왕연지마을1단지 아파트,11249.0,0226880013,10, ,20170830.0,1.0,181.0,10.0,4986.58,8350.0,6026990,376010,0,17514,0,0,1804,0,1777700,0,202401,서울특별시 구로구 천왕동 - 천왕연지마을1,37.4881667239892,126.84126231209
1153010200,아파트,계단식,개별난방,위탁관리,분양,서울특별시 구로구 도림천로12길 6,83.0,대림공영,서울특별시 구로구 구로동 1273- 대림아르빌아파트,2.0,대림공영,A10026989,1,028567056,13187.96,27.0,0.0,0.0,56.0,대림아르빌아파트,13188.0,028567056,15, ,20030924.0,,83.0,15.0,7765.16,,0,0,0,0,0,0,0,0,0,0,202401,서울특별시 구로구 구로동 1273-,37.4903245803493,126.895475490036
1153010200,아파트,혼합식,개별난방,자치관리,분양,서울특별시 구로구 구로중앙로 34,125.0,덕영,서울특별시 구로구 구로동 1282- 덕영드림아파트,2.0,덕영,A10027493,1,028386371,11474.31,0.0,0.0,65.0,60.0,덕영드림아파트,13892.28,028667001,15, ,20061228.0,3.0,125.0,15.0,7874.99,8303.0,0,0,0,0,0,0,0,0,0,0,202401,서울특별시 구로구 구로동 1282-,37.4930233028325,126.890919958301
1153010200,아파트,복도식,개별난방,자치관리,분양,서울특별시 구로구 구일로8길 107,105.0,현대건설,서울특별시 구로구 구로동 642-39 한국현대아파트,0.0,현대건설,A10027507,1,028545511,11309.55,0.0,0.0,0.0,105.0,한국현대아파트,11310.0,028545511,15, ,19940513.0,2.0,105.0,15.0,8898.75,8323.0,0,0,0,0,0,0,0,0,0,0,202401,서울특별시 구로구 구로동 642-39,37.4978353516002,126.875387228702
1153010800,아파트,계단식,개별난방,자치관리,분양,서울특별시 구로구 서해안로 2368,120.0,테니스영립재건축조합,서울특별시 구로구 오류동 348- 우림필유아파트,1.0,우림건설,A10027522,2,0226146982,8637.12,0.0,0.0,60.0,60.0,우림필유아파트,13968.33,0226146981,15, ,20051207.0,4.0,120.0,15.0,8637.12,8340.0,0,0,0,0,0,0,0,0,0,0,202401,서울특별시 구로구 오류동 348-,37.494103212466,126.84743718097
1153011100,아파트,복도식,개별난방,위탁관리,임대,서울특별시 구로구 천왕로1길 24,374.0,에스에이치공사,서울특별시 구로구 천왕동 144- 천왕이펜하우스7단지,1.0,우신건설(주),A10027764,5,0226853666,26849.46,0.0,0.0,374.0,0.0,천왕이펜하우스7단지,26849.93,0226873666,15, ,20170207.0,6.0,374.0,15.0,11205.04,8364.0,10053200,107650,0,0,0,0,0,0,2504200,0,202401,서울특별시 구로구 천왕동 144-,37.4820831684467,126.836864954157
1153010100,아파트,계단식,개별난방,위탁관리,임대,서울특별시 구로구 경인로67길 33,189.0,일양테라,서울특별시 구로구 신도림동 332-1 신도림아이파크아파트,2.0,(주)아이앤콘스,A10028063,3,0226780053,15103.44,0.0,0.0,189.0,0.0,신도림아이파크아파트,23583.44,0226780052,27, ,20150206.0,5.0,189.0,27.0,10793.0905,8208.0,14001330,0,0,0,0,0,0,0,3463680,0,202401,서울특별시 구로구 신도림동 332-1,37.5112823029264,126.888069346869
1153010200,아파트,혼합식,개별난방,위탁관리,분양,서울특별시 구로구 구로동로43길 10,216.0,(주)우리건설,서울특별시 구로구 구로동 1277- 우리유앤미,1.0,(주)우리건설,A15205001,2,0264073654,21091.42,0.0,0.0,60.0,156.0,우리유앤미,26940.138,028384812,21, ,20041112.0,5.0,216.0,21.0,16641.86,8281.0,13371110,0,0,61485,0,0,3734,0,4457380,0,202401,서울특별시 구로구 구로동 1277-,37.4967066330934,126.881848835175
1153010200,아파트,복도식,개별난방,위탁관리,임대,서울특별시 구로구 도림로 59,442.0,두산건설,서울특별시 구로구 구로동 1266- 구로두산제2,2.0,두산건설,A15205002,1,028392052,17533.8748,0.0,0.0,442.0,0.0,구로두산제2,22171.0,028392051,21, ,19981130.0,5.0,442.0,21.0,12199.2,8313.0,8293201,0,0,69561,0,0,4538,0,2611170,0,202401,서울특별시 구로구 구로동 1266-,37.4898993993674,126.888961869782
1153010200,아파트,계단식,개별난방,위탁관리,분양,서울특별시 구로구 구일로8길 31,296.0,구로연합주택조합,서울특별시 구로구 구로동 1058- 구로우성(1동),1.0,우성건설,A15205103,3,0267379600,31825.828,0.0,0.0,104.0,192.0,구로우성(1동),32729.0,028529435,18, ,19951116.0,9.0,296.0,18.0,22372.32,8324.0,17666940,0,0,89307,0,0,5181,0,6190320,0,202401,서울특별시 구로구 구로동 1058-,37.4951725106722,126.872676208658
1153010200,아파트,계단식,개별난방,위탁관리,분양,서울특별시 구로구 가마산로 87,454.0,한일건설,서울특별시 구로구 구로동 1281- 구로한일유엔아이,2.0,한일건설,A15205104,8,028620940,39354.5,40.0,0.0,0.0,414.0,구로한일유엔아이,68912.084,028620820,22,haniluni.apti.co.kr,20060627.0,11.0,454.0,22.0,39355.294,8327.0,31238920,0,0,140581,0,0,8373,0,9352380,0,202401,서울특별시 구로구 구로동 1281-,37.4858484455147,126.876157009657
1153010200,아파트,혼합식,개별난방,위탁관리,분양,서울특별시 구로구 구일로2길 60,829.0,(주)우성건설,서울특별시 구로구 구로동 1259- 구일우성아파트,2.0,(주)우성건설,A15205108,10,028304955,86516.046,199.0,0.0,382.0,248.0,구일우성아파트,109938.0,028564064,25, ,19980516.0,16.0,829.0,25.0,66439.13,8325.0,54095030,0,0,246745,0,0,14476,0,16579030,0,202401,서울특별시 구로구 구로동 1259-,37.4897580709997,126.877081155332
1153010200,아파트,계단식,개별난방,위탁관리,분양,서울특별시 구로구 시흥대로161길 50,240.0,남부아파트 재건축조합,서울특별시 구로구 구로동 1274- 구로신성미소지움,1.0,신성건설(주),A15205301,4,028662989,23249.4,0.0,0.0,30.0,210.0,구로신성미소지움,29580.56,028662988,15,openapt.seoul.go.kr/,20031204.0,8.0,240.0,15.0,18892.95,8393.0,14489153,0,0,66425,0,0,3826,0,4808020,0,202401,서울특별시 구로구 구로동 1274-,37.4797916432559,126.896735622301
1153010200,아파트,혼합식,개별난방,위탁관리,분양,서울특별시 구로구 디지털로31길 120,498.0,구로제7구역주택재개발조합,서울특별시 구로구 구로동 1280- 구로한신휴플러스,0.0,한신공영(주),A15205303,7,028550856,37737.28,0.0,0.0,456.0,42.0,구로한신휴플러스,64419.0,028550855,19,emaul.co.kr,20070517.0,12.0,498.0,19.0,28411.16,8371.0,28616710,0,0,124379,0,0,8236,0,9792550,0,202401,서울특별시 구로구 구로동 1280-,37.4884700177382,126.890773027393
1153010200,아파트,혼합식,개별난방,위탁관리,분양,서울특별시 구로구 디지털로31길 85,660.0,두산건설,서울특별시 구로구 구로동 1278- 구로두산위브,2.0,두산건설,A15205305,9,028301411,41353.07,0.0,0.0,620.0,40.0,구로두산위브,65641.99,028301380,21, ,20060728.0,14.0,660.0,21.0,29536.66,8375.0,28924890,0,0,180691,0,0,6674,0,8114440,0,202401,서울특별시 구로구 구로동 1278-,37.4858983185376,126.890628991331
1153010200,아파트,혼합식,개별난방,위탁관리,분양,서울특별시 구로구 도림로 59,1285.0,구로6구역재개발조합,서울특별시 구로구 구로동 1265- 구로두산,3.0,두산건설,A15205405,10,028645148,94114.58,0.0,0.0,1081.0,204.0,구로두산,111962.85,028645146,25,www.gurodoosan.aptstory.com,19981130.0,19.0,1285.0,25.0,65384.1,8313.0,53357042,0,0,255851,0,0,11439,0,19940810,0,202401,서울특별시 구로구 구로동 1265-,37.4898993993674,126.888961869782
1153010200,주상복합,복도식,개별난방,위탁관리,분양,서울특별시 구로구 구로중앙로 134,299.0,에이알디홀딩스(주),서울특별시 구로구 구로동 501- 신구로자이,0.0,GS건설(주),A15205508,1,028627029,39657.7372,136.0,3.0,0.0,160.0,신구로자이,58498.83,028627030,36, ,20070511.0,4.0,299.0,36.0,30286.92,8293.0,29820817,0,0,95678,0,0,4836,0,6056750,0,202401,서울특별시 구로구 구로동 501-,37.4999880723052,126.884098218095
1153010200,아파트,계단식,개별난방,위탁관리,분양,서울특별시 구로구 새말로 31,718.0,(주)다보종합건축사,서울특별시 구로구 구로동 1263- 신도림롯데,1.0,(주)롯데건설,A15205511,11,028578304,80883.42,114.0,36.0,240.0,328.0,신도림롯데,103231.37,028578303,23,신도림롯데.apti.co.kr,19991127.0,18.0,718.0,23.0,63301.64,8291.0,41312817,0,0,201345,0,0,11972,0,13579480,0,202401,서울특별시 구로구 구로동 1263-,37.5043803735487,126.884825422545
1153010200,아파트,계단식,중앙난방,위탁관리,분양,서울특별시 구로구 새말로 93,1252.0,(주)태영,서울특별시 구로구 구로동 1267- 신도림태영타운,2.0,(주)태영,A15205513,13,0260936366,144800.9,208.0,86.0,270.0,688.0,신도림태영타운,198579.51,028666365,27, ,20001222.0,26.0,1252.0,27.0,113759.0,8288.0,82574460,0,186562040,347099,0,116674,15384,9217,22634150,27651000,202401,서울특별시 구로구 구로동 1267-,37.5062344102877,126.889103370184
1153010600,아파트,계단식,개별난방,위탁관리,분양,서울특별시 구로구 경인로 343,600.0,장미아파트조합,서울특별시 구로구 고척동 336- 고척삼환로즈빌,2.0,삼환기업,A15208003,7,0220669549,61717.57,46.0,0.0,124.0,430.0,고척삼환로즈빌,86050.131,0220669548,24, ,20041210.0,14.0,600.0,24.0,48696.022,8226.0,36746550,0,0,173008,0,0,0,0,0,0,202401,서울특별시 구로구 고척동 336-,37.4983033029466,126.857432535649
1153010600,아파트,계단식,개별난방,위탁관리,분양,서울특별시 구로구 경인로47길 128,175.0,유진기업,서울특별시 구로구 고척동 338- 고척마젤란,1.0,유진기업,A15208005,2,0226825166,18755.94,58.0,0.0,27.0,90.0,고척마젤란,23757.17,0226825167,15, ,20080501.0,7.0,175.0,15.0,14544.887,8219.0,11984012,0,0,53719,0,0,3155,0,3844080,0,202401,서울특별시 구로구 고척동 338-,37.5045853756561,126.863921148452
1153010600,아파트,계단식,개별난방,위탁관리,혼합,서울특별시 구로구 고척로60길 30,339.0,고척제3주택재개발정비사업조합,서울특별시 구로구 고척동 342- 고척벽산베스트블루밍,2.0,벽산건설(주),A15208006,6,0220602954,27769.143,40.0,0.0,79.0,220.0,고척벽산베스트블루밍,50915.363,0220662954,20,www.gbbest.co.kr,20101201.0,12.0,339.0,20.0,26539.605,8228.0,25664240,0,0,109841,0,0,6081,0,6661350,0,202401,서울특별시 구로구 고척동 342-,37.5051496613125,126.858766619471
1153010600,아파트,계단식,개별난방,위탁관리,분양,서울특별시 구로구 중앙로8길 11,180.0,(주)대한토지신탁,서울특별시 구로구 고척동 343- 고척월드메르디앙,3.0,(주)월드건설,A15208007,4,0226117904,15289.2,0.0,0.0,0.0,180.0,고척월드메르디앙,27711.0,0220667904,20, ,20110727.0,5.0,180.0,20.0,15287.73,8223.0,16263530,0,0,63445,0,0,3136,0,4139520,0,202401,서울특별시 구로구 고척동 343-,37.5025283725553,126.863289184052
1153010600,아파트,혼합식,개별난방,위탁관리,분양,서울특별시 구로구 고척로52길 9,165.0,"황실,건영 재건축조합",서울특별시 구로구 고척동 328- 고척양우,2.0,양우종합건설,A15208201,1,0263422133,15323.9969,0.0,0.0,86.0,79.0,고척양우,21192.36,0226171305,16, ,20000627.0,3.0,165.0,16.0,11581.02,8228.0,9044660,0,0,42219,0,0,2457,0,3213390,0,202401,서울특별시 구로구 고척동 328-,37.5049720175804,126.856551948793
1153010600,아파트,혼합식,개별난방,위탁관리,분양,서울특별시 구로구 중앙로15길 132-17,245.0,한성재건축 주택조합,서울특별시 구로구 고척동 330- 고척삼익1단지,0.0,삼익건설,A15208202,2,0226864906,32380.36,57.0,0.0,93.0,95.0,고척삼익1단지,33166.1,0220662040,19,고척삼익1단지.ma-um.co.kr,20010925.0,5.0,245.0,19.0,20050.95,8239.0,15531850,62440,0,75625,0,0,4210,0,5349450,0,202401,서울특별시 구로구 고척동 330-,37.5087128866768,126.853315030716
1153010600,아파트,계단식,개별난방,위탁관리,분양,서울특별시 구로구 중앙로15길 151,390.0,한일건설,서울특별시 구로구 고척동 337- 고척한일유앤아이,2.0,한일건설,A15208204,7,0226186641,38950.804,44.0,0.0,133.0,213.0,고척한일유앤아이,54641.312,0226186640,23, ,20051229.0,10.0,390.0,23.0,31067.539,8239.0,24843830,0,0,116112,0,0,7182,0,8118650,0,202401,서울특별시 구로구 고척동 337-,37.5082177998099,126.852026637597
1153010700,아파트,계단식,개별난방,위탁관리,분양,서울특별시 구로구 경인로 382,1983.0,세아제강,서울특별시 구로구 개봉동 476- 개봉한마을,2.0,"중앙건설,벽산건설",A15209002,26,0263469064,216427.295,275.0,190.0,828.0,690.0,개봉한마을,216427.295,0226849062,25,개봉한마을아파트.ma-um.co.kr,19990430.0,42.0,1983.0,25.0,170123.05,8275.0,130373160,403500,0,582086,0,0,34443,0,40140650,0,202401,서울특별시 구로구 개봉동 476-,37.4963730035523,126.863082153299
1153010700,아파트,복도식,개별난방,자치관리,분양,서울특별시 구로구 경인로40길 25,156.0, ,서울특별시 구로구 개봉동 175-8 청실아파트,0.0, ,A15209003,1,0226870977,14166.36,0.0,0.0,0.0,156.0,청실아파트,14897.98,0226860976,15, ,19871123.0,2.0,156.0,15.0,10762.56,8276.0,8387080,0,0,37349,0,0,0,0,0,0,202401,서울특별시 구로구 개봉동 175-8,37.4954039270721,126.859741653028
1153010700,아파트,계단식,개별난방,위탁관리,분양,서울특별시 구로구 개봉로2길 133-15,684.0,현대산업개발,서울특별시 구로구 개봉동 489- 개봉동아이파크,2.0,현대산업개발,A15209004,11,0220665413,78442.96,104.0,0.0,123.0,457.0,개봉동아이파크,78446.34,0220665411,27, ,20060619.0,16.0,684.0,27.0,58459.59,8331.0,45173574,0,0,201271,0,0,13096,0,16893040,0,202401,서울특별시 구로구 개봉동 489-,37.4895036252786,126.860070762208
1153010700,아파트,계단식,,위탁관리,분양,서울특별시 구로구 경인로 271,100.0,고운건설,서울특별시 구로구 개봉동 484- 개봉고운아파트,1.0,고운건설,A15209006,1,0260820031,10281.3868,0.0,0.0,32.0,68.0,개봉고운아파트,13174.0,0226887876,18, ,20021011.0,0.0,100.0,18.0,7689.04,8237.0,0,0,0,0,0,0,0,0,0,0,202401,서울특별시 구로구 개봉동 484-,37.4990337110846,126.850906530914
1153010700,아파트,계단식,개별난방,위탁관리,혼합,서울특별시 구로구 남부순환로 775,978.0,개봉1주택재건축조합,서울특별시 구로구 개봉동 492- 개봉 푸르지오,2.0,대우건설,A15209007,10,0226142268,102776.8552,92.0,0.0,214.0,672.0,개봉 푸르지오,147217.0,0226142266,25,개봉푸르지오.apti.co.kr,20140520.0,25.0,978.0,25.0,78380.76,8236.0,90395620,0,0,0,0,0,0,0,18133250,0,202401,서울특별시 구로구 개봉동 492-,37.5015678689641,126.847162335199
1153010700,아파트,혼합식,개별난방,위탁관리,분양,서울특별시 구로구 남부순환로97길 50,188.0,상우건설,서울특별시 구로구 개봉동 473- 개봉상우,2.0,상우건설,A15209201,2,0226855252,18613.88,47.0,0.0,94.0,47.0,개봉상우,24033.07,0226855281,24, ,19971211.0,4.0,188.0,24.0,14060.52,8328.0,10767200,0,0,48729,0,0,0,0,565060,0,202401,서울특별시 구로구 개봉동 473-,37.4939270516806,126.860472087125
1153010700,아파트,계단식,개별난방,위탁관리,분양,서울특별시 구로구 남부순환로95길 16,369.0,개봉삼호아파트 재건축조합,서울특별시 구로구 개봉동 471- 개봉삼호아파트,3.0,삼호(주),A15209202,2,0226197010,37518.85,0.0,0.0,133.0,236.0,개봉삼호아파트,45793.744,0226191801,24, ,19961204.0,0.0,369.0,24.0,27993.06,8328.0,24169510,0,0,101168,0,0,6199,0,8329480,0,202401,서울특별시 구로구 개봉동 471-,37.4945679422391,126.857307896676
1153010700,아파트,혼합식,개별난방,위탁관리,분양,서울특별시 구로구 남부순환로95길 88,561.0,화영재건축주택조합,서울특별시 구로구 개봉동 472- 개봉두산,2.0,두산건설,A15209203,2,0267378527,58284.286,148.0,0.0,215.0,198.0,개봉두산,74198.0,0226258527,28,개봉두산.apti.co.kr,19970912.0,10.0,561.0,28.0,46185.55,8336.0,30228220,0,0,150989,0,0,0,0,2305900,0,202401,서울특별시 구로구 개봉동 472-,37.4953252173816,126.851730585144
1153010700,아파트,혼합식,개별난방,위탁관리,분양,서울특별시 구로구 남부순환로95길 54,783.0,영실재건축조합,서울특별시 구로구 개봉동 470- 삼환아파트,2.0,삼환기업(주),A15209205,6,0226846864,87133.58,244.0,0.0,313.0,226.0,삼환아파트,98554.0,0226824745,25, ,19951130.0,15.0,783.0,25.0,65722.89,8336.0,43158019,0,0,202733,0,0,11779,0,15001850,0,202401,서울특별시 구로구 개봉동 470-,37.4950348315458,126.854710644734
1153010700,아파트,혼합식,개별난방,위탁관리,분양,서울특별시 구로구 개봉로20길 158,964.0,현대건설,서울특별시 구로구 개봉동 480- 개봉현대홈타운2단지,3.0,현대건설,A15209206,11,0220660894,82544.88,206.0,32.0,302.0,424.0,개봉현대홈타운2단지,132651.11,0260913031,28,www.emaul.co.kr,20010822.0,19.0,964.0,28.0,82544.88,8330.0,57481303,191250,0,275559,0,0,18228,0,21227000,0,202401,서울특별시 구로구 개봉동 480-,37.4920422788882,126.86073736772
1153010700,아파트,계단식,개별난방,위탁관리,분양,서울특별시 구로구 개봉로20길 6,2412.0,원풍재건축주택조합,서울특별시 구로구 개봉동 481- 개봉동현대아파트,0.0,현대건설(주),A15209207,31,0220666600,274923.123,685.0,0.0,545.0,1182.0,개봉동현대아파트,365347.406,0220666001,25, ,20010822.0,55.0,2412.0,25.0,211890.81,8329.0,158029462,0,0,707213,0,0,42902,0,61925450,0,202401,서울특별시 구로구 개봉동 481-,37.4928802334449,126.859308079005
1153010700,아파트,복도식,개별난방,위탁관리,분양,서울특별시 구로구 개봉로1길 170,208.0,대상건설,서울특별시 구로구 개봉동 477- 대상,2.0,재건축조합,A15209303,2,0226831736,21001.926,0.0,0.0,90.0,118.0,대상,25770.0,0226831737,25, ,19990626.0,0.0,208.0,25.0,14972.28,8355.0,12739317,0,0,52669,0,0,3107,0,3800870,0,202401,서울특별시 구로구 개봉동 477-,37.4823216608927,126.849629345673
1153010700,아파트,계단식,개별난방,위탁관리,분양,서울특별시 구로구 개봉로1길 188,212.0,영화건설,서울특별시 구로구 개봉동 488- 영화 아이닉스,3.0,영화건설,A15209304,2,0226129696,22692.032,25.0,0.0,0.0,187.0,영화 아이닉스,31875.0,0226812300,25, ,20050930.0,0.0,212.0,25.0,17871.55,8355.0,17077010,200860,0,65507,0,0,3918,0,4350150,0,202401,서울특별시 구로구 개봉동 488-,37.4829862555133,126.849425855579
1153010700,아파트,혼합식,개별난방,위탁관리,분양,서울특별시 구로구 개봉로3길 87,1371.0,개봉동아파트재건축조합,서울특별시 구로구 개봉동 478- 개봉한진,3.0,한진중공업,A15209305,13,0226163793,142196.14,80.0,0.0,557.0,734.0,개봉한진,183388.85,0226163794,24,www.개봉한진.com,20000115.0,31.0,1371.0,24.0,104947.19,8354.0,82657768,0,0,385303,0,0,22866,0,27904490,0,202401,서울특별시 구로구 개봉동 478-,37.485898739724,126.850970967732
1153011100,아파트,계단식,개별난방,위탁관리,혼합,서울특별시 구로구 오류로 30,571.0,SH공사,서울특별시 구로구 천왕동 280- 천왕연지타운1단지,2.0,포스코건설,A15210001,11,0226139881,74294.12,0.0,0.0,442.0,129.0,천왕연지타운1단지,74539.68,0226139880,18, ,20131213.0,20.0,571.0,18.0,33176.63,8350.0,33163060,0,51220,154585,0,0,8275,0,9310020,0,202401,서울특별시 구로구 천왕동 280-,37.4863679517074,126.83999205713
1153010800,아파트,계단식,개별난방,위탁관리,분양,서울특별시 구로구 경인로 158,152.0,동선건설,서울특별시 구로구 오류동 345- 오류동선,1.0,동선건설,A15210101,1,0226133607,12561.9792,0.0,0.0,152.0,0.0,오류동선,16366.0,0226133606,19, ,20040421.0,4.0,152.0,19.0,8848.8168,8273.0,8589380,95430,0,39007,0,0,2639,0,2941030,0,202401,서울특별시 구로구 오류동 345-,37.4936520256099,126.839508707259
1153010800,아파트,계단식,개별난방,위탁관리,분양,서울특별시 구로구 고척로 41,182.0,금호건설,서울특별시 구로구 오류동 347- 오류금호어울림,2.0,금호건설,A15210102,2,0220601848,16766.9392,0.0,0.0,74.0,108.0,오류금호어울림,22177.0,0220601840,15, ,20060918.0,7.0,182.0,15.0,13605.24,8253.0,11593230,0,0,49602,0,0,0,0,0,0,202401,서울특별시 구로구 오류동 347-,37.498526304307,126.83899187119
1153010800,아파트,혼합식,개별난방,위탁관리,분양,서울특별시 구로구 경인로 248-13,205.0,돌타운재건축조합동부건설,서울특별시 구로구 오류동 339- 동부2차아파트,3.0,동부건설(주),A15210103,2,0226844186,21584.0,38.0,0.0,91.0,76.0,동부2차아파트,29220.42,0226844187,19, ,19990330.0,4.0,205.0,19.0,16249.67,8270.0,12157330,0,0,53026,0,0,6549,0,7896700,0,202401,서울특별시 구로구 오류동 339-,37.4975377727092,126.848288967665
1153010800,아파트,복도식,개별난방,위탁관리,분양,서울특별시 구로구 경인로 230-13,218.0,라인건설,서울특별시 구로구 오류동 334- 오류라인,2.0,라인건설(주),A15210104,1,0226853975,24263.33,43.0,0.0,88.0,87.0,오류라인,27613.38,0226853985,22, ,19951230.0,2.0,218.0,22.0,17476.8,8270.0,14062302,0,0,58331,0,0,0,0,8186410,0,202401,서울특별시 구로구 오류동 334-,37.4966985375335,126.847001614764
1153010800,아파트,혼합식,개별난방,위탁관리,분양,서울특별시 구로구 경인로 248-14,252.0,덕고개 재건축 조합,서울특별시 구로구 오류동 336- 오류동부덕고개,2.0,동부아파트,A15210105,3,0226886561,26390.0772,36.0,0.0,108.0,108.0,오류동부덕고개,32917.89,0226116561,18, ,19980711.0,6.0,252.0,18.0,19785.24,8270.0,14739740,0,0,66798,0,0,3636,0,4741430,0,202401,서울특별시 구로구 오류동 336-,37.4975599503999,126.84787864738
1153010800,아파트,계단식,개별난방,위탁관리,분양,서울특별시 구로구 고척로 52,299.0,오류2지구역주택개발조합,서울특별시 구로구 오류동 341- 오류한신플러스타운,2.0,한신공영,A15210106,5,0267412992,30589.633,59.0,0.0,120.0,120.0,오류한신플러스타운,42178.0,0267412991,20, ,20020705.0,9.0,299.0,20.0,24156.42,8269.0,18963860,0,0,77198,0,0,5195,0,6102910,0,202401,서울특별시 구로구 오류동 341-,37.4985684053782,126.840470737116
1153010800,아파트,혼합식,개별난방,위탁관리,분양,서울특별시 구로구 고척로 49,932.0,동부건설,서울특별시 구로구 오류동 338- 오류동부골든,1.0,동부건설,A15210107,9,0226143558,103402.352,380.0,0.0,192.0,360.0,오류동부골든,118829.0,0226143557,20, ,19981203.0,21.0,932.0,20.0,81493.88,8253.0,64367460,0,0,241091,0,0,0,0,1994000,0,202401,서울특별시 구로구 오류동 338-,37.4999652512578,126.841353368958
1153010800,아파트,혼합식,개별난방,위탁관리,분양,서울특별시 구로구 서해안로34가길 18,247.0,금강주택,서울특별시 구로구 오류동 335- 오류금강,0.0,금강주택,A15210206,2,0226840220,24417.68,0.0,0.0,104.0,143.0,오류금강,24417.68,0226840235,19, ,19960104.0,6.0,247.0,19.0,18127.99,8340.0,14946910,0,0,62962,0,0,0,0,0,0,202401,서울특별시 구로구 오류동 335-,37.4937908051943,126.848184484696
1153010800,아파트,계단식,개별난방,위탁관리,분양,서울특별시 구로구 오류로 65,296.0,홍진A주택재건축조합,서울특별시 구로구 오류동 344- 경남아너스빌,2.0,경남기업(주),A15210207,5,0226891563,30141.67,0.0,0.0,45.0,251.0,경남아너스빌,40735.79,0226893393,24, ,20031031.0,8.0,296.0,24.0,24023.03,8342.0,19395600,0,0,83638,0,0,5188,0,6253910,0,202401,서울특별시 구로구 오류동 344-,37.4906448355172,126.840113310416
1153010800,아파트,계단식,개별난방,위탁관리,분양,서울특별시 구로구 오류로8길 11,378.0,신장미 재건축,서울특별시 구로구 오류동 346- 오류푸르지오,0.0,대우건설(주) 푸르지오,A15210209,6,0220668714,37844.91,27.0,0.0,0.0,351.0,오류푸르지오,53834.643,0220668713,23,cafe.daum.net/56prugio,20040416.0,10.0,378.0,23.0,30175.608,8341.0,25099800,0,0,108291,0,0,5873,0,7135580,0,202401,서울특별시 구로구 오류동 346-,37.4912866190957,126.841112555218
1153010800,아파트,계단식,개별난방,위탁관리,분양,서울특별시 구로구 경인로8길 75,423.0,삼천리,서울특별시 구로구 오류동 340- 오류삼천리,3.0,(주)삼천리M&C,A15210210,4,0267410304,35660.61,90.0,0.0,187.0,146.0,오류삼천리,62202.447,0226827842,25, ,19981128.0,11.0,423.0,25.0,35660.61,8357.0,27784520,0,0,0,0,0,0,0,7978450,0,202401,서울특별시 구로구 오류동 340-,37.4928694986504,126.839572801145
1153010800,아파트,계단식,개별난방,위탁관리,분양,서울특별시 구로구 오리로 1197,620.0,금강주택,서울특별시 구로구 오류동 343- 오류금강수목원,1.0,금강주택,A15210211,22,0226891957,58115.686,0.0,0.0,0.0,620.0,오류금강수목원,59777.0,0226891956,5,없음,20030913.0,62.0,620.0,5.0,44712.18,8358.0,40443214,0,0,182053,0,0,11096,0,13051500,0,202401,서울특별시 구로구 오류동 343-,37.4887093062564,126.834110799597
1153010800,아파트,계단식,개별난방,위탁관리,분양,서울특별시 구로구 경인로8길 64,627.0,영풍산업(주),서울특별시 구로구 오류동 342- 오류동 영풍마드레빌,2.0,영풍산업(주),A15210212,12,0263469666,49793.059,0.0,0.0,134.0,493.0,오류동 영풍마드레빌,88905.36,0226189666,24, ,20020729.0,19.0,627.0,24.0,49793.059,8357.0,45560820,0,0,182222,0,0,11433,0,13487130,0,202401,서울특별시 구로구 오류동 342-,37.4921684984337,126.840291552308
1153011100,아파트,계단식,개별난방,위탁관리,혼합,서울특별시 구로구 천왕로 10,522.0,SH공사,서울특별시 구로구 천왕동 27- 천왕이펜하우스5단지,2.0,한진중공업,A15213001,8,0226157155,78474.76,152.0,0.0,210.0,160.0,천왕이펜하우스5단지,78914.66,0226156155,19, ,20110719.0,18.0,522.0,19.0,43642.1,8365.0,33790690,0,827001,162318,0,0,10298,0,11803930,0,202401,서울특별시 구로구 천왕동 27-,37.480726327426,126.842162072714
1153011100,아파트,계단식,개별난방,위탁관리,혼합,서울특별시 구로구 천왕로 9,678.0,SH공사,서울특별시 구로구 천왕동 27- 천왕이펜하우스6단지,2.0,금호건설,A15213002,14,0226861507,90438.39,0.0,0.0,364.0,314.0,천왕이펜하우스6단지,91038.68,0226861506,15, ,20110617.0,22.0,678.0,15.0,47089.59,8364.0,42044990,0,765320,197775,0,0,11736,0,13308790,0,202401,서울특별시 구로구 천왕동 27-,37.4790207559893,126.84225746312
1153011100,아파트,혼합식,개별난방,위탁관리,혼합,서울특별시 구로구 천왕로 92,526.0,한진중공업,서울특별시 구로구 천왕동 279-2 천왕이펜하우스2단지,2.0,sh공사,A15213003,9,0220603918,71762.82,74.0,0.0,310.0,142.0,천왕이펜하우스2단지,71763.0,0220603818,13, ,20110603.0,0.0,526.0,13.0,34860.66,8365.0,29505780,0,0,143056,0,0,7801,0,8133950,0,202401,서울특별시 구로구 천왕동 279-2,37.4852288247652,126.838086363908
1153011100,아파트,혼합식,개별난방,위탁관리,혼합,서울특별시 구로구 천왕로 29,478.0,SH공사,서울특별시 구로구 천왕동 27- 천왕이펜하우스4단지,2.0,금호건설,A15213004,11,0226123433,64657.84,0.0,0.0,318.0,160.0,천왕이펜하우스4단지,65016.16,0226113433,15, ,20110803.0,16.0,478.0,15.0,30853.96,8364.0,28960072,0,511410,136659,0,0,8551,0,9348450,0,202401,서울특별시 구로구 천왕동 27-,37.4808009766872,126.838594515677
1153011100,아파트,혼합식,개별난방,위탁관리,혼합,서울특별시 구로구 천왕로 56,1044.0,SH공사,서울특별시 구로구 천왕동 27- 천왕이펜하우스3단지,2.0,풍림건설,A15213005,13,0226891504,147416.76,230.0,0.0,708.0,106.0,천왕이펜하우스3단지,147416.92,0226891503,18, ,20111012.0,29.0,1044.0,18.0,72609.1,8365.0,62722910,0,0,293609,0,0,16835,0,18936190,0,202401,서울특별시 구로구 천왕동 27-,37.48305321277,126.838914729764
1153011100,아파트,혼합식,개별난방,위탁관리,혼합,서울특별시 구로구 천왕로 91,314.0,sh공사,서울특별시 구로구 천왕동 352- 천왕이펜하우스1단지,4.0,풍림산업(주),A15213006,6,0226141773,41107.0,0.0,0.0,274.0,40.0,천왕이펜하우스1단지,41108.0,0226141772,15, ,20111012.0,11.0,314.0,17.0,18592.94,8364.0,18954486,0,186100,116120,0,0,4472,0,4992740,0,202401,서울특별시 구로구 천왕동 352-,37.4866893781833,126.837445160952
1153011100,아파트,혼합식,개별난방,위탁관리,혼합,서울특별시 구로구 오리로 1102-10,1018.0,SH공사,서울특별시 구로구 천왕동 281- 천왕연지타운2단지,2.0,(주)금호건설,A15213007,16,0220600772,98579.16,196.0,0.0,546.0,276.0,천왕연지타운2단지,148465.43,0220601666,20, ,20140127.0,25.0,1018.0,20.0,74418.46,8350.0,78559750,0,0,337168,0,0,19867,0,22155980,0,202401,서울특별시 구로구 천왕동 281-,37.4840144134269,126.84334132511
1153010200,아파트,계단식,개별난방,자치관리,분양,서울특별시 구로구 새말로9길 22,124.0,일신건영(주),서울특별시 구로구 구로동 1261- 신도림일신건영아파트,2.0,일신건영(주),A15270501,1,028582063,11920.69,0.0,0.0,61.0,63.0,신도림일신건영아파트,15229.34,028572063,21, ,19980728.0,3.0,124.0,21.0,8992.35,8291.0,0,0,0,0,0,0,0,0,0,0,202401,서울특별시 구로구 구로동 1261-,37.503652456908,126.885758783415
1153011200,아파트,계단식,개별난방,위탁관리,분양,서울특별시 구로구 연동로13길 25,245.0,현대건설,서울특별시 구로구 항동 233- 서울수목원현대홈타운스위트,1.0,케이앤드탑(주),A15271601,11,0226250006,27817.24,40.0,0.0,0.0,205.0,서울수목원현대홈타운스위트,38277.0,0226880444,5, ,20041210.0,25.0,245.0,5.0,21761.0932,8360.0,20835843,0,0,82709,0,0,4417,0,5325510,0,202401,서울특별시 구로구 항동 233-,37.4850638746129,126.81957030728
1153011200,아파트,계단식,,자치관리,분양,서울특별시 구로구 연동로 287,137.0,대륭물산,서울특별시 구로구 항동 1-5 그린빌라,0.0,대륭물산,A15271602,43,0226858658,21646.0,53.0,84.0,0.0,0.0,그린빌라,,0226853062,1, ,19830101.0,0.0,137.0,1.0,22495.19,8360.0,0,0,0,0,0,0,0,0,0,0,202401,서울특별시 구로구 항동 1-5,37.4873014088389,126.823248192049
1153010700,아파트,계단식,개별난방,위탁관리,분양,서울특별시 구로구 고척로21나길 85-6,209.0,철도조합,서울특별시 구로구 개봉동 47-1 개봉건영,2.0,건영종합건설,A15275101,2,0226878616,24410.0,0.0,0.0,0.0,209.0,개봉건영,24523.0,0220878606,19, ,19940509.0,6.0,209.0,19.0,16893.65,8250.0,14013630,0,0,58768,0,0,3023,0,3633970,0,202401,서울특별시 구로구 개봉동 47-1,37.501340210878,126.840703010876
1153010100,주상복합,혼합식,지역난방,위탁관리,분양,서울특별시 구로구 경인로 662,524.0,대성산업,서울특별시 구로구 신도림동 692- 신도림디큐브시티,7.0,대성산업,A15277302,1,0236679002,76538.8,288.0,28.0,105.0,103.0,신도림디큐브시티,120062.81,0236679001,51,www.d3cityapt.com,20110718.0,6.0,524.0,51.0,54208.19,8209.0,74176860,0,103281530,213384,0,595660,8811,3567,7367090,30319500,202401,서울특별시 구로구 신도림동 692-,37.5081230677129,126.888212953215
1153010800,아파트,,,기타,,서울 구로구 오리로13가길 30,, ,서울특별시 구로구 오류동 337- 동보,, ,A15278201,1,0226834522,,0.0,0.0,50.0,40.0,동보,,0226834522,1, ,,,90.0,5.0,6384.4,,0,0,0,0,0,0,0,0,0,0,202401,서울특별시 구로구 오류동 337-,37.4890142305736,126.830509091659
1153010800,아파트,복도식,개별난방,위탁관리,임대,서울특별시 구로구 고척로 49,304.0,SH공사,서울특별시 구로구 오류동 338- 오류동부골든SH임대,2.0,동부건설,A15278301,1,0226145880,17507.36,0.0,0.0,304.0,0.0,오류동부골든SH임대,17508.14,0226145688,20,www.i-sh.co.kr/,19970905.0,2.0,304.0,20.0,10022.88,8253.0,6528900,0,3000,51777,0,0,0,0,290690,0,202401,서울특별시 구로구 오류동 338-,37.4999652512578,126.841353368958
1153011000,아파트,계단식,개별난방,위탁관리,혼합,서울특별시 구로구 부일로9길 127,999.0,"조합,SH공사",서울특별시 구로구 온수동 155- 온수힐스테이트,2.0,현대건설,A15279101,18,0220601688,110003.02,235.0,43.0,373.0,348.0,온수힐스테이트,158579.0,0220601685,12,온수힐스테이트.apti.co.kr,20100217.0,35.0,999.0,12.0,84793.76,8259.0,77119290,0,0,330348,0,0,17252,0,21792280,0,202401,서울특별시 구로구 온수동 155-,37.4976017630545,126.820592862021
1153010600,주상복합,계단식,개별난방,위탁관리,분양,서울특별시 구로구 중앙로 101,118.0,우성,서울특별시 구로구 고척동 329- 고척청솔우성,4.0,우성건설,A15279401,2,0226173359,12226.86,0.0,0.0,39.0,79.0,고척청솔우성,19967.76,0226173356,21,고척청솔우성.ma-um.co.kr,20001226.0,3.0,118.0,21.0,8999.67,8228.0,0,0,0,0,0,0,0,0,0,0,202401,서울특별시 구로구 고척동 329-,37.5062829815918,126.859932571013
1153010600,아파트,계단식,지역난방,위탁관리,분양,서울특별시 구로구 중앙로12길 7,421.0,LIG건설(주),서울특별시 구로구 고척동 340- 고척LIG리가아파트,2.0,LIG건설(주),A15279402,8,0226171399,43026.78,0.0,0.0,94.0,327.0,고척LIG리가아파트,63679.9,0226171395,22,고척lig리가.apti.co.kr,20090730.0,8.0,421.0,22.0,33413.12,8218.0,35920010,0,43166860,130177,0,378593,7456,3193,8353880,30710240,202401,서울특별시 구로구 고척동 340-,37.5060475508221,126.861308516728
1153010600,아파트,계단식,개별난방,위탁관리,분양,서울특별시 구로구 중앙로 121,662.0,푸르지오,서울특별시 구로구 고척동 339- 고척파크푸르지오,2.0,대우푸르지오,A15279403,11,0226152850,67351.92,104.0,0.0,282.0,276.0,고척파크푸르지오,101370.0,0226152851,12,gppapt.com,20090526.0,28.0,662.0,12.0,52291.38,8240.0,46108190,0,0,185635,0,0,12415,0,15007430,0,202401,서울특별시 구로구 고척동 339-,37.5088710450008,126.857986323802
1153010600,아파트,혼합식,지역난방,위탁관리,분양,서울특별시 구로구 고척로52길 48,987.0,서림재건축,서울특별시 구로구 고척동 296- 고척대우,4.0,대우,A15279404,13,0226131947,79253.312,198.0,0.0,400.0,389.0,고척대우,144421.96,0226182733,21,고척대우.ma-um.co.kr,19990224.0,22.0,987.0,21.0,79252.61,8230.0,-172690,0,-942400,276905,9,785,17333,4984,-70270,-56000,202401,서울특별시 구로구 고척동 296-,37.5034122853622,126.855220189635
1153010700,아파트,계단식,개별난방,위탁관리,분양,서울특별시 구로구 고척로 82,245.0,부성주택(주),서울특별시 구로구 개봉동 60-82 개봉거성푸르뫼2차아피트,0.0,(주)거성주택,A15280303,3,0267371506,28014.58,72.0,0.0,97.0,76.0,개봉거성푸르뫼2차아피트,35134.77,0226121505,19, ,19940702.0,7.0,245.0,19.0,21820.22,8267.0,14608155,170160,0,59479,0,0,0,0,0,0,202401,서울특별시 구로구 개봉동 60-82,37.499825797138,126.843123623796
1153010700,아파트,계단식,개별난방,위탁관리,분양,서울특별시 구로구 고척로 85,249.0,거성주택건설(주),서울특별시 구로구 개봉동 60-101 개봉거성푸르뫼1차,0.0,거성주택건설(주),A15280304,3,0226131460,28324.964,72.0,0.0,92.0,85.0,개봉거성푸르뫼1차,32347.0,0226131450,18, ,19931124.0,8.0,249.0,18.0,22234.33,8252.0,16240960,0,0,70351,0,0,0,0,0,0,202401,서울특별시 구로구 개봉동 60-101,37.5010740751998,126.843822855794
1153010700,아파트,혼합식,개별난방,위탁관리,분양,서울특별시 구로구 경인로38길 13,173.0,건축조합,서울특별시 구로구 개봉동 170-30 신개봉삼환,0.0,삼환기업,A15280602,1,0220668808,16712.47,0.0,0.0,76.0,97.0,신개봉삼환,22681.2,0220600527,19,cafe.daum.net/singabongsamwhan,20010330.0,4.0,173.0,19.0,12353.99,8277.0,9647630,0,0,44086,0,0,0,0,0,0,202401,서울특별시 구로구 개봉동 170-30,37.496906065926,126.857617371616
1153010700,아파트,혼합식,개별난방,위탁관리,분양,서울특별시 구로구 경인로40길 11,372.0,영화건설,서울특별시 구로구 개봉동 475- 개봉영화,2.0,영화건설,A15282105,2,0226893714,40496.3,0.0,50.0,122.0,200.0,개봉영화,52116.0,0226878348,25, ,19980901.0,7.0,372.0,25.0,31439.66,8276.0,22726902,0,0,105658,0,0,6053,0,7161350,0,202401,서울특별시 구로구 개봉동 475-,37.4960567771925,126.859422554119
1153010600,아파트,복도식,개별난방,자치관리,분양,서울특별시 구로구 중앙로5길 24,290.0,한효건설,서울특별시 구로구 고척동 52-332 고척한효,0.0,한효건설,A15282403,3,0226855018,29237.056,0.0,0.0,0.0,290.0,고척한효,30277.47,0267365018,10, ,19851216.0,6.0,290.0,10.0,21753.78,8224.0,15494993,0,0,73144,0,0,0,0,0,0,202401,서울특별시 구로구 고척동 52-332,37.5013748517303,126.861617757589
1153010600,아파트,계단식,개별난방,위탁관리,분양,서울특별시 구로구 경인로47다길 43,330.0,대한전척(주),서울특별시 구로구 고척동 57-9 산업인,1.0,대한전척(주),A15282405,10,0226142247,15272.73,12.0,0.0,330.0,0.0,산업인,16660.24,0226146860,5, ,19760709.0,,342.0,5.0,16663.92,8219.0,583460,0,0,2899,0,0,5219,0,6010760,0,202401,서울특별시 구로구 고척동 57-9,37.5049748037089,126.866778856297
1153010600,아파트,복도식,중앙난방,위탁관리,분양,서울특별시 구로구 중앙로1길 18-19,440.0,문교부 직장조합주택 외 4개 조합,서울특별시 구로구 고척동 76-55 고척우성현대,0.0,"우성건설(1,2동), 현대산업개발(3,4동)",A15282608,4,0226895805,44272.25,0.0,0.0,66.0,374.0,고척우성현대,44847.03,0226815494,11,고척우성현대apti.co.kr,19871119.0,0.0,440.0,11.0,31423.92,8227.0,22890420,0,64789230,100722,0,0,6811,1522,8314820,5327000,202401,서울특별시 구로구 고척동 76-55,37.4985773919649,126.863149147466
1153010600,아파트,혼합식,개별난방,위탁관리,분양,서울특별시 구로구 중앙로5길 62,715.0,삼익건설,서울특별시 구로구 고척동 141-1 고척서울가든,0.0,삼익건설산업(주),A15282810,5,0226166175,67557.022,0.0,0.0,78.0,637.0,고척서울가든,70913.0,0226155823,13, ,19890725.0,17.0,715.0,13.0,51167.61,8224.0,36080270,0,0,180505,0,0,11498,0,14116460,0,202401,서울특별시 구로구 고척동 141-1,37.5029347315877,126.860748578923
1153010600,아파트,혼합식,개별난방,위탁관리,분양,서울특별시 구로구 고척로52길 21,273.0,신안아파트 재건축조합,서울특별시 구로구 고척동 306- 고척경남2차,2.0,경남기업주식회사,A15283603,3,0226851128,26376.475,0.0,0.0,113.0,160.0,고척경남2차,34250.0,0226851122,19,고척경남2차.ma-um.co.kr,19990130.0,5.0,273.0,19.0,19937.0,8228.0,16185140,0,0,74523,0,0,4339,0,6899190,0,202401,서울특별시 구로구 고척동 306-,37.504694587229,126.85713764147
1153010600,아파트,혼합식,개별난방,위탁관리,분양,서울특별시 구로구 경인로47길 150,163.0,오희태양재건축조함,서울특별시 구로구 고척동 325- 고척경남1차,1.0,경남건설,A15283701,1,0226155957,15067.7643,0.0,0.0,94.0,69.0,고척경남1차,18137.51,0226259294,18, ,19980126.0,4.0,163.0,18.0,11490.73,8218.0,8537730,0,0,42201,0,0,0,0,2400,0,202401,서울특별시 구로구 고척동 325-,37.505814351751,126.862525433514
1153010600,아파트,혼합식,개별난방,위탁관리,분양,서울특별시 구로구 경인로47다길 34-7,204.0,우성건설,서울특별시 구로구 고척동 321- 고척우성꿈동산,2.0,우성건설,A15283702,3,0226172778,23430.07,0.0,0.0,0.0,204.0,고척우성꿈동산,29951.69,0226172777,13, ,19960217.0,8.0,204.0,13.0,16418.06,8219.0,12722210,0,0,76668,0,0,3577,0,4368910,0,202401,서울특별시 구로구 고척동 321-,37.5032743998746,126.865958097489
1153010600,아파트,혼합식,개별난방,자치관리,분양,서울특별시 구로구 중앙로15길 125,298.0,삼익건설,서울특별시 구로구 고척동 331- 삼익아파트2단지,2.0,삼익건설,A15283704,4,0220608420,42814.38,94.0,0.0,98.0,106.0,삼익아파트2단지,43625.0,0226848424,19, ,20011117.0,8.0,298.0,19.0,25668.72,8239.0,21014250,0,0,122005,0,0,5027,0,6190450,0,202401,서울특별시 구로구 고척동 331-,37.5077871736169,126.852646264663
1153010600,아파트,혼합식,개별난방,위탁관리,분양,서울특별시 구로구 중앙로6길 17,355.0,동아건설산업(주),서울특별시 구로구 고척동 327- 고척동아한신,1.0,동아건설산업(주),A15283706,4,0226139787,39183.0,81.0,0.0,113.0,161.0,고척동아한신,46656.0,0226129787,23, ,20000419.0,8.0,355.0,23.0,30522.32,8223.0,23346269,0,0,105551,0,0,6808,0,7250710,0,202401,서울특별시 구로구 고척동 327-,37.5015730217426,126.864842094567
1153010600,아파트,계단식,지역난방,위탁관리,분양,서울특별시 구로구 중앙로12길 12,391.0,고척 주택 조합,서울특별시 구로구 고척동 320- 고척동센츄리,0.0,창조건설,A15283707,5,0226882266,42654.5419,0.0,0.0,0.0,391.0,고척동센츄리,44066.81,0226882600,15, ,19940314.0,14.0,391.0,15.0,33065.42,8218.0,23121417,0,45812690,102153,0,352567,4082,2311,8031100,13866000,202401,서울특별시 구로구 고척동 320-,37.5049591740101,126.861878164061
1153010600,아파트,혼합식,지역난방,위탁관리,분양,서울특별시 구로구 중앙로6길 5-15,448.0,(주)청구,서울특별시 구로구 고척동 326- 고척청구아파트,3.0,(주)청구,A15283709,4,0267371774,45549.48,77.0,0.0,225.0,146.0,고척청구아파트,61151.29,0226181774,22, ,19990607.0,9.0,448.0,22.0,34664.76,8223.0,47566530,0,106637327,284748,0,859538,14766,5098,17371490,49179640,202401,서울특별시 구로구 고척동 326-,37.5014107102331,126.864413656632
1153010600,아파트,계단식,개별난방,위탁관리,분양,서울특별시 구로구 경인로 390,886.0,벽산건설,서울특별시 구로구 고척동 334- 고척벽산블루밍,2.0,벽산건설,A15283711,11,0260946233,75201.908,0.0,0.0,0.0,886.0,고척벽산블루밍,132832.971,0226176233,25, ,20030320.0,19.0,886.0,25.0,75201.908,8275.0,61958850,0,0,284782,0,0,17849,0,20416190,0,202401,서울특별시 구로구 고척동 334-,37.4944598712943,126.864387662637
1153010200,아파트,계단식,개별난방,위탁관리,분양,서울특별시 구로구 공원로 40,155.0,목원엔지리어링,서울특별시 구로구 구로동 46- 신도림쌍용플래티넘노블,4.0,남광토건(주),A15283801,2,028382851,19471.069,155.0,0.0,0.0,0.0,신도림쌍용플래티넘노블,44166.64,028382850,32, ,20061130.0,0.0,155.0,32.0,17884.9,8297.0,15649787,0,0,53659,0,0,3156,0,3775950,0,202401,서울특별시 구로구 구로동 46-,37.5011160902485,126.89135478391
1153010200,아파트,복도식,개별난방,위탁관리,분양,서울특별시 구로구 공원로 26,166.0,금호건설,서울특별시 구로구 구로동 49- 구로금호어울림,4.0,금호건설,A15283803,1,028559846,16964.39,0.0,0.0,83.0,83.0,구로금호어울림,31964.55,028559845,22, ,19970602.0,2.0,166.0,22.0,12014.3,8297.0,10273850,0,0,42289,0,0,2304,0,2900480,0,202401,서울특별시 구로구 구로동 49-,37.4999033071437,126.892109038117
1153010200,아파트,혼합식,개별난방,위탁관리,분양,서울특별시 구로구 새말로16길 70,285.0,금호건설,서울특별시 구로구 구로동 43-4 구로다솜금호,3.0,금호건설,A15283806,1,028530395,29901.62,0.0,0.0,143.0,142.0,구로다솜금호,33914.14,0260977169,24, ,19951116.0,4.0,285.0,24.0,20593.51,8296.0,18347630,0,0,76750,0,0,4518,0,5306580,0,202401,서울특별시 구로구 구로동 43-4,37.5028661152082,126.89194655653
1153010200,아파트,계단식,개별난방,위탁관리,분양,서울특별시 구로구 새말로18길 64,299.0,GS건설,서울특별시 구로구 구로동 42- LG신도림자이,3.0,굿뉴스건설,A15283807,3,028302296,34892.707,0.0,0.0,0.0,299.0,LG신도림자이,47514.89,028302212,31,LG신도림자이.ma-um.co.kr,20040207.0,5.0,299.0,31.0,25400.798,8296.0,21722710,0,0,94892,0,0,4983,0,6423950,0,202401,서울특별시 구로구 구로동 42-,37.5036575214429,126.891906398183
1153010200,아파트,혼합식,개별난방,자치관리,분양,서울특별시 구로구 공원로6가길 67,344.0,우원건축연구소,서울특별시 구로구 구로동 23- 구로우성,0.0,우성건설,A15283809,3,0267396139,32473.31,60.0,0.0,105.0,179.0,구로우성,32929.06,028556139,15, ,19850628.0,8.0,344.0,15.0,25618.04,8289.0,17486439,249690,0,82105,0,0,0,0,0,0,202401,서울특별시 구로구 구로동 23-,37.504269711314,126.888945906153
1153010200,아파트,복도식,개별난방,위탁관리,분양,서울특별시 구로구 구로중앙로18길 68,397.0,현대산업개발,서울특별시 구로구 구로동 74-30 신구로현대,0.0,현대산업개발,A15283902,3,028652050,38663.01,0.0,0.0,90.0,307.0,신구로현대,40703.65,028568672,15,신구로현대.APTi.co.kr,19880617.0,6.0,397.0,15.0,28245.33,8303.0,20211154,0,0,121817,0,0,6001,0,6963210,0,202401,서울특별시 구로구 구로동 74-30,37.4968982743691,126.892605959255
1153010200,주상복합,복도식,개별난방,자치관리,분양,서울특별시 구로구 가마산로 280,166.0,순영종합건설(주),서울특별시 구로구 구로동 97-2 구로2차순영웰라이빌,5.0,순영종합건설(주),A15284101,1,028653312,14977.512,0.0,0.0,0.0,166.0,구로2차순영웰라이빌,23059.73,028303312,23,순영2차.apti.co.kr,20050615.0,2.0,166.0,23.0,10763.01,8302.0,13486410,0,0,83401,0,0,5020,0,6749500,0,202401,서울특별시 구로구 구로동 97-2,37.4960795695469,126.891564274155
1153010200,주상복합,복도식,개별난방,위탁관리,분양,서울특별시 구로구 가마산로 283,206.0,성호건설(주),서울특별시 구로구 구로동 104-9 구로성호주상복합,5.0,성호건설(주),A15284204,1,028629335,15520.4,0.0,0.0,206.0,0.0,구로성호주상복합,15520.0,028629334,17, ,20020506.0,0.0,206.0,17.0,7694.85,8301.0,7771410,0,0,35381,0,0,3562,0,4221430,0,202401,서울특별시 구로구 구로동 104-9,37.4969048165442,126.891384859124
1153010200,주상복합,계단식,개별난방,위탁관리,분양,서울특별시 구로구 공원로 27,160.0,공원빌라 재건축조합,서울특별시 구로구 구로동 107-1 구로대성스카이렉스,4.0,대성산업(주),A15284302,2,028308304,16867.8,40.0,0.0,0.0,120.0,구로대성스카이렉스,27171.47,028308303,23, ,20060425.0,6.0,160.0,23.0,14281.2,8298.0,18489220,0,0,73671,0,0,2899,0,3741430,0,202401,서울특별시 구로구 구로동 107-1,37.4993971935977,126.891009074388
1153010200,아파트,혼합식,개별난방,위탁관리,분양,서울특별시 구로구 공원로 35,272.0,삼성주택조합외 8개조합,서울특별시 구로구 구로동 108-2 구로새솔금호,3.0,금호건설,A15284305,1,028649738,27859.42,0.0,0.0,138.0,134.0,구로새솔금호,34951.84,028598864,24,www.intm.co.kr/구로새솔금호,19960701.0,5.0,272.0,24.0,19641.46,8298.0,16052329,177750,0,78321,0,0,4282,0,5607260,0,202401,서울특별시 구로구 구로동 108-2,37.5001619663469,126.890520884986
1153010200,아파트,복도식,개별난방,위탁관리,분양,서울특별시 구로구 도림로 107,427.0,구로4지구재개발조합,서울특별시 구로구 구로동 1257- 구로럭키,1.0,럭키개발,A15284603,2,028370131,29121.33,0.0,0.0,202.0,225.0,구로럭키,40221.0,028370069,15, ,19920625.0,5.0,427.0,15.0,29137.91,8305.0,19804830,0,0,98861,0,0,6235,0,6776660,0,202401,서울특별시 구로구 구로동 1257-,37.49154085489,126.893663774589
1153010200,아파트,혼합식,개별난방,위탁관리,분양,서울특별시 구로구 디지털로31길 90,1244.0,삼성물산,서울특별시 구로구 구로동 256-1 구로삼성래미안,2.0,삼성물산,A15284906,16,028568387,128006.15,299.0,0.0,308.0,637.0,구로삼성래미안,190134.234,028567146,25, ,20040529.0,27.0,1244.0,25.0,100565.408,8371.0,77729871,0,0,376315,0,0,20966,0,22938530,0,202401,서울특별시 구로구 구로동 256-1,37.4887303243884,126.892053534527
1153010200,아파트,복도식,개별난방,위탁관리,분양,서울특별시 구로구 구로중앙로7길 28,493.0,극동건설,서울특별시 구로구 구로동 314- 구로극동,1.0,극동건설,A15285004,4,028587536,46389.561,242.0,0.0,163.0,88.0,구로극동,51540.0,028645542,11,없음,19841208.0,9.0,493.0,11.0,36922.962,8312.0,25432080,0,0,153092,0,0,8552,0,9884730,0,202401,서울특별시 구로구 구로동 314-,37.4912427177954,126.889449615
1153010200,아파트,계단식,개별난방,자치관리,분양,서울특별시 구로구 가마산로 231,340.0,보광주택,서울특별시 구로구 구로동 440- 구로보광,0.0,보광주택,A15285503,9,0267356621,31557.8,0.0,0.0,0.0,340.0,구로보광,31557.8,028576621,5, ,19840629.0,,340.0,5.0,25359.0,8284.0,826860,0,0,0,0,0,0,0,29060,0,202401,서울특별시 구로구 구로동 440-,37.4950173263413,126.884665090886
1153010200,아파트,계단식,개별난방,위탁관리,분양,서울특별시 구로구 구로동로47길 24,597.0,중앙건설,서울특별시 구로구 구로동 1269- 구로중앙하이츠아파트,2.0,중앙건설,A15285804,5,028546752,61417.5702,0.0,0.0,144.0,453.0,구로중앙하이츠아파트,76847.84,028546751,24,gurojh.aptstory.com,20010920.0,0.0,597.0,24.0,45109.3815,8279.0,36691624,0,0,166557,0,0,11002,0,12456640,0,202401,서울특별시 구로구 구로동 1269-,37.4994627513942,126.880447055082
1153010200,아파트,계단식,개별난방,위탁관리,분양,서울특별시 구로구 새말로9길 45,450.0,"국방부삼일주택,신도림지역주택조합",서울특별시 구로구 구로동 560- 신도림현대,2.0,현대건설주식회사,A15286210,3,0267391880,50278.5,0.0,0.0,0.0,450.0,신도림현대,50311.79,028300553,21, ,19940121.0,11.0,450.0,21.0,36004.5,8291.0,32140442,0,0,129438,0,0,7132,0,8825840,0,202401,서울특별시 구로구 구로동 560-,37.5052452982341,126.885991599049
1153010200,아파트,혼합식,개별난방,위탁관리,분양,서울특별시 구로구 구로중앙로 229,189.0,월드건설,서울특별시 구로구 구로동 1262- 구로월드,0.0,월드건설주식회사,A15286602,2,0226342592,18532.584,0.0,0.0,105.0,84.0,구로월드,25499.0,0226342591,21, ,19981224.0,4.0,189.0,21.0,13426.56,8215.0,9616460,122010,0,2631260,0,0,0,0,0,0,202401,서울특별시 구로구 구로동 1262-,37.5053168295156,126.875539351503
1153010200,아파트,복도식,중앙난방,위탁관리,분양,서울특별시 구로구 구일로 154-17,256.0,우방,서울특별시 구로구 구로동 642-46 구로우방,2.0,우방,A15286801,2,0260910680,29385.92,0.0,0.0,0.0,256.0,구로우방,30119.0,028536432,15, ,19930922.0,4.0,256.0,15.0,21732.75,8323.0,16932710,0,37050200,79967,0,0,5185,1979,5802570,5937000,202401,서울특별시 구로구 구로동 642-46,37.4978078745679,126.874369837414
1153010200,아파트,계단식,개별난방,위탁관리,분양,서울특별시 구로구 구일로10길 53,290.0,현대상선 직장조합,서울특별시 구로구 구로동 685-147 구로현대상선,0.0,현대산업,A15286802,2,0232812330,28257.75,0.0,0.0,0.0,290.0,구로현대상선,29758.22,028662330,15, ,19871029.0,10.0,290.0,15.0,21836.06,8323.0,19698550,0,0,76350,0,0,0,0,0,0,202401,서울특별시 구로구 구로동 685-147,37.4962320769428,126.875022822494
1153010200,아파트,복도식,개별난방,자치관리,분양,서울특별시 구로구 구일로8길 63,488.0,한국수출공단직장연합주택조합,서울특별시 구로구 구로동 642-9 구로한신1차,0.0,한신공영,A15286805,2,028567987,30257.52,0.0,0.0,488.0,0.0,구로한신1차,30798.771,028565993,15, ,19881217.0,3.0,488.0,15.0,21895.923,8323.0,16853660,188650,0,84939,0,0,5651,0,7062750,0,202401,서울특별시 구로구 구로동 642-9,37.4965752295641,126.87362950335
1153010200,아파트,복도식,중앙난방,위탁관리,분양,서울특별시 구로구 구일로8길 92,579.0,(주)중앙개발,서울특별시 구로구 구로동 685-124 중앙구로하이츠,0.0,(주)중앙개발,A15286806,6,028673421,42917.64,0.0,0.0,63.0,516.0,중앙구로하이츠,56323.611,028673423,15, ,19871117.0,10.0,579.0,15.0,42917.64,8323.0,33311020,0,85973840,144671,0,5217,7484,2605,12643130,9117500,202401,서울특별시 구로구 구로동 685-124,37.4977393734277,126.876310284198
1153010200,아파트,혼합식,중앙난방,위탁관리,분양,서울특별시 구로구 구일로4길 46,735.0,연예인주택조합,서울특별시 구로구 구로동 685-70 구로현대연예인,0.0,현대산업개발(주),A15286807,6,028584443,56645.745,0.0,0.0,135.0,600.0,구로현대연예인,72432.0,028554514,15,현대연예인아파트.apti.co.kr,19890828.0,22.0,735.0,15.0,56658.45,8325.0,56040070,0,78134880,214349,0,21948,14126,5062,14791370,24620960,202401,서울특별시 구로구 구로동 685-70,37.4932672296102,126.87786990054
1153010200,아파트,혼합식,중앙난방,위탁관리,분양,서울특별시 구로구 구일로4길 65,2126.0,대한주택공사,서울특별시 구로구 구로동 685-222 구로주공,0.0,대한주택공사,A15286809,19,028530264,186667.096,0.0,0.0,666.0,1460.0,구로주공,186670.0,028530262,15,구로주공apti.c.kr,19860630.0,34.0,2126.0,15.0,142048.02,8324.0,108922526,0,303557310,471261,0,0,33748,10700,39240420,53500000,202401,서울특별시 구로구 구로동 685-222,37.4951304128661,126.875360399385
1153010200,아파트,혼합식,개별난방,위탁관리,분양,서울특별시 구로구 도림로22길 8,497.0,우성건설,서울특별시 구로구 구로동 1260- 구로이화우성,3.0,우성건설,A15288002,5,028668132,52836.55,120.0,0.0,206.0,171.0,구로이화우성,64609.15,028632836,23,이화우성.apti.co.kr,19980715.0,12.0,497.0,23.0,40645.13,8369.0,32854450,461740,0,145371,0,0,9116,0,10831840,0,202401,서울특별시 구로구 구로동 1260-,37.490148609905,126.893254382414
1153010200,아파트,복도식,개별난방,위탁관리,분양,서울특별시 구로구 디지털로 319,591.0,구로3구역재개발조합,서울특별시 구로구 구로동 1256- 구로현대,1.0,현대산업개발,A15288004,5,028590500,53464.476,0.0,0.0,264.0,327.0,구로현대,54530.264,028689836,15,구로현대.apti.co.kr,19920518.0,10.0,591.0,15.0,38961.28,8370.0,29013080,0,0,175274,0,0,9300,0,10696190,0,202401,서울특별시 구로구 구로동 1256-,37.4900377520776,126.895432921379
1153010900,연립주택,계단식,개별난방,자치관리,분양,서울특별시 구로구 오리로 1265,762.0,세종건설(주),서울특별시 구로구 궁동 213-21 궁동우신빌라,0.0,세종건설(주),A15288301,28,0226811994,63413.22,0.0,0.0,762.0,0.0,궁동우신빌라,63413.0,0226882016,3,www.emaul.co.kr,19881121.0,,762.0,3.0,37622.94,8257.0,1361060,0,0,0,0,0,0,0,0,0,202401,서울특별시 구로구 궁동 213-21,37.494671458208,126.830062414345
1153010100,아파트,복도식,중앙난방,위탁관리,분양,서울특별시 구로구 신도림로11가길 36,824.0,라이프건설,서울특별시 구로구 신도림동 290- 신도림미성,1.0,라이프건설,A15288611,6,0226327424,71796.16,0.0,0.0,352.0,472.0,신도림미성,71796.16,0226714933,13, ,19871211.0,7.0,824.0,13.0,52343.88,8205.0,40931640,0,122128820,184407,0,0,11068,4094,14610890,0,202401,서울특별시 구로구 신도림동 290-,37.5062634637578,126.876348360484
1153010100,아파트,복도식,개별난방,위탁관리,분양,서울특별시 구로구 신도림로21길 21,154.0,우성건설(주),서울특별시 구로구 신도림동 638- 신도림우성5차,1.0,우성건설(주),A15288801,1,0263264981,14854.88,0.0,0.0,56.0,98.0,신도림우성5차,16328.0,0226764981,11, ,19941215.0,2.0,154.0,11.0,11151.84,8201.0,1618920,9980,0,0,0,0,0,0,0,0,202401,서울특별시 구로구 신도림동 638-,37.5129451536261,126.883460948295
1153010100,아파트,계단식,개별난방,위탁관리,분양,서울특별시 구로구 신도림로 11,204.0,대림산업,서울특별시 구로구 신도림동 691- 신도림대림3차,2.0,20220321,A15288802,3,0226796167,18501.72,42.0,0.0,0.0,162.0,신도림대림3차,31419.58,0263477288,22, ,20010920.0,5.0,204.0,22.0,18501.72,8206.0,17128100,0,0,85738,0,0,3891,0,4259610,0,202401,서울특별시 구로구 신도림동 691-,37.507275213775,126.878180956047
1153010100,아파트,혼합식,개별난방,위탁관리,분양,서울특별시 구로구 신도림로19길 16,260.0,현대건설,서울특별시 구로구 신도림동 641- 신도림현대,1.0,현대건설,A15288803,5,0226377181,23841.32,0.0,0.0,130.0,130.0,신도림현대,26860.0,0226377180,18, ,19990413.0,5.0,260.0,18.0,18039.36,8201.0,14259836,0,0,86126,0,0,4327,0,4673190,0,202401,서울특별시 구로구 신도림동 641-,37.5115820786241,126.884616872481
1153010100,아파트,계단식,개별난방,위탁관리,분양,서울특별시 구로구 신도림로21길 25,284.0,한전연합조합,서울특별시 구로구 신도림동 637- 신도림우성3차,0.0,우성건설,A15288804,3,0226711295,30592.48,0.0,0.0,0.0,284.0,신도림우성3차,30983.0,0226364512,15,신도림우성3차.apti.so.kr,19931213.0,10.0,284.0,15.0,24069.9,8201.0,17743962,0,0,103197,0,0,0,0,0,0,202401,서울특별시 구로구 신도림동 637-,37.5130299633033,126.884495652664
1153010100,아파트,계단식,개별난방,위탁관리,분양,서울특별시 구로구 신도림로 32,362.0,대림산업(주),서울특별시 구로구 신도림동 647- 신도림대림5차e-편한세상,2.0,대림산업(주),A15288805,6,0220691344,38977.264,0.0,0.0,0.0,362.0,신도림대림5차e-편한세상,53027.109,0220693377,23, ,20030816.0,10.0,362.0,23.0,30693.618,8211.0,25084900,0,0,144646,0,0,7071,0,8361430,0,202401,서울특별시 구로구 신도림동 647-,37.5073792102051,126.880761857831
1153010100,아파트,계단식,개별난방,위탁관리,분양,서울특별시 구로구 신도림로 110,408.0,우성건설,"서울특별시 구로구 신도림동 312-17 신도림우성1,2차",0.0,우성건설,A15288806,5,0226379901,43745.451,0.0,0.0,0.0,408.0,"신도림우성1,2차",44868.0,0226366979,15, ,19921204.0,14.0,408.0,15.0,33689.62,8207.0,23945869,0,0,0,0,0,0,0,0,0,202401,서울특별시 구로구 신도림동 312-17,37.5116160440762,126.8859130274
1153010100,아파트,계단식,개별난방,위탁관리,분양,서울특별시 구로구 신도림로 56-13,411.0,동주홍상,서울특별시 구로구 신도림동 649- 신도림대림7차e-편한세상,2.0,(주)대림산업,A15288807,6,0226756065,49470.974,137.0,0.0,0.0,274.0,신도림대림7차e-편한세상,72335.0,0226756064,25,신도림7차e-편한세상.apti.co.kr,20040616.0,9.0,411.0,25.0,39204.468,8210.0,34809460,213060,0,135528,0,0,7807,0,8923410,0,202401,서울특별시 구로구 신도림동 649-,37.5090729712449,126.882432752392
1153010100,주상복합,계단식,개별난방,위탁관리,분양,서울특별시 구로구 경인로 638,304.0,(주)더랜드,서울특별시 구로구 신도림동 432-1 SK VIEW,3.0,sk건설,A15288808,3,0226330572,32661.152,0.0,0.0,0.0,304.0,SK VIEW,44408.32,0226330571,29, ,20060424.0,6.0,304.0,29.0,25831.16,8209.0,18529620,0,0,93833,0,0,10602,0,8854040,0,202401,서울특별시 구로구 신도림동 432-1,37.5066879494962,126.886233021799
1153010100,아파트,혼합식,개별난방,위탁관리,분양,서울특별시 구로구 경인로 643,655.0,"동아건설,삼영화학",서울특별시 구로구 신도림동 644- 신도림동아2차,3.0,동아건설산업(주),A15288809,5,0267417834,69412.625,96.0,0.0,220.0,339.0,신도림동아2차,98211.211,0226726726,26,https://신도림2차동아.apti.co.kr,20000517.0,11.0,655.0,26.0,52680.696,8208.0,40958960,0,0,239547,0,0,12327,0,14196450,0,202401,서울특별시 구로구 신도림동 644-,37.5088498841248,126.885553611579
1153010100,아파트,계단식,개별난방,위탁관리,분양,서울특별시 구로구 신도림로 78,813.0,조흥화학,서울특별시 구로구 신도림동 645- 신도림동아3차,3.0,동아건설산업,A15288810,9,0226337847,93850.5351,48.0,155.0,244.0,366.0,신도림동아3차,124838.54,0226337846,27, ,20001114.0,16.0,813.0,27.0,73762.28,8207.0,53130350,0,0,236054,0,0,15394,0,17356350,0,202401,서울특별시 구로구 신도림동 645-,37.5093892062559,126.884700212286
1153010100,아파트,계단식,개별난방,위탁관리,분양,서울특별시 구로구 경인로65길 16-15,853.0,대림산업(주),서울특별시 구로구 신도림동 646- 신도림4차e-편한세상,2.0,한국타이어(주),A15288812,15,0267364296,127823.91,377.0,203.0,0.0,273.0,신도림4차e-편한세상,175155.25,0226314296,25, ,20030517.0,19.0,853.0,25.0,98467.25,8208.0,80351593,0,0,309397,0,0,16146,0,20119630,0,202401,서울특별시 구로구 신도림동 646-,37.5093548780231,126.886561386049
1153010100,아파트,계단식,개별난방,위탁관리,분양,서울특별시 구로구 신도림로 87,1095.0,동아건설(주).조흥화학공업(주),서울특별시 구로구 신도림동 643- 신도림동아1차,3.0,한신공영(주),A15288813,11,0267372936,131907.03,0.0,246.0,288.0,561.0,신도림동아1차,177869.672,0226311648,27,sidongah.or.kr,19991130.0,22.0,1095.0,27.0,105443.05,8202.0,75336707,0,0,345128,0,0,20929,0,24758460,0,202401,서울특별시 구로구 신도림동 643-,37.5109603819235,126.882239095216
1153010100,아파트,혼합식,개별난방,위탁관리,분양,서울특별시 구로구 신도림로 16,2298.0,종근당외,"서울특별시 구로구 신도림동 642- 신도림대림1,2차",2.0,대림,A15288814,27,0267370771,192408.2,554.0,0.0,940.0,804.0,"신도림대림1,2차",325741.0,0267370772,27, ,19991127.0,47.0,2298.0,27.0,192406.4,8211.0,157742758,0,0,698316,0,0,39657,0,46984470,0,202401,서울특별시 구로구 신도림동 642-,37.5051228166042,126.88219103785
1153010800,연립주택,계단식,개별난방,자치관리,분양,서울특별시 구로구 경인로 83,339.0,삼익건설산업(주),서울특별시 구로구 오류동 97-4 서울가든빌라,1.0,삼익건설산업(주),A15289508,15,0226819753,26935.5228,0.0,0.0,339.0,0.0,서울가든빌라,26935.92,0226813911,3, ,19871203.0,0.0,339.0,3.0,15576.3,8264.0,448950,0,0,0,0,0,0,0,0,0,202401,서울특별시 구로구 오류동 97-4,37.4923434992711,126.830167197381
