bjdCode,codeAptNm,codeHallNm,codeHeatNm,codeMgrNm,codeSaleNm,address,hoCnt,kaptAcompany,kaptAddr,kaptBaseFloor,kaptBcompany,kaptCode,kaptDongCnt,kaptFax,kaptMarea,kaptMparea_135,kaptMparea_136,kaptMparea_60,kaptMparea_85,kaptName,kaptTarea,kaptTel,kaptTopFloor,kaptUrl,kaptUsedate,kaptdEcntp,kaptdaCnt,ktownFlrNo,privArea,zipcode,전기사용금액,가스사용금액,난방사용금액,전기사용량,가스사용량,난방사용량,냉수사용량,온수사용량,냉수사용금액,온수사용금액,집계날짜,cleaned_address,lat,lon
1154510200,아파트,혼합식,개별난방,위탁관리,분양,서울 금천구 남부순환로120길 22,124.0,대한연립재건축주택조합,서울특별시 금천구 독산동 956- 독산동삼익아파트,2.0,삼익건설(주),A10020894,1, ,11588.72,68.0,0.0,0.0,56.0,독산동삼익아파트,16672.56,028529560,1, ,19980902.0,1.0,124.0,,,,0,0,0,0,0,0,0,0,0,0,202401,서울특별시 금천구 독산동 956-,37.4783056912353,126.900720886861
1154510200,,계단식,개별난방,위탁관리,분양,서울 금천구 두산로11길 22,136.0,대흥 재건축 주택조합,서울특별시 금천구 독산동 1139- 청광플러스원아파트,1.0,청광건설,A10022155,1,028641534,13111.01,106.0,0.0,0.0,30.0,청광플러스원아파트,16503.606,028515344,16, ,20030722.0,,136.0,,,,0,0,0,0,0,0,0,0,0,0,202401,서울특별시 금천구 독산동 1139-,37.4714312820159,126.894106244993
1154510300,,계단식,개별난방,위탁관리,분양,서울 금천구 시흥대로36길 45,222.0,중앙건설,서울특별시 금천구 시흥동 1005- 시흥 중앙하이츠빌라,0.0,중앙건설,A10022481,12,028067773,16669.89,42.0,0.0,0.0,180.0,시흥 중앙하이츠빌라,50656.0,028047773,0, ,19881124.0,,222.0,,,,0,0,0,0,0,0,0,0,0,0,202401,서울특별시 금천구 시흥동 1005-,37.4449136209404,126.906872807132
1154510300,아파트,계단식,개별난방,자치관리,분양,서울특별시 금천구 탑골로2길 24,87.0,금광건업,서울특별시 금천구 시흥동 1014- 금광포란재아파트,1.0,금광건업,A10022788,1,028969738,6718.6622,0.0,0.0,16.0,81.0,금광포란재아파트,,028961332,11, ,20040201.0,0.0,97.0,11.0,7408.3402,8657.0,0,0,0,0,0,0,0,0,0,0,202401,서울특별시 금천구 시흥동 1014-,37.4510322833601,126.911522152224
1154510100,아파트,복도식,개별난방,위탁관리,임대,서울특별시 금천구 디지털로10길 55,282.0,LH서울지역본부,서울특별시 금천구 가산동 219-25 LH서울금천 행복주택아파트,2.0,동일토건,A10023288,2,028665670,17616.147,0.0,0.0,282.0,0.0,LH서울금천 행복주택아파트,17616.2,028665670,18, ,20230630.0,5.0,282.0,18.0,6365.3,8516.0,8695710,0,0,30324,0,0,1688,0,2200780,0,202401,서울특별시 금천구 가산동 219-25,37.4760135849005,126.890198871817
1154510100,아파트,복도식,개별난방,위탁관리,임대,서울특별시 금천구 가산디지털1로 222,299.0,한국후지필름(주),서울특별시 금천구 가산동 775- 어바니엘가산,2.0,(주)케이씨씨건설,A10023956,1, ,25016.91,0.0,0.0,299.0,0.0,어바니엘가산,25483.76,028632802,18, ,20171201.0,4.0,299.0,18.0,6320.85,8502.0,24563428,350200,0,43522,2060,0,1860,0,3157630,0,202401,서울특별시 금천구 가산동 775-,37.4850133257876,126.880111548311
1154510200,,혼합식,개별난방,위탁관리,분양,서울 금천구 범안로 1158,90.0,태영건설,서울특별시 금천구 독산동 1003-21 독산동태영아파트,3.0,태영건설,A10024179,1,028940042,10132.38,18.0,0.0,36.0,36.0,독산동태영아파트,16216.17,028940042,19, ,20010427.0,0.0,90.0,19.0,7141.5,,0,0,0,0,0,0,0,0,0,0,202401,서울특별시 금천구 독산동 1003-21,37.4662831209543,126.890484397234
1154510200,아파트,계단식,개별난방+기타,위탁관리,임대,서울특별시 금천구 벚꽃로 100,927.0,롯데알미늄,서울특별시 금천구 독산동 1160- 독산역 롯데캐슬아파트,3.0,롯데건설,A10024302,8,028038577,88857.27,0.0,0.0,610.0,317.0,독산역 롯데캐슬아파트,136510.64,028038576,35, ,20210429.0,24.0,927.0,35.0,63375.1247,8606.0,73558546,0,0,262805,0,4830,14449,0,17531250,0,202401,서울특별시 금천구 독산동 1160-,37.4641706487518,126.891110756716
1154510200,아파트,계단식,개별난방,위탁관리,분양,서울특별시 금천구 범안로 1212,432.0,국제자산신탁(주),서울특별시 금천구 독산동 1007-13 e편한세상독산더타워아파트,6.0,대림산업,A10025116,2,028070307,41029.3438,0.0,0.0,280.0,152.0,e편한세상독산더타워아파트,59622.7831,028024041,39, ,20191128.0,13.0,432.0,39.0,28705.598,8603.0,36918780,0,0,117640,0,0,6219,0,7028410,0,202401,서울특별시 금천구 독산동 1007-13,37.4660352420573,126.896264072547
1154510300,아파트,혼합식,개별난방,자치관리,분양,서울특별시 금천구 독산로 78-1,123.0,광명연립 재건축조합,서울특별시 금천구 시흥동 820-12 경남아파트,2.0,경남기업 주식회사,A10025447,1,028922433,8640.77,15.0,0.0,79.0,29.0,경남아파트,16680.08,028922434,15, ,19981219.0,3.0,123.0,15.0,8640.77,8572.0,0,0,0,0,0,0,0,0,0,0,202401,서울특별시 금천구 시흥동 820-12,37.4545705127908,126.906999172916
1154510100,주상복합,복도식,개별난방,자치관리,분양,서울특별시 금천구 가산로9길 12-8,238.0,에덴퍼유한회사,서울특별시 금천구 가산동 143-6 가산지웰에스테이트2차,3.0,신영건설,A10025913,1, ,4578.65,0.0,0.0,238.0,0.0,가산지웰에스테이트2차,12007.0,0262680710,12, ,20180829.0,4.0,238.0,12.0,3367.83,8515.0,6136460,0,0,0,0,0,0,0,1758290,0,202401,서울특별시 금천구 가산동 143-6,37.4774170148555,126.890899119445
1154510200,아파트,계단식,개별난방,위탁관리,분양,서울특별시 금천구 시흥대로 291,1236.0,(주)제이피홀딩스피에프브이,서울특별시 금천구 독산동 1155- 금천롯데캐슬골드파크3차아파트,5.0,롯데건설,A10025946,6,028076786,121648.0258,0.0,0.0,742.0,494.0,금천롯데캐슬골드파크3차아파트,171462.776,028056876,46,goldpark3.aptner.com,20181030.0,28.0,1236.0,46.0,86192.1212,8608.0,112520710,0,0,400164,0,0,19568,0,21349310,0,202401,서울특별시 금천구 독산동 1155-,37.4599560487863,126.896699156299
1154510200,아파트,계단식,개별난방,자치관리,분양,서울특별시 금천구 벚꽃로 60,109.0,독산지역주택조합,서울특별시 금천구 독산동 1131- 독산라이프아파트,1.0,(주)라이프종합건설,A10026024,1,028920212,11867.13,0.0,0.0,0.0,109.0,독산라이프아파트,12050.35,028920212,1, ,19960313.0,3.0,109.0,20.0,8946.08,8607.0,0,0,0,0,0,0,0,0,0,0,202401,서울특별시 금천구 독산동 1131-,37.4610961992269,126.892171602357
1154510300,아파트,혼합식,개별난방,위탁관리,분양,서울특별시 금천구 탑골로2길 19,114.0,주택재건축사업정비조합,서울특별시 금천구 시흥동 1012- 백운한비치1차아파트,1.0,백운건설,A10026187,1,028084577,11140.48,15.0,0.0,0.0,99.0,백운한비치1차아파트,14187.488,028084552,15, ,20030927.0,0.0,114.0,15.0,8925.3468,8657.0,0,0,0,0,0,0,0,0,0,0,202401,서울특별시 금천구 시흥동 1012-,37.4514199694624,126.911857241308
1154510200,주상복합,계단식,개별난방,위탁관리,혼합,서울특별시 금천구 벚꽃로 30,292.0,제이피홀딩스피에프브이,서울특별시 금천구 독산동 1150- 금천롯데캐슬골드파크2차,0.0,롯데건설(주),A10026626,2,028370014,29236.37,0.0,0.0,141.0,151.0,금천롯데캐슬골드파크2차,29236.37,028370013,41, ,20170928.0,4.0,292.0,41.0,21234.63,8608.0,28582660,0,0,95601,0,0,4345,0,5454120,0,202401,서울특별시 금천구 독산동 1150-,37.4582229148592,126.893710403536
1154510300,아파트,계단식,개별난방,위탁관리,분양,서울특별시 금천구 금하로23길 52,112.0,삼천리연합 지역주택조합,서울특별시 금천구 시흥동 1018- 백운한비치2차,1.0,백운건설,A10026792,2,0232861110,10866.056,0.0,0.0,31.0,81.0,백운한비치2차,13856.0,028961110,14, ,20080115.0,6.0,112.0,14.0,8631.57,8571.0,0,0,0,0,0,0,0,0,0,0,202401,서울특별시 금천구 시흥동 1018-,37.4535771651578,126.909342848147
1154510200,아파트,계단식,개별난방,위탁관리,혼합,서울특별시 금천구 벚꽃로 40,1743.0,(주)제이피홀딩스,서울특별시 금천구 독산동 1147- 금천롯데캐슬골드파크1차아파트,2.0,롯데건설(주),A10027188,11,028098408,188228.1267,105.0,0.0,357.0,1281.0,금천롯데캐슬골드파크1차아파트,270973.0,028098406,35,zigbangmovill,20161130.0,34.0,1743.0,35.0,137730.5424,8608.0,158047730,0,0,587504,0,0,31183,0,37237720,0,202401,서울특별시 금천구 독산동 1147-,37.4600596360114,126.893020585165
1154510200,,복도식,개별난방,위탁관리,분양,서울 금천구 벚꽃로18길 36,98.0,주택조합,서울특별시 금천구 독산동 1002- 진도1차,0.0,진도종합건설,A15301001,1,028026653,10050.56,0.0,0.0,40.0,58.0,진도1차,12137.69,028026653,10,없슴,19960625.0,,98.0,10.0,7318.32,,0,0,0,0,0,0,0,0,0,0,202401,서울특별시 금천구 독산동 1002-,37.4678124554686,126.890731987062
1154510200,아파트,계단식,개별난방,위탁관리,분양,서울특별시 금천구 범안로 1136,554.0,"독산동중앙하이츠1,2지역 주택조합",서울특별시 금천구 독산동 1140- 독산동중앙하이츠빌아파트,1.0,(주)중앙건설,A15301105,7,028637746,60953.0744,0.0,0.0,0.0,554.0,독산동중앙하이츠빌아파트,79873.63,028587746,22,cafe.daum.net/joongang02중앙하이츠빌(독산),20041027.0,13.0,554.0,22.0,47021.7472,8596.0,35006227,0,0,163221,0,0,8938,0,10165280,0,202401,서울특별시 금천구 독산동 1140-,37.4653308234224,126.888536683719
1154510300,아파트,혼합식,개별난방,위탁관리,분양,서울특별시 금천구 금하로 793,1772.0,시흥2-1구역 주택재개발조합,서울특별시 금천구 시흥동 1010- 시흥벽산1단지,2.0,벽산건설,A15303002,16,028078001,210739.44,828.0,0.0,328.0,616.0,시흥벽산1단지,266394.41,028960736,20,aptbs1.com,20000216.0,45.0,1772.0,20.0,167101.68,8655.0,117649650,0,0,532148,0,0,28897,0,35543370,0,202401,서울특별시 금천구 시흥동 1010-,37.4522125872144,126.918245309403
1154510300,아파트,복도식,,자치관리,혼합,서울특별시 금천구 금하로3길 26,173.0,무성건설,서울특별시 금천구 시흥동 1009- 시흥목련,0.0,서울도시개발공사,A15303003,3,028027770,10651.53,0.0,0.0,173.0,0.0,시흥목련,10651.53,028965772,12, ,19960914.0,0.0,173.0,12.0,7110.66,8615.0,0,0,0,0,0,0,0,0,0,0,202401,서울특별시 금천구 시흥동 1009-,37.4543350072853,126.897439149193
1154510300,아파트,계단식,개별난방,위탁관리,분양,서울특별시 금천구 시흥대로77길 23,229.0,"오성,혜성,태평연립 재건축조합",서울특별시 금천구 시흥동 1015- 시흥베르빌,2.0,(주)건설알포메,A15303102,2,028034936,23233.4,0.0,0.0,14.0,215.0,시흥베르빌,32458.0,028024936,19, ,20040525.0,0.0,229.0,19.0,18157.96,8610.0,14886620,0,0,63662,0,0,0,0,0,0,202401,서울특별시 금천구 시흥동 1015-,37.4575519359473,126.897593557221
1154510300,아파트,복도식,개별난방,위탁관리,분양,서울특별시 금천구 시흥대로51길 55,233.0,성지건설(주),서울특별시 금천구 시흥동 173-8 시흥성지,0.0,성지건설(주),A15303103,2,0263321702,22539.0,0.0,0.0,49.0,184.0,시흥성지,23439.0,028075911,13,시흥성지.apti.co.kr,19860813.0,4.0,233.0,13.0,16436.03,8634.0,13162300,0,0,57154,0,0,0,0,0,0,202401,서울특별시 금천구 시흥동 173-8,37.450875277331,126.89814502159
1154510300,아파트,복도식,개별난방,위탁관리,임대,서울특별시 금천구 금하로 793,564.0,SH공사,서울특별시 금천구 시흥동 1010- 관악벽산2단지,2.0,벽산건설(주),A15303202,2,028087360,30190.92,0.0,0.0,564.0,0.0,관악벽산2단지,30202.0,028087361,20,happy.i-sh.co.kr/main.do?deptid=70121,20000216.0,6.0,564.0,20.0,18442.8,8655.0,12738620,0,0,86552,0,0,5683,0,4249730,0,202401,서울특별시 금천구 시흥동 1010-,37.4522125872144,126.918245309403
1154510300,아파트,혼합식,개별난방,위탁관리,분양,서울특별시 금천구 금하로 750,671.0,우방건설,서울특별시 금천구 시흥동 1011- 관악우방,2.0,우방건설,A15303203,8,028032060,70835.23,160.0,0.0,304.0,207.0,관악우방,92068.67,028032020,25,관악우방.apti.co.kr,20021230.0,14.0,671.0,25.0,54156.92,8645.0,46266030,0,0,197021,0,0,12990,0,14089750,0,202401,서울특별시 금천구 시흥동 1011-,37.4490734382987,126.913658594513
1154510300,아파트,복도식,개별난방,자치관리,임대,서울특별시 금천구 금하로 796,1288.0,벽산,서울특별시 금천구 시흥동 1013-4 벽산6,4.0,벽산건설,A15303204,4,028965618,62804.168,0.0,0.0,1288.0,0.0,벽산6,79449.24,028922856,20,happy.i-sh.co.kr/main.do?deptid=70176,20040806.0,15.0,1288.0,20.0,42194.88,8646.0,36130186,5210,0,316318,3,0,12161,0,8781870,0,202401,서울특별시 금천구 시흥동 1013-4,37.4490082825906,126.916525916717
1154510300,아파트,혼합식,개별난방,위탁관리,분양,서울특별시 금천구 금하로 816,2810.0,벽산건설,서울특별시 금천구 시흥동 1013- 관악벽산타운5단지,4.0,벽산건설,A15303205,25,0263351500,310207.8,800.0,0.0,770.0,1240.0,관악벽산타운5단지,363995.29,0263351501,20, ,20040806.0,64.0,2810.0,20.0,242926.6,8646.0,188451698,0,718850,828933,0,0,54729,0,59316760,0,202401,서울특별시 금천구 시흥동 1013-,37.4497786332027,126.920020808062
1154510300,아파트,혼합식,개별난방,위탁관리,분양,서울특별시 금천구 독산로50길 57-2,185.0,..,서울특별시 금천구 시흥동 1008- 시흥금강,3.0,금강kcc,A15303401,1,0232865068,19063.496,17.0,0.0,74.0,94.0,시흥금강,26179.035,0232865067,20,시흥금강.ma-um.co.kr/,20000907.0,5.0,185.0,20.0,14353.16,8563.0,12755620,0,0,50022,0,0,3040,0,3437790,0,202401,서울특별시 금천구 시흥동 1008-,37.4632371066196,126.908072324465
1154510300,아파트,계단식,개별난방,위탁관리,분양,서울특별시 금천구 금하로24나길 48,206.0,삼천리 별장빌라 재건축조합,서울특별시 금천구 시흥동 1017- 관악산신도브래뉴,1.0,신도건설,A15303502,2,028050242,17698.23,44.0,0.0,14.0,148.0,관악산신도브래뉴,28838.95,028050241,15, ,20061128.0,8.0,206.0,15.0,17698.23,8647.0,16250956,0,0,64564,0,0,7001,0,7706880,0,202401,서울특별시 금천구 시흥동 1017-,37.4481311944756,126.910676400859
1154510300,아파트,계단식,개별난방,위탁관리,분양,서울특별시 금천구 시흥대로 165,1764.0,남서울한양주택재건축조합,서울특별시 금천구 시흥동 789- 남서울힐스테이트,0.0,"풍림산업,현대건설",A15370103,19,028031295,210450.536,357.0,76.0,370.0,961.0,남서울힐스테이트,297868.351,028031290,29, ,20140814.0,46.0,1764.0,29.0,156037.197,8637.0,160934950,411990,0,588254,0,0,34986,0,38363160,0,202401,서울특별시 금천구 시흥동 789-,37.4479033151811,126.900722652942
1154510200,아파트,계단식,개별난방,위탁관리,분양,서울특별시 금천구 시흥대로150길 6,246.0,재건축조합,서울특별시 금천구 독산동 1144- 독산동한양수자인아파트,2.0,한양,A15370301,4,028662048,21282.791,0.0,0.0,0.0,246.0,독산동한양수자인아파트,31321.36,028662047,15, ,20110930.0,10.0,246.0,15.0,16876.123,8540.0,17608540,0,0,76222,0,0,4077,0,4983860,0,202401,서울특별시 금천구 독산동 1144-,37.4760196038189,126.899811569821
1154510200,아파트,혼합식,중앙난방,위탁관리,분양,서울특별시 금천구 한내로 69-54,840.0,대한주택공사,서울특별시 금천구 독산동 1088- 독산주공14단지,0.0,대한주택공사,A15375809,5,028967438,53394.45,0.0,0.0,750.0,90.0,독산주공14단지,54436.602,028921528,15,cafe.naver.com/haan14apt,19901114.0,13.0,840.0,15.0,41208.0,8597.0,23487290,0,121120200,146043,0,0,0,3082,2579430,13869000,202401,서울특별시 금천구 독산동 1088-,37.4602167873458,126.885814835631
1154510200,아파트,계단식,개별난방,위탁관리,분양,서울특별시 금천구 벚꽃로6길 3,187.0,이랜드 독산지역주택조합,서울특별시 금천구 독산동 1143- 금천이랜드해가든,2.0,이랜드건설,A15375810,5,0264097904,20452.63,0.0,0.0,0.0,187.0,금천이랜드해가든,28564.0,0264097903,25, ,20080421.0,5.0,187.0,25.0,15882.435,8607.0,12512860,0,0,0,0,0,0,0,4165670,0,202401,서울특별시 금천구 독산동 1143-,37.460610009066,126.892463579375
1154510300,아파트,혼합식,개별난방,위탁관리,분양,서울특별시 금천구 독산로36길 36,202.0,"삼천리,무궁화연립주택조합",서울특별시 금천구 시흥동 806- 시흥월드메르디앙,1.0,월드건설(주),A15378501,2,028086800,18006.6142,0.0,0.0,113.0,89.0,시흥월드메르디앙,23295.0,028088062,15,없음,20060103.0,6.0,202.0,15.0,14135.6,8569.0,12124640,0,0,55232,0,0,0,0,7262810,0,202401,서울특별시 금천구 시흥동 806-,37.4594882978841,126.906960304687
1154510100,아파트,혼합식,개별난방,위탁관리,분양,서울특별시 금천구 두산로9길 56,210.0,삼익건설,서울특별시 금천구 가산동 234-46 가산삼익아파트,2.0,삼익건설,A15380101,2,028550043,20394.552,0.0,0.0,114.0,96.0,가산삼익아파트,27874.77,028530043,19,없음,19980721.0,3.0,210.0,19.0,14963.4,8521.0,12500430,0,0,56045,0,0,3482,0,4010130,0,202401,서울특별시 금천구 가산동 234-46,37.472693266739,126.892741100741
1154510100,아파트,계단식,개별난방,위탁관리,분양,서울특별시 금천구 가산로 99,1495.0,두산건설,서울특별시 금천구 가산동 769- 가산두산위브,4.0,두산건https://www.k-apt.go.kr/kaptinfo/mng/mng_getKaptBasic.do?menu=1#m2설,A15380403,18,028575691,152615.017,274.0,0.0,654.0,567.0,가산두산위브,194383.0,028575630,25,gsdsweve.aptner.com,19980309.0,33.0,1495.0,25.0,120921.96,8520.0,92407891,0,0,411814,0,0,24739,0,30946610,0,202401,서울특별시 금천구 가산동 769-,37.4761567725398,126.891289403751
1154510200,아파트,혼합식,개별난방,위탁관리,분양,서울특별시 금천구 범안로17길 12,214.0,현대건설,서울특별시 금천구 독산동 293-10 독산현대,1.0,현대건설,A15381303,2,028047063,20975.88,0.0,0.0,100.0,114.0,독산현대,24924.62,028047064,20, ,19990820.0,5.0,214.0,20.0,15417.22,8585.0,12380048,0,0,55441,0,0,0,0,244950,0,202401,서울특별시 금천구 독산동 293-10,37.4671535893397,126.894547822381
1154510200,아파트,혼합식,개별난방,위탁관리,분양,서울특별시 금천구 범안로15길 7,154.0,계룡건설,서울특별시 금천구 독산동 332-14 독산계룡,2.0,계룡건설,A15381402,2,028084693,15415.314,0.0,0.0,80.0,74.0,독산계룡,19932.82,028084694,21, ,19980924.0,4.0,154.0,21.0,11034.24,8586.0,10255260,0,0,40349,0,0,4890,0,5882260,0,202401,서울특별시 금천구 독산동 332-14,37.4670983100473,126.892792954178
1154510200,아파트,계단식,개별난방,위탁관리,분양,서울특별시 금천구 벚꽃로 73,996.0,구로연합주택조합,서울특별시 금천구 독산동 711-2 금천현대,0.0,현대종합건설,A15381706,10,028943750,93504.36,0.0,0.0,512.0,484.0,금천현대,113864.9,028063117,24,www.gchdapt.com,20020905.0,23.0,996.0,24.0,71685.56,8596.0,56259630,0,0,274434,0,0,0,0,0,0,202401,서울특별시 금천구 독산동 711-2,37.4629100391456,126.890423305457
1154510200,아파트,혼합식,개별난방,위탁관리,분양,서울특별시 금천구 시흥대로152길 25,341.0,향남재건축조합,서울특별시 금천구 독산동 955- 독산신도브래뉴,2.0,신도건설,A15382301,3,028624048,33309.845,38.0,0.0,100.0,203.0,독산신도브래뉴,45775.01,028624040,19,cafe.daum.net/doksan-sindo,20021024.0,8.0,341.0,19.0,25411.72,8536.0,20328800,0,0,95722,0,0,11215,0,12347520,0,202401,서울특별시 금천구 독산동 955-,37.4772675195837,126.900045398098
1154510200,아파트,계단식,지역난방,위탁관리,분양,서울특별시 금천구 한내로 62,1000.0,한신공영,서울특별시 금천구 독산동 1095- 독산한신,1.0,한신공영,A15383307,13,028988300,134219.2,1000.0,0.0,0.0,0.0,독산한신,144092.7,028995126,24,www.hanshinapt.com,19910820.0,32.0,1000.0,24.0,101037.6,8599.0,65746208,0,134569410,287941,0,999,19114,6764,20966140,47348000,202401,서울특별시 금천구 독산동 1095-,37.4553912730949,126.888877618767
1154510200,아파트,복도식,지역난방,위탁관리,임대,서울특별시 금천구 한내로 69-15,1226.0,LH,서울특별시 금천구 독산동 1088-1 독산주공13단지,0.0,LH,A15383308,7,028933421,56034.32,0.0,0.0,1226.0,0.0,독산주공13단지,59440.91,028921651,15,www.kohom.co.kr,19901114.0,16.0,1226.0,15.0,38444.4,8598.0,25210340,0,66742690,0,0,0,0,0,8049240,16201500,202401,서울특별시 금천구 독산동 1088-1,37.4573808551633,126.886472547107
1154510200,아파트,혼합식,개별난방,위탁관리,분양,서울특별시 금천구 두산로 36,154.0,진도,서울특별시 금천구 독산동 1133- 독산진도2차,0.0,진도건설,A15383601,1,028913791,15399.37,0.0,0.0,75.0,79.0,독산진도2차,17642.45,028913790,21, ,19971017.0,3.0,154.0,21.0,11178.07,8583.0,8791292,0,0,40121,0,0,0,0,96600,0,202401,서울특별시 금천구 독산동 1133-,37.4702435695168,126.891915983239
1154510200,아파트,혼합식,개별난방,위탁관리,분양,서울특별시 금천구 범안로17길 41,245.0,조합,서울특별시 금천구 독산동 1136- 독산진도3차,2.0,진도,A15383604,1,028046214,23539.49,0.0,0.0,104.0,141.0,독산진도3차,32063.0,028046213,19, ,19991217.0,5.0,245.0,19.0,17410.47,8586.0,15329200,0,0,65962,0,0,3577,0,4292190,0,202401,서울특별시 금천구 독산동 1136-,37.4683771536712,126.893134662324
1154510300,아파트,혼합식,개별난방,위탁관리,분양,서울특별시 금천구 독산로50길 89,786.0,반도아파트 재건축조합,서울특별시 금천구 시흥동 5-13 시흥삼익,4.0,삼익건설,A15383702,13,028943431,80472.7124,183.0,0.0,328.0,275.0,시흥삼익,115776.24,028064436,25, ,19990920.0,15.0,786.0,25.0,63958.34,8563.0,53996160,0,0,220244,0,0,12662,0,16535280,0,202401,서울특별시 금천구 시흥동 5-13,37.4637563637838,126.909126305021
1154510300,아파트,복도식,중앙난방,위탁관리,분양,서울특별시 금천구 시흥대로73길 11,639.0,대한종합건설,서울특별시 금천구 시흥동 109-1 남서울 무지개,1.0,대한종합건설,A15383905,5,028931344,44287.547,68.0,0.0,400.0,171.0,남서울 무지개,48428.785,028053589,10, ,19801224.0,7.0,639.0,10.0,40152.27,8613.0,48864550,0,200289520,269760,0,88572,11200,4040,18672760,16332000,202401,서울특별시 금천구 시흥동 109-1,37.4566169360635,126.898301459536
1154510300,아파트,혼합식,개별난방,위탁관리,분양,서울특별시 금천구 금하로23라길 31,197.0,현대산업개발,서울특별시 금천구 시흥동 209- 현대공무원,2.0,현대사업개발,A15384101,1,028091768,21932.414,0.0,0.0,15.0,182.0,현대공무원,21956.0,028091767,17,현대공무원.okhomeapt.co.kr,19960624.0,6.0,197.0,17.0,15946.84,8571.0,11348860,0,0,55576,0,0,0,0,0,0,202401,서울특별시 금천구 시흥동 209-,37.4540494899025,126.910662468935
1154510300,아파트,혼합식,개별난방,위탁관리,분양,서울특별시 금천구 탑골로 84,270.0,시흥2동재건축조합,서울특별시 금천구 시흥동 1006- 벽산타운3단지,2.0,벽산건설,A15384501,3, ,27851.168,46.0,0.0,124.0,100.0,벽산타운3단지,34641.0,028914797,23, ,19981028.0,1.0,270.0,23.0,21217.64,8655.0,19109720,0,119800,74583,0,0,4854,0,5430560,0,202401,서울특별시 금천구 시흥동 1006-,37.4530159288078,126.9174650573
1154510300,아파트,혼합식,개별난방,위탁관리,분양,서울특별시 금천구 독산로10길 96,619.0,건영,서울특별시 금천구 시흥동 384-12 남서울건영2차,1.0,건영,A15384603,3,028053843,47424.7774,0.0,0.0,237.0,382.0,남서울건영2차,48916.53,028058893,15, ,19891021.0,6.0,619.0,15.0,34460.63,8644.0,45150744,0,0,130781,0,0,7728,0,19040440,0,202401,서울특별시 금천구 시흥동 384-12,37.4496340433581,126.910501928991
1154510300,연립주택,계단식,개별난방,위탁관리,분양,서울특별시 금천구 시흥대로 53,330.0,신안건설,서울특별시 금천구 시흥동 982- 시흥현대빌라,0.0,신안건설,A15386303,15,028067374,18651.6,0.0,0.0,330.0,0.0,시흥현대빌라,18857.4,028097374,3, ,19890525.0,0.0,330.0,3.0,12382.02,8640.0,451430,167570,0,1567,182,0,0,0,0,0,202401,서울특별시 금천구 시흥동 982-,37.4391308903777,126.902492490298
1154510300,아파트,복도식,개별난방,위탁관리,분양,서울특별시 금천구 시흥대로59길 35,260.0,건영아파트,서울특별시 금천구 시흥동 992-2 남서울건영아파트,1.0,건영건설,A15386404,3,028028394,19701.11,65.0,0.0,117.0,78.0,남서울건영아파트,19701.11,028028393,13, ,19821207.0,2.0,260.0,13.0,18039.6,8632.0,9733990,0,0,45318,0,0,0,0,0,0,202401,서울특별시 금천구 시흥동 992-2,37.4529394547466,126.898618257316
1154510300,아파트,복도식,개별난방,위탁관리,분양,서울특별시 금천구 시흥대로47길 43,986.0,럭키건설,서울특별시 금천구 시흥동 1002-1 남서울럭키아파트,0.0,럭키건설,A15386506,9,028099640,68286.94,0.0,0.0,842.0,144.0,남서울럭키아파트,75305.77,028060090,12,nslucky.aptner.com/,19811223.0,11.0,986.0,12.0,47984.53,8634.0,40798194,0,0,258264,0,0,13900,0,15680820,0,202401,서울특별시 금천구 시흥동 1002-1,37.4506553147109,126.898955300111
