bjdCode,codeAptNm,codeHallNm,codeHeatNm,codeMgrNm,codeSaleNm,address,hoCnt,kaptAcompany,kaptAddr,kaptBaseFloor,kaptBcompany,kaptCode,kaptDongCnt,kaptFax,kaptMarea,kaptMparea_135,kaptMparea_136,kaptMparea_60,kaptMparea_85,kaptName,kaptTarea,kaptTel,kaptTopFloor,kaptUrl,kaptUsedate,kaptdEcntp,kaptdaCnt,ktownFlrNo,privArea,zipcode,전기사용금액,가스사용금액,난방사용금액,전기사용량,가스사용량,난방사용량,냉수사용량,온수사용량,냉수사용금액,온수사용금액,집계날짜,cleaned_address,lat,lon
1135010500,주상복합,계단식,개별난방,위탁관리,분양,서울 노원구 상계로23다길 13-8,124.0,현대,서울특별시 노원구 상계동 1318- 노원아이파크,0.0,현대,A10020986,1,029369008,20324.38,6.0,118.0,0.0,0.0,노원아이파크,30613.61,029369006,1, ,20091229.0,,124.0,,,,0,0,0,0,0,0,0,0,0,0,202401,서울특별시 노원구 상계동 1318-,37.6598474260427,127.068904053591
1135010300,주상복합,복도식,개별난방,위탁관리,임대,서울 노원구 화랑로 419-3,100.0,유한책임회사 문화,서울특별시 노원구 공릉동 684-41 태릉입구역 이니티움,0.0,삼정건설,A10021097,1,029487771,5500.79,0.0,0.0,63.0,37.0,태릉입구역 이니티움,6618.04,029487770,1,유한책임회사 문화,20241015.0,3.0,100.0,,,,0,0,0,0,0,0,0,0,0,0,202401,서울특별시 노원구 공릉동 684-41,37.6173556189162,127.073844271243
1135010500,아파트,계단식,개별난방,위탁관리,분양,서울 노원구 상계로1길 82-14,114.0,(주)비콘건설,서울특별시 노원구 상계동 1310- 비콘드림힐3차아파트,2.0,(주)비콘건설,A10021185,1,029309101,11081.0416,88.0,0.0,0.0,26.0,비콘드림힐3차아파트,15738.107,029331389,1,(주)비콘건설,20050530.0,,114.0,,,,0,0,0,0,0,0,0,0,0,0,202401,서울특별시 노원구 상계동 1310-,37.6591458137172,127.061779785722
1135010200,아파트,,,,분양,서울 노원구 석계로13길 6-9,, ,서울특별시 노원구 월계동 931- 장은하이빌아파트,, ,A10021254,1, ,,,,,,장은하이빌아파트,,02-4321-0915,1, ,20020513.0,,,,,,0,0,0,0,0,0,0,0,0,0,202401,서울특별시 노원구 월계동 931-,37.6206025829132,127.061628602036
1135010300,아파트,복도식,개별난방,위탁관리,임대,서울 노원구 공릉로51길 20,100.0,한국토지주택공사,서울특별시 노원구 공릉동 428-7 서울공릉행복주택,1.0,뉴프린스 (주),A10022152,1, ,6587.8082,22.0,0.0,52.0,26.0,서울공릉행복주택,6046.0,0232965283,1, ,20190121.0,2.0,100.0,,,,0,0,0,0,0,0,0,0,0,0,202401,서울특별시 노원구 공릉동 428-7,37.628392704654,127.075703075721
1135010600,주상복합,계단식,개별난방,위탁관리,분양,서울 노원구 한글비석로 384,126.0,대호건설,서울특별시 노원구 중계동 591- 대호프라자,4.0,한신중계지역주택조합,A10022333,1,029523152,12846.364,126.0,0.0,0.0,0.0,대호프라자,17644.45,029523151,1, ,20000224.0,4.0,126.0,,,,0,0,0,0,0,0,0,0,0,0,202401,서울특별시 노원구 중계동 591-,37.6598085040664,127.073239970178
1135010500,아파트,혼합식,개별난방,위탁관리,혼합,서울특별시 노원구 덕릉로 753,553.0,상계6구역주택재개발정비사업조합,서울특별시 노원구 상계동 95-3 노원롯데캐슬시그니처1단지,3.0,롯데건설(주),A10023024,4,029382006,48262.7,31.0,0.0,304.0,218.0,노원롯데캐슬시그니처1단지,74570.742,029382005,29, ,20230628.0,11.0,553.0,29.0,35725.07,1640.0,48201680,0,0,140310,0,0,5676,0,6217210,0,202401,서울특별시 노원구 상계동 95-3,37.6658515931357,127.0763205024
1135010600,아파트,계단식,,위탁관리,분양,서울특별시 노원구 덕릉로82길 13,, ,서울특별시 노원구 중계동 602- 비콘드림힐아파트,2.0,비콘드림힐건설(주),A10023027,1,029334490,,0.0,0.0,27.0,61.0,비콘드림힐아파트,,029344993,15, ,20051215.0,,88.0,15.0,6802.079,1715.0,0,0,0,0,0,0,0,0,0,0,202401,서울특별시 노원구 중계동 602-,37.6584962197664,127.075954284292
1135010500,,계단식,개별난방,위탁관리,분양,서울특별시 노원구 덕릉로 753,610.0,상계6재정비촉진구역조합,서울특별시 노원구 상계동 95-3 노원롯데캐슬시그니처2단지,2.0,롯데건설,A10023060,6,029383006,43117.196,4.0,0.0,351.0,255.0,노원롯데캐슬시그니처2단지,89035.06,029383005,29, ,20230628.0,0.0,610.0,29.0,43116.06,1640.0,53555120,0,0,277055,6015,0,8856,0,9949200,0,202401,서울특별시 노원구 상계동 95-3,37.6658515931357,127.0763205024
1135010300,도시형 생활주택(아파트),계단식,개별난방,자치관리,분양,서울특별시 노원구 화랑로 421,164.0,제이에스산업개발,서울특별시 노원구 공릉동 683-14 한일휴니스빌,3.0,한일개발,A10023478,1,07089521006,36176.1686,0.0,0.0,164.0,0.0,한일휴니스빌,6418.113,0264821002,19, ,20130924.0,3.0,164.0,19.0,2337.7452,1861.0,4534850,0,0,16855,0,0,1664,0,2625100,0,202401,서울특별시 노원구 공릉동 683-14,37.6174995624988,127.074329424265
1135010300,아파트,복도식,개별난방,위탁관리,임대,서울특별시 노원구 동일로 1000,270.0,(주)태운산업개발,서울특별시 노원구 공릉동 617-3 청년주택 와이엔타워,2.0,(주)한양산업개발,A10023990,1,0220392696,10600.3278,0.0,0.0,270.0,0.0,청년주택 와이엔타워,11793.0,0220392695,20,yntower.apti.co.kr,20211202.0,0.0,270.0,20.0,5507.1,1849.0,8895890,0,0,55103,0,0,1547,0,1814610,0,202401,서울특별시 노원구 공릉동 617-3,37.6194889944868,127.075526293582
1135010300,아파트,계단식,개별난방,위탁관리,혼합,서울특별시 노원구 공릉로34길 86,1308.0,태릉현대아파트주택재건축정비사업조합,서울특별시 노원구 공릉동 758- 태릉해링턴플레이스,3.0,효성중공업,A10023991,15,029720105,124604.0128,0.0,0.0,441.0,867.0,태릉해링턴플레이스,191973.27,029720103,25, ,20220118.0,41.0,1308.0,25.0,94764.99,1817.0,126288422,0,0,418041,0,0,20487,0,25511560,0,202401,서울특별시 노원구 공릉동 758-,37.6257613188734,127.081597642805
1135010500,아파트,계단식,개별난방,위탁관리,분양,서울특별시 노원구 동일로239나길 31,115.0,SH공사,서울특별시 노원구 상계동 1296- 상록수아파트,2.0,영동건설,A10024434,3,029321149,8934.8,0.0,0.0,95.0,20.0,상록수아파트,12993.0,029311489,15, ,20020528.0,5.0,115.0,15.0,6641.358,1606.0,0,0,0,0,0,0,0,0,0,0,202401,서울특별시 노원구 상계동 1296-,37.6773714294384,127.051556487898
1135010500,아파트,계단식,개별난방,위탁관리,혼합,서울특별시 노원구 노원로38길 76,1062.0,상계주공8단지 주택재건축 정비사업조합,서울특별시 노원구 상계동 680- 포레나노원 아파트,2.0,주식회사 한화건설,A10024547,13,0233924940,101785.7182,23.0,0.0,499.0,540.0,포레나노원 아파트,153921.4572,0233924938,30,forenanw.com,20201125.0,28.0,1062.0,30.0,76881.44,1677.0,108648241,0,0,427847,0,0,19552,0,22390580,0,202401,서울특별시 노원구 상계동 680-,37.6648844221816,127.061972684908
1135010200,아파트,계단식,개별난방,위탁관리,분양,서울특별시 노원구 석계로13길 35,115.0,..,서울특별시 노원구 월계동 943- 세양청마루,1.0,세양건설,A10024636,1,029142223,11822.0,0.0,0.0,0.0,115.0,세양청마루,15521.6,029142224,15, ,20051027.0,4.0,115.0,15.0,9499.543,1896.0,0,0,0,0,0,0,0,0,0,0,202401,서울특별시 노원구 월계동 943-,37.6207245375187,127.060660791581
1135010500,아파트,계단식,개별난방,위탁관리,분양,서울특별시 노원구 수락산로 246,117.0,대창기업(주),서울특별시 노원구 상계동 1302- 상계 대창센시티,2.0,대창기업(주),A10024770,1, ,12376.26,0.0,0.0,0.0,117.0,상계 대창센시티,16640.47,0220911489,15, ,20020730.0,0.0,117.0,15.0,9921.8934,1615.0,0,0,0,0,0,0,0,0,0,0,202401,서울특별시 노원구 상계동 1302-,37.6714625463851,127.051534150434
1135010500,,혼합식,개별난방,위탁관리(직영+위탁),분양,서울특별시 노원구 동일로231길 72,142.0,중앙건설(주),서울특별시 노원구 상계동 1068- 상계중앙하이츠아파트,1.0,중앙건설(주),A10024778,1,029376952,13272.41,0.0,0.0,71.0,71.0,상계중앙하이츠아파트,15840.26,029376951,15, ,19961012.0,3.0,142.0,15.0,10285.06,1614.0,0,0,0,0,0,0,0,0,0,0,202401,서울특별시 노원구 상계동 1068-,37.6719904738513,127.051846228306
1135010200,아파트,계단식,개별난방,위탁관리,분양,서울특별시 노원구 화랑로 355,138.0,우남건설,서울특별시 노원구 월계동 930- 월계우남아파트,2.0,우남건설,A10024812,2,029490100,14645.94,0.0,0.0,0.0,138.0,월계우남아파트,20567.76,029498897,22, ,20011204.0,4.0,138.0,22.0,11692.74,1914.0,0,0,0,0,0,0,0,0,0,0,202401,서울특별시 노원구 월계동 930-,37.6155733518048,127.067408524429
1135010200,아파트,혼합식,개별난방,위탁관리,혼합,서울특별시 노원구 초안산로2라길 26,859.0,인덕마을주택재건축정비사업조합,서울특별시 노원구 월계동 633-31 월계센트럴아이파크아파트,2.0,현대산업개발,A10025097,7,029980862,91139.8,0.0,0.0,296.0,563.0,월계센트럴아이파크아파트,134402.75,029980861,30,wgidipark.apter.com,20200130.0,21.0,859.0,30.0,65606.41,1879.0,81511960,505000,0,0,0,0,14358,0,16867050,0,202401,서울특별시 노원구 월계동 633-31,37.6300099286586,127.05667170993
1135010500,아파트,혼합식,개별난방,위탁관리,혼합,서울특별시 노원구 수락산로 12,810.0,대우건설,서울특별시 노원구 상계동 85-33 노원 센트럴푸르지오,3.0,상계4구역주택재개발정비사업조합,A10025133,7,029348578,71649.184,9.0,0.0,551.0,250.0,노원 센트럴푸르지오,106862.107,029348577,28, ,20210222.0,19.0,810.0,28.0,52139.53,1639.0,65529469,0,0,255575,0,0,12433,0,15251410,0,202401,서울특별시 노원구 상계동 85-33,37.6643837383358,127.074879033534
1135010300,아파트,혼합식,개별난방,위탁관리,분양,서울특별시 노원구 동일로193길 7,138.0,(주)신도종합건설,서울특별시 노원구 공릉동 749- 공릉2차신도브래뉴아파트,2.0,(주)신도종합건설,A10026289,1,029732360,15414.36,0.0,0.0,0.0,138.0,공릉2차신도브래뉴아파트,21270.06,029731567,18, ,20021129.0,4.0,138.0,18.0,11038.38,1852.0,10140870,0,0,42119,0,0,0,0,0,0,202401,서울특별시 노원구 공릉동 749-,37.6256634143747,127.071995268287
1135010400,아파트,복도식,중앙난방,자치관리,임대,서울특별시 노원구 한글비석로 97,120.0,"노원구청, 명지대학교연구단",서울특별시 노원구 하계동 251-9 노원에너지제로주택,2.0,KCC건설,A10026660,8,029791900,15527.66,0.0,0.0,117.0,0.0,노원에너지제로주택,17652.27,029771900,7, ,20171024.0,,117.0,7.0,5769.75,1791.0,0,0,0,0,0,0,0,0,0,0,202401,서울특별시 노원구 하계동 251-9,37.6382367673341,127.072572646722
1135010200,아파트,혼합식,개별난방,위탁관리,혼합,서울특별시 노원구 마들로5길 25,326.0,월계4구역재개발조합,서울특별시 노원구 월계동 672- 녹천역두산위브아파트,2.0,두산건설주식회사,A10027121,10,029088772,31900.1296,14.0,0.0,97.0,215.0,녹천역두산위브아파트,47860.6793,029088771,9, ,20171020.0,17.0,326.0,9.0,24905.6,1866.0,22010077,0,0,94923,0,0,4098,0,4822560,0,202401,서울특별시 노원구 월계동 672-,37.6409838052553,127.052256470187
1135010500,아파트,계단식,개별난방,위탁관리,분양,서울특별시 노원구 동일로242라길 21-11,57.0,대망지역주택조합,서울특별시 노원구 상계동 1308- 비콘드림힐아파트,0.0,대망건설,A10027533,2,0262276072,5728.8,0.0,0.0,0.0,57.0,비콘드림힐아파트,70209.13,029326072,11, ,20041210.0,3.0,57.0,11.0,4567.14,1626.0,0,0,0,0,0,0,0,0,0,0,202401,서울특별시 노원구 상계동 1308-,37.676692622501,127.057795995099
1135010500,아파트,혼합식,지역난방,위탁관리,혼합,서울특별시 노원구 덕릉로70가길 21,457.0,SH공사,서울특별시 노원구 상계동 1322- 중계센트럴파크아파트,2.0,진흥기업(주),A10027601,5,029391006,42447.0,0.0,0.0,315.0,142.0,중계센트럴파크아파트,62074.51,029351007,15, ,20160317.0,0.0,457.0,15.0,29353.96,1772.0,26198439,0,9396320,126646,0,309,8396,3562,8830810,7800780,202401,서울특별시 노원구 상계동 1322-,37.6428693745143,127.059507325253
1135010300,주상복합,계단식,개별난방,위탁관리,분양,서울특별시 노원구 동일로 986,234.0,KB신탁사,서울특별시 노원구 공릉동 670-20 노원프레미어스엠코,5.0,현대엔지니어링,A10027622,2,029748002,26136.352,0.0,0.0,0.0,234.0,노원프레미어스엠코,53489.1066,029748004,36, ,20160116.0,4.0,234.0,36.0,19663.8126,1849.0,25480390,0,0,122016,0,0,4021,0,4872590,0,202401,서울특별시 노원구 공릉동 670-20,37.6182161017816,127.07591204414
1135010200,아파트,계단식,개별난방,위탁관리,분양,서울특별시 노원구 월계로42길 97,504.0,월계3주택재건축정비사업조합,서울특별시 노원구 월계동 507-8 꿈의숲 SK뷰 아파트,2.0,SK건설,A10027716,6,029117553,51863.0418,0.0,0.0,163.0,341.0,꿈의숲 SK뷰 아파트,80003.43,029117551,20,dreamsk.aptner.co.kr,20160127.0,17.0,504.0,20.0,38734.93,1889.0,42965716,0,0,171708,0,0,8474,0,10634780,0,202401,서울특별시 노원구 월계동 507-8,37.6220051183575,127.053173730089
1135010200,아파트,계단식,개별난방,위탁관리,분양,서울특별시 노원구 화랑로47길 38,484.0,지인개발(주),서울특별시 노원구 월계동 944- 월계풍림아이원,2.0,풍림건설(주),A13905003,8,029778901,45211.0,0.0,0.0,166.0,318.0,월계풍림아이원,59974.475,029778951,25,월계풍림.apti.co.kr,20051216.0,0.0,484.0,25.0,36630.848,1914.0,33082290,0,0,148958,0,0,9514,0,10811370,0,202401,서울특별시 노원구 월계동 944-,37.6164824350017,127.065675585768
1135010200,아파트,혼합식,개별난방,위탁관리,분양,서울특별시 노원구 석계로15길 25,190.0,신아연립,서울특별시 노원구 월계동 926- 월계한일1차,3.0,한일건설(주),A13905101,1,029110712,21581.4844,38.0,0.0,38.0,114.0,월계한일1차,29399.08,029111074,19, ,19991209.0,5.0,190.0,19.0,16330.082,1894.0,12210690,0,0,52447,0,0,2752,0,3517650,0,202401,서울특별시 노원구 월계동 926-,37.6220625118578,127.06134243043
1135010200,아파트,혼합식,개별난방,위탁관리,분양,서울특별시 노원구 광운로 46,258.0,월계신아연립주택조합,서울특별시 노원구 월계동 925- 월계대동,2.0,(주)대동,A13905102,3,029159764,25090.66,8.0,0.0,148.0,102.0,월계대동,33781.287,029197986,17, ,19970930.0,7.0,258.0,17.0,18414.78,1894.0,15067370,0,0,63996,0,0,0,0,116000,0,202401,서울특별시 노원구 월계동 925-,37.621716014873,127.060950785003
1135010200,아파트,혼합식,개별난방,위탁관리,분양,서울특별시 노원구 석계로 49,1281.0,현대산업개발,서울특별시 노원구 월계동 929- 월계동현대,1.0,현대산업개발,A13905105,11,029112328,137093.539,296.0,0.0,544.0,441.0,월계동현대,174649.34,029112329,27,www.ipark.co.kr,20001125.0,0.0,1281.0,27.0,104126.02,1901.0,79656841,0,0,351861,0,0,20930,0,25840300,0,202401,서울특별시 노원구 월계동 929-,37.6172177389168,127.06250985635
1135010200,아파트,계단식,개별난방,위탁관리,분양,서울특별시 노원구 우이천로2나길 14,233.0,흥화공업,서울특별시 노원구 월계동 939- 월계흥화브라운빌,1.0,흥화공업,A13905202,4,029901486,24310.46,0.0,0.0,26.0,207.0,월계흥화브라운빌,31044.97,029901489,15, ,20040924.0,8.0,233.0,15.0,18923.61,1871.0,15610910,0,179950,68105,0,0,4457,0,5319620,0,202401,서울특별시 노원구 월계동 939-,37.6313783061055,127.044347651475
1135010200,아파트,복도식,중앙난방,위탁관리,분양,서울특별시 노원구 덕릉로60길 185,410.0,서울도시개발공사,서울특별시 노원구 월계동 923- 월계6-1초안,0.0,서울도시개발공사,A13905204,3,029066112,29649.6,0.0,0.0,410.0,0.0,월계6-1초안,34910.55,029066113,15, ,19980430.0,6.0,410.0,15.0,21281.1,1870.0,2772420,0,41277470,0,0,0,4232,1866,5621610,7464000,202401,서울특별시 노원구 월계동 923-,37.6330124373899,127.044071739665
1135010200,아파트,복도식,중앙난방,위탁관리,분양,서울특별시 노원구 우이천로 102,571.0,삼익건설,서울특별시 노원구 월계동 924- 월계6-2초안,0.0,도시개발공사,A13905208,4,029956093,40811.65,0.0,0.0,571.0,0.0,월계6-2초안,47158.219,029956092,15, ,19971120.0,8.0,571.0,15.0,28253.35,1872.0,5873940,0,56439470,0,0,0,0,0,9496910,0,202401,서울특별시 노원구 월계동 924-,37.6306654895742,127.043504483567
1135010200,아파트,혼합식,개별난방,위탁관리,분양,서울특별시 노원구 마들로1길 44,274.0,서광산업주식회사,서울특별시 노원구 월계동 922- 월계서광,0.0,서광산업주식회사,A13905301,4, ,26724.026,0.0,0.0,104.0,170.0,월계서광,26724.0872,029733315,15,월계서광.apti.co.kr,19941021.0,8.0,274.0,15.0,20141.78,1910.0,15389400,0,0,75273,0,0,4508,0,5335920,0,202401,서울특별시 노원구 월계동 922-,37.6236591971724,127.063970855033
1135010200,아파트,복도식,지역난방,위탁관리,분양,서울특별시 노원구 마들로3길 37,713.0,서울시 도시개발공사,서울특별시 노원구 월계동 322-1 성원(사슴4),1.0,(주)성원건설,A13905302,6,029484335,51165.83,0.0,0.0,713.0,0.0,성원(사슴4),52498.68,029729946,15,www.intm.co.kr/월계성원,19950612.0,10.0,713.0,15.0,35220.96,1907.0,6297390,0,68968730,0,0,20660,0,2713,2081560,8139000,202401,서울특별시 노원구 월계동 322-1,37.6286067853213,127.062796826548
1135010500,아파트,계단식,개별난방,위탁관리,분양,서울특별시 노원구 동일로230가길 15,274.0,주)우방,서울특별시 노원구 상계동 1295- 상계우방,2.0,주)우방,A13920001,3,029329470,32493.24,54.0,35.0,56.0,129.0,상계우방,42404.0,0233914484,19, ,20000630.0,8.0,274.0,19.0,25592.5,1631.0,19555070,0,0,106935,0,0,10029,0,11977280,0,202401,서울특별시 노원구 상계동 1295-,37.6721825261507,127.057188339382
1135010500,아파트,계단식,개별난방,자치관리,분양,서울특별시 노원구 동일로242길 95,216.0,삼성제4직장 주택조합,서울특별시 노원구 상계동 1272- 상계수락현대,1.0,현대건설,A13920102,2,029340149,22849.776,0.0,0.0,0.0,216.0,상계수락현대,25256.0,029510149,12, ,19950928.0,9.0,216.0,12.0,18322.56,1626.0,13264350,0,0,57016,0,0,3161,0,4186830,0,202401,서울특별시 노원구 상계동 1272-,37.6753871027505,127.059786407791
1135010500,아파트,계단식,개별난방,위탁관리,분양,서울특별시 노원구 동일로230가길 71,275.0,우림건설,서울특별시 노원구 상계동 1306- 우림루미아트1.2단지,0.0,우림건설,A13920104,3,029303447,28963.36,27.0,0.0,0.0,248.0,우림루미아트1.2단지,37332.318,029303443,15, ,20041117.0,12.0,275.0,15.0,23940.946,1630.0,19208837,0,0,83930,0,0,4656,0,5299900,0,202401,서울특별시 노원구 상계동 1306-,37.6749682302433,127.055754500863
1135010500,아파트,혼합식,개별난방,위탁관리,분양,서울특별시 노원구 동일로242길 80,290.0,재건축조합,서울특별시 노원구 상계동 1277- 상계수락한신,2.0,한신공영,A13920105,2,029373120,29765.2868,61.0,0.0,147.0,82.0,상계수락한신,37157.28,029373106,16, ,19970417.0,7.0,290.0,16.0,22727.67,1627.0,17596570,310580,0,81633,0,0,4766,0,5894560,0,202401,서울특별시 노원구 상계동 1277-,37.6741700814342,127.059744057308
1135010500,아파트,혼합식,개별난방,위탁관리,분양,서울특별시 노원구 동일로246길 39,299.0,극동건설,서울특별시 노원구 상계동 1128- 상계극동늘푸른,1.0,극동건설,A13920106,4,0262276072,29244.35,0.0,0.0,137.0,162.0,상계극동늘푸른,35140.352,029326072,18, ,20000422.0,9.0,299.0,18.0,21905.514,1626.0,18887130,131230,0,0,0,0,0,0,10233700,0,202401,서울특별시 노원구 상계동 1128-,37.6770848451421,127.057187114254
1135010500,아파트,혼합식,개별난방,위탁관리,분양,서울특별시 노원구 노원로26가길 25,215.0,코오롱,서울특별시 노원구 상계동 1281- 상계코오롱,0.0,코오롱,A13920202,3,0233913362,20381.694,0.0,0.0,86.0,129.0,상계코오롱,26845.074,0233913360,21, ,19971229.0,5.0,215.0,21.0,15438.33,1705.0,15077480,0,0,77303,0,0,0,0,0,0,202401,서울특별시 노원구 상계동 1281-,37.6531703444212,127.069355135648
1135010500,아파트,계단식,개별난방,위탁관리,분양,서울특별시 노원구 노원로28길 62,305.0,상게8구역재개발조합,서울특별시 노원구 상계동 1309- 상계한일유엔아이,1.0,한일건설(주),A13920205,5,029301270,28243.521,39.0,0.0,193.0,73.0,상계한일유엔아이,36793.0,029300159,21, ,20050203.0,8.0,305.0,21.0,22241.002,1705.0,20172743,0,0,117513,0,0,6538,0,7695670,0,202401,서울특별시 노원구 상계동 1309-,37.6546142800345,127.071284454336
1135010500,아파트,혼합식,개별난방,위탁관리,분양,서울특별시 노원구 노원로28길 15,437.0,(주)중앙건설,서울특별시 노원구 상계동 1279- 상계1차중앙하이츠,1.0,(주)중앙건설,A13920207,2,0263161619,48556.27,90.0,0.0,188.0,159.0,상계1차중앙하이츠,53666.09,029511619,23, ,19971016.0,9.0,437.0,23.0,36844.86,1704.0,26687133,0,0,122868,0,0,8311,0,9086990,0,202401,서울특별시 노원구 상계동 1279-,37.6540088803685,127.069216075266
1135010500,아파트,혼합식,개별난방,위탁관리,분양,서울특별시 노원구 노원로 428,795.0,중안건설,서울특별시 노원구 상계동 1282- 상계중앙하이츠2차,2.0,중앙건설,A13920209,9,0262238339,81778.5015,84.0,0.0,354.0,357.0,상계중앙하이츠2차,104035.0,029308339,25,980904,19980905.0,14.0,795.0,25.0,62692.02,1703.0,52025430,521940,0,0,0,0,0,0,16818320,0,202401,서울특별시 노원구 상계동 1282-,37.654494616907,127.068103349446
1135010500,아파트,계단식,개별난방,위탁관리,분양,서울특별시 노원구 한글비석로46나길 10,230.0,조합,서울특별시 노원구 상계동 1270- 상계금호타운,2.0,금호건설,A13920501,2,029359775,19449.5464,0.0,0.0,0.0,230.0,상계금호타운,28843.64,029359774,14, ,19950519.0,9.0,230.0,14.0,19448.55,1652.0,15468125,0,0,70432,0,0,0,0,0,0,202401,서울특별시 노원구 상계동 1270-,37.6672535761471,127.068445400565
1135010500,아파트,혼합식,중앙난방,위탁관리,분양,서울특별시 노원구 한글비석로 396,1590.0,재개발조합,서울특별시 노원구 상계동 173-1 상계벽산,0.0,(주)벽산건설,A13920506,9,0262253213,118770.7,0.0,0.0,1205.0,385.0,상계벽산,118797.228,029395543,15, ,19890513.0,21.0,1590.0,15.0,88606.95,1663.0,74729410,0,195881540,306559,0,0,17846,6494,22509480,22729000,202401,서울특별시 노원구 상계동 173-1,37.6623030184626,127.073581746977
1135010500,아파트,계단식,개별난방,자치관리,분양,서울특별시 노원구 동일로216길 47,840.0,대한주택공사,서울특별시 노원구 상계동 721- 상계주공5단지,0.0,대한주택공사,A13920703,19,029313636,26863.2,0.0,0.0,840.0,0.0,상계주공5단지,31350.0,029311005,5, ,19871117.0,0.0,840.0,5.0,26863.2,1753.0,642800,571860,0,0,0,0,0,0,2000000,0,202401,서울특별시 노원구 상계동 721-,37.6529887282798,127.063558586941
1135010500,아파트,복도식,지역난방,위탁관리,분양,서울특별시 노원구 동일로 1362,2136.0,대한주택공사,서울특별시 노원구 상계동 749-5 상계주공4단지,1.0,대한주택공사,A13920706,17,029524034,154389.4,0.0,0.0,1706.0,430.0,상계주공4단지,154389.0,029317772,25, ,19880513.0,26.0,2136.0,25.0,112119.7,1756.0,96610355,0,227097253,435300,0,124114,0,10624,16214640,0,202401,서울특별시 노원구 상계동 749-5,37.6502520069594,127.062180018954
1135010500,아파트,복도식,지역난방,위탁관리,분양,서울특별시 노원구 노해로 508,2646.0,대한주택공사,서울특별시 노원구 상계동 720- 상계주공6단지,0.0,대한주택공사,A13920707,28,029346300,194620.16,0.0,0.0,2646.0,0.0,상계주공6단지,203067.0,029317399,15, ,19880513.0,32.0,2646.0,15.0,141670.02,1752.0,114610374,0,247911400,549045,0,91548,0,14348,3812980,57392000,202401,서울특별시 노원구 상계동 720-,37.6547035620655,127.066190974274
1135010500,아파트,복도식,지역난방,위탁관리,임대,서울특별시 노원구 동일로227길 26,2100.0,sh공사,서울특별시 노원구 상계동 624- 상계주공15단지,0.0,sh공사,A13920802,12,029370508,137141.7,0.0,0.0,2100.0,0.0,상계주공15단지,137241.0,029335056,15,sg15.aptner.com,19880727.0,24.0,2100.0,15.0,97098.0,1617.0,65073270,0,161144860,355485,0,85806,15068,12804,24179790,55569360,202401,서울특별시 노원구 상계동 624-,37.6701880464645,127.054677638301
1135010500,아파트,복도식,지역난방,위탁관리,분양,서울특별시 노원구 동일로227길 86,2392.0,주택공사,서울특별시 노원구 상계동 624- 상계주공16단지,0.0,주택공사,A13920803,18,029322422,188671.12,0.0,0.0,2152.0,240.0,상계주공16단지,190601.7,029341624,15, ,19880923.0,32.0,2392.0,15.0,136491.92,1618.0,104667210,0,216322920,537032,0,94312,0,12459,17600000,56065500,202401,서울특별시 노원구 상계동 624-,37.6704100337173,127.052730034287
1135010500,아파트,혼합식,지역난방,위탁관리,분양,서울특별시 노원구 노원로 564,2654.0,대한주택공사,서울특별시 노원구 상계동 666- 상계주공10단지,0.0,대한주택공사,A13920804,27,029304496,197207.526,0.0,0.0,2198.0,456.0,상계주공10단지,197224.43,029352794,15,openapt.seoul.go.kr,19880907.0,28.0,2654.0,15.0,144932.92,1675.0,129441484,0,265302378,562526,0,69619,0,9843,10109900,46262100,202401,서울특별시 노원구 상계동 666-,37.6616521070339,127.05612466376
1135010500,아파트,복도식,지역난방,위탁관리,분양,서울특별시 노원구 노원로 532,2830.0,한국주택공사,서울특별시 노원구 상계동 670- 상계주공9단지,0.0,대힌주택공사,A13921005,23,029378055,217993.5,0.0,0.0,1990.0,840.0,상계주공9단지,217993.5,029340147,15,sangju9.apti.co.kr/,19881024.0,37.0,2830.0,15.0,156453.5,1676.0,128118556,0,268482450,618676,0,107132,0,40544,1072800,95259800,202401,서울특별시 노원구 상계동 670-,37.6646207331385,127.059824240304
1135010600,아파트,혼합식,개별난방,위탁관리,분양,서울특별시 노원구 덕릉로86길 70,180.0,SH공사,서울특별시 노원구 중계동 582- 중계청암3단지,2.0,요진건설,A13922001,5,029369695,19333.8,0.0,0.0,0.0,180.0,중계청암3단지,25133.35,029331656,10, ,20030915.0,5.0,180.0,10.0,15226.181,1717.0,13095540,0,0,53264,0,0,3399,0,4105090,0,202401,서울특별시 노원구 중계동 582-,37.6599355943851,127.078347390828
1135010600,아파트,혼합식,개별난방,위탁관리,분양,서울특별시 노원구 중계로14가길 5,192.0,진로직장주택조합,서울특별시 노원구 중계동 78- 중계진로유통조합아파트(중계진로대림아파트),0.0,대림건설,A13922002,1,0263151177,19467.33,0.0,0.0,41.0,151.0,중계진로유통조합아파트(중계진로대림아파트),19467.33,029521177,13, ,19920612.0,7.0,192.0,13.0,15247.23,1725.0,2198900,0,0,9081,0,0,0,0,0,0,202401,서울특별시 노원구 중계동 78-,37.648760038613,127.081988578083
1135010600,아파트,계단식,개별난방,위탁관리,혼합,서울특별시 노원구 덕릉로83길 9-7,283.0,제일주택재건축정비사업조합,서울특별시 노원구 중계동 156-29 중계한화꿈에그린더퍼스트,2.0,한화건설(주),A13922003,4,029363166,33548.541,100.0,0.0,45.0,138.0,중계한화꿈에그린더퍼스트,48898.309,029393166,26, ,20140828.0,6.0,283.0,26.0,26528.452,1662.0,30820990,0,0,103645,0,0,5439,0,6298880,0,202401,서울특별시 노원구 중계동 156-29,37.6591958303795,127.073828120968
1135010600,아파트,혼합식,개별난방,자치관리,분양,서울특별시 노원구 덕릉로 595,250.0,신안,서울특별시 노원구 중계동 590- 중계신안,2.0,신안건설,A13922102,2,0263180630,25170.2468,0.0,0.0,106.0,144.0,중계신안,32078.0,029326789,23, ,19990615.0,6.0,250.0,23.0,18586.74,1708.0,17268679,0,0,76104,0,0,5077,0,5662950,0,202401,서울특별시 노원구 중계동 590-,37.6512013977172,127.071516781117
1135010600,아파트,혼합식,개별난방,위탁관리,분양,서울특별시 노원구 덕릉로77길 5,259.0,벽산건설,서울특별시 노원구 중계동 592- 중계3벽산,2.0,벽산건설,A13922103,3,029514608,26581.997,53.0,0.0,111.0,95.0,중계3벽산,34626.525,029514605,19, ,19990921.0,6.0,259.0,19.0,20809.79,1707.0,17600580,0,0,78247,0,0,4929,0,5736260,0,202401,서울특별시 노원구 중계동 592-,37.6546324630094,127.07351400224
1135010600,아파트,복도식,지역난방,위탁관리,임대,서울특별시 노원구 덕릉로77길 27,331.0,SH공사,서울특별시 노원구 중계동 588-1 중계양지대림2-2임대,1.0,대림건설,A13922105,1,029328857,16060.12,0.0,0.0,331.0,0.0,중계양지대림2-2임대,16063.0,029328856,25,http://happy.i-sh.co.kr/cms/main.do,19990318.0,3.0,331.0,25.0,9820.77,1706.0,8705695,10180,26935360,0,0,0,0,0,2776330,0,202401,서울특별시 노원구 중계동 588-1,37.6547237482818,127.072761961906
1135010600,아파트,계단식,지역난방,위탁관리,분양,서울특별시 노원구 덕릉로71길 30,508.0,대림산업,서울특별시 노원구 중계동 587- 중계양지대림1차,3.0,대림산업,A13922108,5,029525493,60613.44,176.0,0.0,24.0,308.0,중계양지대림1차,70710.0,0262215493,23, ,19981201.0,14.0,508.0,23.0,47819.28,1709.0,44551838,0,104867130,152730,0,578076,6117,4363,12262860,0,202401,서울특별시 노원구 중계동 587-,37.6508593038502,127.069694753378
1135010600,아파트,혼합식,지역난방,위탁관리,분양,서울특별시 노원구 덕릉로73길 28,652.0,중계제1 재개발조합,서울특별시 노원구 중계동 588- 중계양지대림2차,3.0,대림산업,A13922110,8,0262272597,72103.76,184.0,0.0,186.0,282.0,중계양지대림2차,92226.18,029522597,25, ,19990211.0,14.0,652.0,25.0,56108.68,1706.0,53423210,0,103791180,190685,0,722232,7721,5388,15309040,16164000,202401,서울특별시 노원구 중계동 588-,37.6524755833309,127.071935248871
1135010600,아파트,복도식,지역난방,위탁관리,분양,서울특별시 노원구 한글비석로5길 62,696.0,한양,서울특별시 노원구 중계동 362-1 중계주공8단지,0.0,대한주택공사,A13922111,6,029394572,49224.48,0.0,0.0,696.0,0.0,중계주공8단지,49235.0,029383840,15, ,19930331.0,12.0,696.0,15.0,34605.12,1745.0,6791540,0,59114870,0,0,16428,6030,3638,2142215,20009000,202401,서울특별시 노원구 중계동 362-1,37.6463716122596,127.074959755087
1135010600,아파트,혼합식,지역난방,위탁관리,분양,서울특별시 노원구 중계로 230,2328.0,대한주택공사,서울특별시 노원구 중계동 359-1 중계주공5단지,0.0,대한주택공사,A13922114,18,029389126,174604.8,0.0,0.0,1608.0,720.0,중계주공5단지,174604.8,029521734,15, ,19920429.0,42.0,2328.0,15.0,134975.28,1713.0,104271642,0,269677102,515127,0,97368,0,11832,12948930,86239600,202401,서울특별시 노원구 중계동 359-1,37.6510358515074,127.075054984295
1135010600,아파트,혼합식,지역난방,위탁관리,분양,서울특별시 노원구 덕릉로76길 29,690.0,대한주택공사,서울특별시 노원구 중계동 358-2 중계주공4단지,0.0,대한주택공사,A13922406,5,029527405,57575.1,0.0,0.0,450.0,240.0,중계주공4단지,58604.69,029340876,15, ,19910914.0,14.0,690.0,15.0,43629.9,1712.0,35329219,0,83626920,167119,0,29892,0,3795,3750530,0,202401,서울특별시 노원구 중계동 358-2,37.6558199303153,127.076114066791
1135010600,아파트,계단식,개별난방,위탁관리,분양,서울특별시 노원구 중계로8길 106,211.0,현대건설,서울특별시 노원구 중계동 577- 중계현대1차,0.0,현대건설,A13922901,3,0263142366,22997.71,0.0,0.0,0.0,211.0,중계현대1차,23324.0,029388357,9, ,19931125.0,12.0,211.0,9.0,16576.58,1723.0,13818440,0,0,58618,0,0,0,0,45980,0,202401,서울특별시 노원구 중계동 577-,37.6486533511859,127.084808068228
1135010600,아파트,계단식,중앙난방,위탁관리,분양,서울특별시 노원구 한글비석로8길 20,400.0,"대림산업(주),벽산건설(주)",서울특별시 노원구 중계동 363- 중계대림벽산,1.0,"대림산업(주),벽산건설(주)",A13922903,6,029371185,60739.88,220.0,180.0,0.0,0.0,중계대림벽산,70676.0,029308598,15, ,19930630.0,14.0,400.0,15.0,50626.8,1738.0,39040471,0,108105750,144689,0,0,8848,3021,10424450,0,202401,서울특별시 노원구 중계동 363-,37.6478390813696,127.078368336517
1135010600,아파트,혼합식,개별난방,위탁관리,분양,서울특별시 노원구 중계로 140,424.0,한일은행 중계동 연합조합,서울특별시 노원구 중계동 583- 중계금호,2.0,금호,A13922904,3,029514759,45117.568,0.0,0.0,224.0,200.0,중계금호,46268.0,029514754,15, ,19970120.0,10.0,424.0,15.0,30332.83,1725.0,28482674,0,0,114146,0,0,0,0,190350,0,202401,서울특별시 노원구 중계동 583-,37.6476090609458,127.080771917358
1135010600,아파트,계단식,개별난방,위탁관리,분양,서울특별시 노원구 중계로8길 29,448.0,한화건설,서울특별시 노원구 중계동 598- 중계한화꿈에그린,2.0,한화건설,A13922905,8,029377977,38194.977,22.0,0.0,29.0,397.0,중계한화꿈에그린,63237.0,029377600,15, ,20050303.0,17.0,448.0,15.0,38194.977,1727.0,37677776,0,0,147733,0,0,9429,0,11985350,0,202401,서울특별시 노원구 중계동 598-,37.6480096921552,127.083285760903
1135010600,아파트,계단식,개별난방,위탁관리,분양,서울특별시 노원구 중계로 195,468.0,"동진건설, 신안건설",서울특별시 노원구 중계동 364- 동진신안,1.0,"동진건설, 신안건설",A13922907,7,0263191777,67027.44,468.0,0.0,0.0,0.0,동진신안,77735.0,029521777,15, ,19930515.0,16.0,468.0,15.0,55591.32,1735.0,39230020,0,0,199234,0,0,598,0,563500,0,202401,서울특별시 노원구 중계동 364-,37.6495870762085,127.078912843722
1135010600,아파트,혼합식,개별난방,위탁관리,분양,서울특별시 노원구 중계로14나길 25,478.0,삼성중공업,서울특별시 노원구 중계동 593- 중계삼성,2.0,삼성중공업,A13922908,7,029340137,50757.0208,117.0,0.0,201.0,160.0,중계삼성,68644.62,029340131,18, ,19991030.0,12.0,478.0,18.0,38998.47,1723.0,32297840,0,0,186358,0,0,9169,0,10423150,0,202401,서울특별시 노원구 중계동 593-,37.6485870640359,127.084143743208
1135010600,아파트,복도식,중앙난방,위탁관리,분양,서울특별시 노원구 한글비석로8길 41,600.0,대한주택공사,서울특별시 노원구 중계동 364-12 중계주공6단지,0.0,대한주택공사,A13922909,4,029311303,36246.0,0.0,0.0,600.0,0.0,중계주공6단지,36246.6,029301303,15, ,19930331.0,8.0,600.0,15.0,26460.0,1737.0,5010220,0,69471050,0,0,0,0,0,1045220,0,202401,서울특별시 노원구 중계동 364-12,37.6486635394573,127.077598436703
1135010600,아파트,복도식,개별난방,위탁관리,분양,서울특별시 노원구 한글비석로8길 42,630.0,한양공영(주),서울특별시 노원구 중계동 363-1 중계주공7단지,1.0,한국주택공사,A13922910,5,029301579,27783.0,0.0,0.0,630.0,0.0,중계주공7단지,38052.0,029301580,15, ,19930331.0,10.0,630.0,15.0,27783.0,1739.0,4732220,0,0,0,0,0,0,0,349975,0,202401,서울특별시 노원구 중계동 363-1,37.6470236217808,127.07994920383
1135010400,연립주택,계단식,개별난방,위탁관리,분양,서울특별시 노원구 노원로15길 51-10,160.0,한신공영(주),서울특별시 노원구 하계동 285- 중계한신코아,0.0,한신공영(주),A13923001,12,029749390,21131.248,120.0,0.0,0.0,40.0,중계한신코아,28697.03,029749388,4, ,19940319.0,0.0,160.0,4.0,17210.64,1790.0,0,0,0,0,0,0,0,0,0,0,202401,서울특별시 노원구 하계동 285-,37.6397314133879,127.070034003992
1135010400,아파트,혼합식,개별난방,위탁관리,분양,서울특별시 노원구 공릉로58길 176,288.0,우방,서울특별시 노원구 하계동 353- 하계우방,2.0,우방,A13923102,2,029484956,28432.07,26.0,0.0,135.0,127.0,하계우방,36941.0,029762510,17,없음,19991227.0,7.0,288.0,17.0,21131.28,1808.0,17679000,0,0,78638,0,0,9403,0,11326670,0,202401,서울특별시 노원구 하계동 353-,37.6376987099634,127.076963099753
1135010400,아파트,계단식,지역난방,위탁관리,분양,서울특별시 노원구 공릉로 351,660.0,(주)청구주택,서울특별시 노원구 하계동 284- 하계청구,0.0,(주)청구주택,A13923103,5,0262219961,62776.428,0.0,0.0,0.0,660.0,하계청구,62776.428,029759961,15, ,19881029.0,22.0,660.0,15.0,51796.2,1784.0,44347278,0,76811410,203495,0,28183,0,4286,968507,21001400,202401,서울특별시 노원구 하계동 284-,37.6381251181875,127.06790995973
1135010400,아파트,혼합식,지역난방,자치관리,분양,서울특별시 노원구 공릉로59길 28,685.0,라이프주택,서울특별시 노원구 하계동 280- 하계미성,0.0,라이프주택,A13923104,6,029791202,66773.512,90.0,0.0,120.0,475.0,하계미성,66773.512,029747414,15, ,19890621.0,21.0,685.0,15.0,54955.98,1829.0,42684057,0,105649180,226679,0,29804,12978,4999,13678890,0,202401,서울특별시 노원구 하계동 280-,37.6342325628683,127.06966018842
1135010400,아파트,혼합식,지역난방,위탁관리,분양,서울특별시 노원구 노원로18길 19,730.0,현대산업개발,서울특별시 노원구 하계동 288- 하계2차현대아파트,0.0,현대산업개발,A13923106,12,029789654,76785.26,0.0,0.0,0.0,730.0,하계2차현대아파트,96388.089,029740780,15, ,19970731.0,25.0,730.0,15.0,60228.364,1747.0,49217065,0,112414368,219444,0,650065,8818,6138,11327595,21483000,202401,서울특별시 노원구 하계동 288-,37.6446123831858,127.071720310763
1135010400,아파트,혼합식,중앙난방,위탁관리,분양,서울특별시 노원구 공릉로59길 25,1192.0,율산개발유한회사,서울특별시 노원구 하계동 274- 하계청솔,0.0,한일개발,A13923108,8,029760682,82881.63,0.0,0.0,1192.0,0.0,하계청솔,82883.34,029713132,15,www.chungsolapt.co.kr/,19891030.0,16.0,1192.0,15.0,58074.3,1831.0,41532307,0,92698770,293060,0,0,0,5630,1750800,15996260,202401,서울특별시 노원구 하계동 274-,37.6323091632046,127.071724912179
1135010300,아파트,혼합식,개별난방,위탁관리,분양,서울특별시 노원구 공릉로46길 19,562.0,(주)한보,서울특별시 노원구 공릉동 743- 공릉한보아파트,2.0,(주)한보,A13924003,7,0262277956,58102.83,72.0,0.0,232.0,257.0,공릉한보아파트,69728.42,029757956,20,공릉한보.apti.co.kr,20001020.0,0.0,561.0,20.0,43876.29,1813.0,34395782,0,0,157551,0,0,9717,0,10878800,0,202401,서울특별시 노원구 공릉동 743-,37.6279055006749,127.080130818232
1135010300,아파트,혼합식,개별난방,위탁관리,분양,서울특별시 노원구 공릉로46길 32,845.0,한도연립재건축주택조합,서울특별시 노원구 공릉동 737- 삼익포레스트아파트,1.0,삼익건설,A13924004,8,029766232,86450.69,204.0,0.0,341.0,300.0,삼익포레스트아파트,104527.08,029766231,15,공릉동삼익.apti.co.kr,19950930.0,23.0,845.0,15.0,66216.3,1816.0,47409900,0,0,282945,0,0,14786,0,17813200,0,202401,서울특별시 노원구 공릉동 737-,37.6263561038742,127.082183727929
1135010300,아파트,혼합식,개별난방,위탁관리,분양,서울특별시 노원구 공릉로 206,295.0,(주)동부건설,서울특별시 노원구 공릉동 705- 공릉동부,1.0,(주)동부건설,A13924205,4,0262295633,30022.95,60.0,0.0,105.0,130.0,공릉동부,33514.28,029715348,15, ,19960412.0,8.0,295.0,15.0,24103.6,1814.0,17540780,404620,0,80232,0,0,5344,0,5651740,0,202401,서울특별시 노원구 공릉동 705-,37.6284269324091,127.077932311009
1135010500,아파트,복도식,지역난방,위탁관리,분양,서울특별시 노원구 덕릉로 459-18,600.0,한보,서울특별시 노원구 상계동 766-1 상계미도,0.0,한보,A13971501,3,0262230864,73386.0,600.0,0.0,0.0,0.0,상계미도,76110.0,029320864,15, ,19880412.0,6.0,600.0,15.0,52542.0,1769.0,49918887,0,18705130,184892,0,744,10171,295,13034160,1622500,202401,서울특별시 노원구 상계동 766-1,37.6469786593648,127.06146433043
1135010500,아파트,복도식,지역난방,위탁관리,분양,서울특별시 노원구 동일로 1389,2213.0,한국주택공사,서울특별시 노원구 상계동 730-2 상계주공3단지,0.0,한국주택공사,A13971502,26,029515387,186783.89,0.0,0.0,1298.0,915.0,상계주공3단지,186785.0,029311003,15,없음,19871121.0,28.0,2213.0,15.0,139655.04,1762.0,106852993,0,253266160,542401,0,102583,18433,9672,22716724,33852000,202401,서울특별시 노원구 상계동 730-2,37.6525616586009,127.060656763286
1135010600,아파트,계단식,지역난방,위탁관리,분양,서울특별시 노원구 덕릉로 517,742.0,(주)건영,서울특별시 노원구 중계동 515-2 중계건영2차,0.0,(주)건영,A13972601,6,029752830,73398.42,0.0,0.0,0.0,742.0,중계건영2차,73398.42,029712421,15,jkky2.com,19910110.0,25.0,742.0,15.0,59243.24,1760.0,47214470,0,90027817,221611,0,26366,0,4878,882833,20975400,202401,서울특별시 노원구 중계동 515-2,37.64672872926,127.066445306726
1135010600,아파트,복도식,개별난방,위탁관리,분양,서울특별시 노원구 공릉로 430,219.0,봄내건설,서울특별시 노원구 중계동 514- 중계중앙하이츠아쿠아,1.0,중앙건설,A13972602,4,029729442,25595.26,0.0,0.0,0.0,219.0,중계중앙하이츠아쿠아,35655.11,029729441,10, ,20080620.0,8.0,219.0,10.0,18518.585,1785.0,19123205,0,0,79520,0,0,4390,0,5470710,0,202401,서울특별시 노원구 중계동 514-,37.6452940338536,127.067972574091
1135010600,아파트,복도식,지역난방,위탁관리,임대,서울특별시 노원구 노원로19길 31,1979.0,SH공사,서울특별시 노원구 중계동 511-2 중계4단지목화,0.0,"벽산건설,남광토건",A13972603,14,029776694,121776.035,0.0,0.0,1979.0,0.0,중계4단지목화,226393.8,029489597,15, ,19911115.0,28.0,1979.0,15.0,83102.88,1787.0,5207080,0,256527980,0,0,65648,0,8040,7280500,35376000,202401,서울특별시 노원구 중계동 511-2,37.6434880061432,127.068759543553
1135010500,아파트,계단식,개별난방,위탁관리,분양,서울특별시 노원구 상계로7길 18,137.0,한국냉장조합 외 4곳,서울특별시 노원구 상계동 1251- 노원우성,1.0,우성건설,A13973201,2,029512933,15827.16,0.0,0.0,0.0,137.0,노원우성,16698.82,029522463,15, ,19920716.0,5.0,137.0,15.0,11613.86,1691.0,0,0,0,0,0,0,0,0,0,0,202401,서울특별시 노원구 상계동 1251-,37.6581743611345,127.064828099948
1135010500,아파트,계단식,개별난방,위탁관리,분양,서울특별시 노원구 상계로1길 82-14,114.0,비콘,서울특별시 노원구 상계동 1310- 비콘드림힐,,바콘,A13973202,1,029309101,11282.662,0.0,0.0,26.0,88.0,비콘드림힐,15738.107,029331389,15, ,20050530.0,4.0,114.0,15.0,9036.4,1693.0,0,0,0,0,0,0,0,0,0,0,202401,서울특별시 노원구 상계동 1310-,37.6591458137172,127.061779785722
1135010500,아파트,혼합식,지역난방,위탁관리,혼합,서울특별시 노원구 누원로 18,548.0,SH 공사,서울특별시 노원구 상계동 1313- 수락리버시티 4단지,2.0,한신공영,A13974101,7,029303368,63327.53,0.0,0.0,336.0,212.0,수락리버시티 4단지,63328.01,029301117,15, ,20091120.0,14.0,548.0,15.0,33286.36,1601.0,26114560,0,54225970,144799,0,16469,9238,2974,9312690,11231200,202401,서울특별시 노원구 상계동 1313-,37.6862145785044,127.05287273244
1135010500,주상복합,혼합식,지역난방,위탁관리,혼합,서울특별시 노원구 누원로 28,696.0,SH공사,서울특별시 노원구 상계동 1312- 수락리버시티3단지,1.0,한신공영,A13974102,11,029303365,60665.84,30.0,0.0,330.0,336.0,수락리버시티3단지,82532.49,029301116,15, ,20091120.0,19.0,696.0,15.0,46324.58,1600.0,36404381,0,68663957,190427,0,31260,12418,4044,12376860,19414230,202401,서울특별시 노원구 상계동 1312-,37.6874771708146,127.053554777755
1135010500,아파트,혼합식,지역난방,위탁관리,임대,서울특별시 노원구 동일로250길 17,900.0,서울주택도시공사,서울특별시 노원구 상계동 1264- 상계은빛3단지,0.0,한진건설,A13974103,9,029383530,54805.5,0.0,0.0,900.0,0.0,상계은빛3단지,54811.15,029383531,15,www.i-sh.co.kr,19980912.0,13.0,900.0,15.0,33169.5,1621.0,20701451,-12520,73745190,145915,5903,71562,10018,4290,8388390,-66500,202401,서울특별시 노원구 상계동 1264-,37.6824622661205,127.056770880957
1135010300,아파트,혼합식,개별난방,위탁관리,분양,서울특별시 노원구 동일로176길 39-12,145.0,고려산업개발,서울특별시 노원구 공릉동 590-1 공릉현대,2.0,고려산업개발,A13974401,1,0209444828,13741.547,0.0,0.0,60.0,85.0,공릉현대,17067.99,029774828,13, ,19990508.0,4.0,145.0,13.0,10558.92,1847.0,0,0,0,0,0,0,0,0,0,0,202401,서울특별시 노원구 공릉동 590-1,37.6209325373328,127.077088875853
1135010400,아파트,복도식,지역난방,위탁관리,임대,서울특별시 노원구 노원로16길 15,2694.0,한국토지주택공사,서울특별시 노원구 하계동 256- 중계주공9단지,0.0,한국토지주택공사,A13977913,12,029495519,112848.36,0.0,0.0,2634.0,0.0,중계주공9단지,119061.35,029495518,15,www.kohom.or.kr,19920928.0,34.0,2634.0,15.0,75220.38,1748.0,0,0,115355350,0,0,1269530,12106,11612,120030,34836000,202401,서울특별시 노원구 하계동 256-,37.6434450655049,127.073337208198
1135010300,아파트,계단식,지역난방,위탁관리,분양,서울특별시 노원구 노원로1가길 10,278.0,이수건설,서울특별시 노원구 공릉동 91- 청솔아파트8,3.0,"이수건설,대우엔지니어링",A13980004,6,029760290,43392.665,0.0,0.0,0.0,278.0,청솔아파트8,43625.1,02-975-0290,15, ,20001125.0,12.0,278.0,15.0,23553.04,1822.0,23409000,0,52035870,82485,0,20970,5536,2000,6762440,0,202401,서울특별시 노원구 공릉동 91-,37.6236504542283,127.085958412012
1135010300,아파트,계단식,지역난방,위탁관리,분양,서울특별시 노원구 노원로1길 21,297.0,도시개발공사,서울특별시 노원구 공릉동 90- 공릉청솔9단지,2.0,이수건설(주),A13980006,4,029733436,46992.833,0.0,0.0,0.0,297.0,공릉청솔9단지,47613.0,029733433,12, ,20001125.0,14.0,297.0,12.0,25220.99,1827.0,23395894,0,40879370,81947,0,16844,5376,2077,6354050,14746700,202401,서울특별시 노원구 공릉동 90-,37.6209312967361,127.084556592126
1135010300,아파트,계단식,개별난방,위탁관리,분양,서울특별시 노원구 노원로 29,432.0,"한국과학기술원직원,육사기간요원 주택조합",서울특별시 노원구 공릉동 254- 공릉태릉우성,0.0,"한국과학기술원직원,육사기간요원 주택조합",A13980009,9,029493072,41798.16,0.0,0.0,0.0,432.0,공릉태릉우성,43515.2,029493071,9, ,19851028.0,24.0,432.0,9.0,32797.44,1821.0,23511647,208770,0,139881,224,0,132,0,128440,0,202401,서울특별시 노원구 공릉동 254-,37.6247931739389,127.084337921314
1135010300,아파트,계단식,지역난방,위탁관리,분양,서울특별시 노원구 화랑로51길 17,436.0,도시개발공사,서울특별시 노원구 공릉동 111- 공릉화랑타운,1.0,두산건설,A13980010,11,029738078,57539.8,0.0,0.0,0.0,436.0,공릉화랑타운,58393.87,029774241,10, ,20000127.0,22.0,436.0,10.0,36910.1,1800.0,34629010,-12650,57229690,124069,5600,31127,9146,3619,9748360,21617290,202401,서울특별시 노원구 공릉동 111-,37.6230767984832,127.089350927229
1135010300,아파트,계단식,지역난방,위탁관리,분양,서울특별시 노원구 노원로 58,494.0,군인공제회,서울특별시 노원구 공릉동 108- 공릉우방4단지,2.0,우방건설,A13980012,5,0262274774,36970.416,0.0,0.0,0.0,494.0,공릉우방4단지,63731.809,029754774,15,없음,20000504.0,20.0,494.0,15.0,36970.416,1799.0,31176310,0,71317070,137645,0,601858,9392,3879,10762940,12780380,202401,서울특별시 노원구 공릉동 108-,37.6269205081549,127.088380286848
1135010300,아파트,계단식,지역난방,위탁관리,분양,서울특별시 노원구 노원로 62,564.0,(주)효성,서울특별시 노원구 공릉동 106- 공릉해링턴플레이스(구.효성화운트빌),0.0,(주)효성,A13980014,11,029496296,79466.682,564.0,0.0,0.0,0.0,공릉해링턴플레이스(구.효성화운트빌),98819.414,029496295,15, ,20001215.0,19.0,564.0,15.0,63702.558,1798.0,48576120,0,133062090,182348,0,33735,7625,4972,13834730,0,202401,서울특별시 노원구 공릉동 106-,37.6276978725766,127.087299923128
1135010300,아파트,복도식,지역난방,위탁관리,임대,서울특별시 노원구 화랑로51길 81,691.0,에스에이치공사,서울특별시 노원구 공릉동 110- 공릉2-6,0.0,두산건설(주),A13980017,4,029760659,40958.52,0.0,0.0,691.0,0.0,공릉2-6,41539.4,029760657,15,happy.i-sh.co.kr/main.do?deptid=20188,19990820.0,8.0,691.0,15.0,25173.09,1800.0,10090520,0,2639260,98400,0,57855,4925,2414,16219090,457500,202401,서울특별시 노원구 공릉동 110-,37.6250348426368,127.087400118828
1135010300,아파트,복도식,지역난방,위탁관리,분양,서울특별시 노원구 화랑로51길 78,700.0,서울시 도시개발공사,서울특별시 노원구 공릉동 109- 공릉비선,0.0,두산건설,A13980018,7,029494050,59086.765,0.0,0.0,700.0,0.0,공릉비선,60159.59,029494006,15, ,19990729.0,10.0,700.0,15.0,36443.48,1799.0,33747480,0,72561510,139223,0,79190,10766,3925,11105890,21705250,202401,서울특별시 노원구 공릉동 109-,37.6258183835065,127.087827761757
1135010300,아파트,혼합식,지역난방,위탁관리,분양,서울특별시 노원구 공릉로34길 62,1676.0,"삼환공사,현대공사",서울특별시 노원구 공릉동 81- 공릉태강,2.0,"삼환공사,현대공사",A13980019,21,0232960705,123090.12,0.0,0.0,1676.0,0.0,공릉태강,147851.27,029798050,15, ,19990723.0,28.0,1676.0,15.0,88107.16,1820.0,77005380,0,139653020,337548,0,84668,27822,10748,28391400,69283500,202401,서울특별시 노원구 공릉동 81-,37.6233646903823,127.082122210605
1135010300,아파트,복도식,개별난방,위탁관리,분양,서울특별시 노원구 동일로192나길 26,153.0,신원종합개발,서울특별시 노원구 공릉동 370-4 공릉신원,2.0,신원종합개발,A13980102,1,029716102,14765.382,0.0,0.0,81.0,72.0,공릉신원,18795.58,029716118,16, ,20000214.0,2.0,153.0,16.0,10946.07,1841.0,9402971,0,0,38781,0,0,2563,0,2900870,0,202401,서울특별시 노원구 공릉동 370-4,37.6277216023945,127.07507254252
1135010300,아파트,혼합식,개별난방,위탁관리,분양,서울특별시 노원구 동일로195길 39,190.0,"대원,한성,성심연립재건축조합",서울특별시 노원구 공릉동 380-1 공릉대동2차,2.0,대동건설,A13980105,2,029752053,21189.87,38.0,0.0,48.0,104.0,공릉대동2차,27349.3,029772054,19, ,19991023.0,5.0,190.0,19.0,15799.73,1853.0,13400430,0,0,55833,0,0,3431,0,3931520,0,202401,서울특별시 노원구 공릉동 380-1,37.6268025978855,127.069785679795
1135010300,아파트,계단식,개별난방,위탁관리,분양,서울특별시 노원구 동일로191가길 59,342.0,신도종합건설,서울특별시 노원구 공릉동 748- 공릉신도1차,2.0,신도종합건설,A13980107,4,029736088,40293.68,76.0,0.0,0.0,266.0,공릉신도1차,52362.9,0232966100,19, ,20020307.0,9.0,342.0,19.0,30436.0236,1853.0,42239310,0,0,109648,0,0,6836,0,14919280,0,202401,서울특별시 노원구 공릉동 748-,37.6276627857703,127.069605911337
1135010300,아파트,혼합식,개별난방,위탁관리,분양,서울특별시 노원구 동일로198길 24,363.0,우성,서울특별시 노원구 공릉동 738- 공릉우성,0.0,우성,A13980108,3,029744696,37555.05,63.0,0.0,161.0,139.0,공릉우성,46882.7,029717155,21,공릉우성.apti.co.kr,19951230.0,9.0,363.0,21.0,28253.69,1839.0,21339570,157650,0,101569,0,0,5889,0,7243820,0,202401,서울특별시 노원구 공릉동 738-,37.6286774433719,127.073087970324
1135010300,아파트,계단식,개별난방,위탁관리,분양,서울특별시 노원구 공릉로42길 13-14,198.0,공릉동 한일연립 재건축 조합,서울특별시 노원구 공릉동 756- 공릉신성미소지움,1.0,(주)신성건설,A13980401,2,029712225,21891.84,29.0,0.0,0.0,169.0,공릉신성미소지움,28345.325,029714223,18, ,20040618.0,7.0,198.0,18.0,17457.67,1818.0,14011107,0,0,59939,0,0,3824,0,4402940,0,202401,서울특별시 노원구 공릉동 756-,37.6251520163508,127.080761318123
1135010300,아파트,혼합식,개별난방,위탁관리,분양,서울특별시 노원구 공릉로51길 14-1,215.0,(주)건영,서울특별시 노원구 공릉동 744- 공릉건영장미,2.0,0,A13980402,2,0262283980,21224.5,0.0,0.0,91.0,124.0,공릉건영장미,28928.0,029793980,21, ,19990424.0,5.0,215.0,21.0,15973.29,1833.0,15104888,0,0,59882,0,0,4012,0,4242880,0,202401,서울특별시 노원구 공릉동 744-,37.6288918421459,127.075997215685
1135010300,아파트,혼합식,개별난방,위탁관리,분양,서울특별시 노원구 공릉로34길 118,237.0,삼익건설,서울특별시 노원구 공릉동 754- 공릉삼익2차,2.0,삼익건설,A13980403,2,029728181,20933.435,0.0,0.0,142.0,95.0,공릉삼익2차,31919.227,029722114,18, ,20040429.0,4.0,237.0,18.0,15586.966,1815.0,14835655,0,0,64220,0,0,3749,0,4438170,0,202401,서울특별시 노원구 공릉동 754-,37.6259669387939,127.080922038126
1135010300,아파트,계단식,지역난방,위탁관리,분양,서울특별시 노원구 화랑로 556,340.0,효성중공업,서울특별시 노원구 공릉동 742- 효성아파트,1.0,효성중공업,A13980407,13,0262277015,32415.26,0.0,0.0,0.0,340.0,효성아파트,39822.16,029797015,5, ,19950602.0,0.0,340.0,5.0,26832.8,1804.0,21499890,0,46836846,94342,0,34254,1897,2334,2295570,11585000,202401,서울특별시 노원구 공릉동 742-,37.6212874655188,127.087753447955
1135010300,아파트,혼합식,개별난방,위탁관리,분양,서울특별시 노원구 공릉로 213,452.0,대성연합건축조합(주)동신,서울특별시 노원구 공릉동 745- 공릉동신,2.0,대성연합건축조합(주)동신,A13980411,6,0262216214,47212.52,84.0,0.0,200.0,168.0,공릉동신,65229.9,029756214,24, ,19991224.0,9.0,452.0,24.0,35931.28,1833.0,29602410,0,0,129667,0,0,8240,0,9593730,0,202401,서울특별시 노원구 공릉동 745-,37.627880389159,127.077392286374
1135010300,아파트,혼합식,개별난방,위탁관리,분양,서울특별시 노원구 공릉로34길 45,196.0,완성연립조합,서울특별시 노원구 공릉동 746- 화랑해링턴플레이스,1.0,(주)효성건설,A13980413,3,029491440,21923.9631,45.0,0.0,45.0,106.0,화랑해링턴플레이스,28041.67,029497411,19, ,19991224.0,6.0,196.0,19.0,17381.4,1819.0,13510990,0,0,58425,0,0,3680,0,4221640,0,202401,서울특별시 노원구 공릉동 746-,37.6236611097554,127.081218702193
1135010300,아파트,계단식,개별난방,위탁관리,분양,서울특별시 노원구 공릉로 126,579.0,신일연립주택조합,서울특별시 노원구 공릉동 747- 공릉두산힐스빌,3.0,두산건설주식회사,A13980415,8,029774216,61121.17,111.0,0.0,202.0,266.0,공릉두산힐스빌,83950.9,029774215,24,공릉두산힐스빌.apti.co.kr,20001018.0,16.0,579.0,24.0,46869.66,1825.0,70162262,0,0,163593,0,0,10728,0,24259730,0,202401,서울특별시 노원구 공릉동 747-,37.6213122324645,127.079504363715
1135010300,아파트,복도식,지역난방,위탁관리,분양,서울특별시 노원구 동일로198가길 13,525.0,도시개발공사,서울특별시 노원구 공릉동 714- 공릉삼익4단지,1.0,도시개발공사,A13980509,4,029762262,37154.1,0.0,0.0,525.0,0.0,공릉삼익4단지,38318.0,029731254,15, ,19941207.0,7.0,525.0,15.0,26076.6,1838.0,5099250,0,51780910,0,0,16949,4298,1752,9309980,0,202401,서울특별시 노원구 공릉동 714-,37.6298024340719,127.07261882185
1135010300,아파트,복도식,지역난방,위탁관리,분양,서울특별시 노원구 동일로198가길 149,660.0,서울특별시 도시개발공사,서울특별시 노원구 공릉동 707- 공릉2단지라이프,1.0,서울특별시 도시개발공사,A13980510,4,029755225,39162.0,0.0,0.0,660.0,0.0,공릉2단지라이프,39162.0,029783998,15, ,19941207.0,9.0,660.0,15.0,27131.4,1850.0,4549790,0,50997550,0,0,20634,7129,2379,9833920,9159150,202401,서울특별시 노원구 공릉동 707-,37.6303911083845,127.067036390357
1135010300,아파트,복도식,지역난방,위탁관리,분양,서울특별시 노원구 섬밭로 123,840.0,도시공사,서울특별시 노원구 공릉동 715- 공릉3단지라이프,1.0,LH,A13980511,4,029734377,48521.7,0.0,0.0,840.0,0.0,공릉3단지라이프,48521.7,029711395,15, ,19941207.0,10.0,840.0,15.0,34175.7,1854.0,8786680,0,64094840,0,0,25707,7880,2264,9694670,19059600,202401,서울특별시 노원구 공릉동 715-,37.628054057801,127.068573811877
1135010300,아파트,복도식,지역난방,위탁관리,임대,서울특별시 노원구 동일로 1127,1395.0,sh공사,서울특별시 노원구 공릉동 708- 공릉1단지,0.0,삼익건설(주),A13980512,7,029784935,57799.05,0.0,0.0,1395.0,0.0,공릉1단지,60621.13,029748290,15,http://www.i-sh.co.kr/happy/intro.do,19941207.0,18.0,1395.0,15.0,37676.55,1851.0,0,0,33102840,0,0,66932,0,3608,90310,16236000,202401,서울특별시 노원구 공릉동 708-,37.6295747035271,127.069868704519
1135010300,아파트,계단식,개별난방,위탁관리,분양,서울특별시 노원구 섬밭로 139,1601.0,하계제1재개발조합,서울특별시 노원구 공릉동 725- 공릉풍림아이원,1.0,풍림산업,A13980513,14,029730983,121664.22,232.0,0.0,651.0,718.0,공릉풍림아이원,209911.0,029769788,20,다음:공릉풍림아이원카페,20010917.0,38.0,1601.0,20.0,121664.22,1850.0,90066331,0,0,436632,0,0,28093,0,33841840,0,202401,서울특별시 노원구 공릉동 725-,37.6302815782115,127.065702114261
1135010300,아파트,계단식,개별난방,위탁관리,분양,서울특별시 노원구 동일로183길 34,174.0,삼익연립재건축조합,서울특별시 노원구 공릉동 492-1 공릉대아2차,2.0,대아건설,A13980604,1, ,18107.3,30.0,0.0,57.0,87.0,공릉대아2차,23179.01,029752577,20, ,20000329.0,2.0,174.0,20.0,14227.92,1856.0,12308451,0,0,50530,0,0,3026,0,3502870,0,202401,서울특별시 노원구 공릉동 492-1,37.6233089216874,127.071308922935
1135010300,아파트,계단식,개별난방,위탁관리,분양,서울특별시 노원구 섬밭로 52,191.0,"동일,우성연립재건축주택조합",서울특별시 노원구 공릉동 751- 공릉대주파크빌,2.0,대주주택(주),A13980706,1,029710048,20685.143,0.0,0.0,0.0,191.0,공릉대주파크빌,27885.203,029710140,19,공릉대주피오레.homeapt.net/,20030120.0,6.0,191.0,19.0,15285.702,1859.0,12293370,0,0,74118,0,0,3445,0,4094180,0,202401,서울특별시 노원구 공릉동 751-,37.6213557475708,127.072073463595
1135010300,아파트,혼합식,개별난방,위탁관리,분양,서울특별시 노원구 동일로175길 38,152.0,(주)대동,서울특별시 노원구 공릉동 604-11 공릉대동1차,2.0,(주)대동,A13980801,1,029794221,14198.3439,0.0,0.0,73.0,79.0,공릉대동1차,19658.62,029794220,16, ,19990430.0,3.0,152.0,16.0,10852.54,1859.0,9456459,0,0,40057,0,0,2415,0,2728730,0,202401,서울특별시 노원구 공릉동 604-11,37.6198871655597,127.072469740169
1135010300,아파트,혼합식,개별난방,위탁관리,분양,서울특별시 노원구 섬밭로 17,158.0,평화외3개연립 재건축조합,서울특별시 노원구 공릉동 690-2 공릉1동삼익,2.0,삼익건설주식회사,A13980803,1,029787678,15906.2,21.0,0.0,78.0,59.0,공릉1동삼익,20891.84,029787677,21, ,19971028.0,0.0,158.0,21.0,11790.07,1855.0,9995953,0,0,40567,0,0,2357,0,2868020,0,202401,서울특별시 노원구 공릉동 690-2,37.6184300733718,127.072347128349
1135010500,아파트,혼합식,개별난방,위탁관리,분양,서울특별시 노원구 덕릉로127길 25,240.0,성림산업(주),서울특별시 노원구 상계동 1320- 불암산센트럴아파트,2.0,성림산업(주),A13980903,2,0233916216,23041.88,0.0,0.0,148.0,92.0,불암산센트럴아파트,23041.88,0233913217,20, ,20060608.0,5.0,240.0,20.0,16628.08,1634.0,15599840,0,0,61543,0,0,0,0,0,0,202401,서울특별시 노원구 상계동 1320-,37.6722436801599,127.081579029371
1135010500,아파트,복도식,개별난방,위탁관리,임대,서울특별시 노원구 덕릉로94가길 41,206.0,대림산업,서울특별시 노원구 상계동 1290- 상계불암대림제2,1.0,대림산업,A13981001,1,029395485,10891.22,0.0,0.0,206.0,0.0,상계불암대림제2,10894.9,029395484,17,happy.i-sh.co.kr,20000328.0,2.0,206.0,17.0,6798.0,1649.0,4865740,469080,0,0,0,0,0,0,1399550,0,202401,서울특별시 노원구 상계동 1290-,37.6640399154787,127.077678816788
1135010500,아파트,혼합식,개별난방,위탁관리,분양,서울특별시 노원구 덕릉로94길 21,634.0,상계7구역재개발조합,서울특별시 노원구 상계동 1289- 상계불암대림,2.0,대림산업,A13981006,6,0233920954,68392.302,156.0,0.0,232.0,246.0,상계불암대림,82790.36,0233920953,23, ,20000328.0,13.0,634.0,23.0,52549.56,1649.0,38529884,0,0,180148,0,0,10962,0,12973980,0,202401,서울특별시 노원구 상계동 1289-,37.6635572227358,127.076633910884
1135010500,아파트,복도식,개별난방,위탁관리,임대,서울특별시 노원구 덕릉로118길 27,472.0,현대산업개발,서울특별시 노원구 상계동 1294- 상계불암현대(임대),2.0,현대산업개발,A13981204,1,0233913394,18854.512,0.0,0.0,472.0,0.0,상계불암현대(임대),22651.752,0233913331,22,happy.i-sh.co.kr,19991210.0,4.0,472.0,22.0,12744.0,1646.0,6537150,0,0,67436,0,0,3140,0,1758280,0,202401,서울특별시 노원구 상계동 1294-,37.6681161841812,127.080423274337
1135010500,아파트,혼합식,개별난방,위탁관리,분양,서울특별시 노원구 덕릉로118길 29,826.0,현대산업개발(주),서울특별시 노원구 상계동 1293- 상계불암현대,4.0,현대산업개발(주),A13981208,5,029304373,86538.28,156.0,0.0,302.0,368.0,상계불암현대,108313.51,029302171,22, ,19991210.0,16.0,826.0,22.0,67005.42,1646.0,77403860,0,599600,228085,0,0,14621,0,31507830,0,202401,서울특별시 노원구 상계동 1293-,37.668198198662,127.081175515746
1135010500,아파트,혼합식,지역난방,위탁관리,분양,서울특별시 노원구 한글비석로46가길 16,420.0,한신공영,서울특별시 노원구 상계동 135- 상계한신1차,1.0,한신공영,A13981304,4,0264353266,32330.586,0.0,0.0,360.0,60.0,상계한신1차,33130.0,029363266,15,www.hanshin1.com,19870326.0,6.0,420.0,15.0,23754.0,1653.0,23297400,1578010,46173890,105921,2000,10704,0,2184,1714930,7425600,202401,서울특별시 노원구 상계동 135-,37.6658429810022,127.068944051263
1135010500,아파트,계단식,개별난방,위탁관리,분양,서울특별시 노원구 덕릉로112길 24,234.0,서울특별시도시개발공사,서울특별시 노원구 상계동 1275- 상계청암1단지,1.0,대림산업(주)외,A13981402,5,029514711,23457.33,0.0,0.0,0.0,234.0,상계청암1단지,34025.0,029514811,19, ,20010607.0,7.0,234.0,19.0,19843.2,1645.0,15114337,0,0,69207,0,0,3882,0,4541830,0,202401,서울특별시 노원구 상계동 1275-,37.6659561373976,127.080079674155
1135010500,아파트,복도식,중앙난방,위탁관리,분양,서울특별시 노원구 덕릉로94가길 20,602.0,도시개발공사,서울특별시 노원구 상계동 1276- 청암2단지,3.0,대림산업(주),A13981405,7,029514837,43084.512,0.0,0.0,602.0,0.0,청암2단지,60598.34,029514812,20,v2admin.aptner.com,20010607.0,8.0,602.0,20.0,32481.25,1650.0,27335350,807420,0,180063,0,0,8755,0,9310530,0,202401,서울특별시 노원구 상계동 1276-,37.6625064307881,127.078111067764
1135010500,아파트,혼합식,개별난방,위탁관리,분양,서울특별시 노원구 상계로 193-14,676.0,상계 4-2구역 재개발 조합,서울특별시 노원구 상계동 172- 상계조합대림,1.0,대림산업,A13981407,5,029381045,62685.0,0.0,0.0,405.0,270.0,상계조합대림,65051.638,029384599,15, ,19890814.0,13.0,675.0,15.0,47092.05,1661.0,33763342,0,0,177112,0,0,10933,0,12258880,0,202401,서울특별시 노원구 상계동 172-,37.6621630029486,127.074305253695
1135010500,아파트,계단식,개별난방,위탁관리,분양,서울특별시 노원구 상계로3길 50,259.0,축산기업새마을금고직장주택조합,서울특별시 노원구 상계동 359- 노원현대아파트,0.0,현대건설(주),A13981604,4,0263144643,30823.331,0.0,0.0,0.0,259.0,노원현대아파트,31977.63,029374643,18,https://nwhd.aptner.com/,19970120.0,10.0,259.0,18.0,21961.8,1693.0,19567650,0,0,76632,0,0,4469,0,5153730,0,202401,서울특별시 노원구 상계동 359-,37.6588765975941,127.063482008287
1135010500,아파트,계단식,개별난방,위탁관리,분양,서울특별시 노원구 상계로26길 20,358.0,대동주택(주),서울특별시 노원구 상계동 1284- 상계대동아파트,3.0,대동주택(주),A13981606,3,029311688,38134.19,89.0,0.0,145.0,124.0,상계대동아파트,51434.95,029311178,25, ,20010522.0,10.0,358.0,25.0,29446.36,1698.0,26154440,0,0,106373,0,0,6272,0,6833840,0,202401,서울특별시 노원구 상계동 1284-,37.6573019777892,127.070722084995
1135010500,아파트,계단식,개별난방,위탁관리,분양,서울특별시 노원구 상계로5길 12,448.0,동양,서울특별시 노원구 상계동 1305- 상계동양메이저,0.0,동양메이저건설(주),A13981608,7,029395916,47393.92,0.0,0.0,0.0,448.0,상계동양메이저,63731.47,029395919,22, ,20030830.0,0.0,448.0,22.0,38030.84,1692.0,32165960,0,0,137939,0,0,8305,0,9637600,0,202401,서울특별시 노원구 상계동 1305-,37.6573543256891,127.064264260882
1135010500,아파트,복도식,지역난방,위탁관리,분양,서울특별시 노원구 한글비석로54길 92,939.0,대한주택공사,서울특별시 노원구 상계동 637- 상계주공13단지,1.0,대한주택공사,A13981901,9,029526668,46750.14,0.0,0.0,939.0,0.0,상계주공13단지,64292.39,029372809,15,상계주공13단지.apti.co.kr,19890421.0,10.0,939.0,15.0,46750.14,1672.0,40776610,0,78946230,190139,0,30215,0,5744,1501725,22976000,202401,서울특별시 노원구 상계동 637-,37.6685852841955,127.061119667926
1135010500,아파트,혼합식,지역난방,위탁관리,분양,서울특별시 노원구 동일로228길 23,2265.0,주공,서울특별시 노원구 상계동 626- 상계주공14단지,0.0,주공,A13981903,26,029394977,161214.353,150.0,0.0,1875.0,240.0,상계주공14단지,163274.35,029394976,15, ,19890421.0,23.0,2265.0,15.0,120319.98,1669.0,92005620,0,213055200,491783,0,92923,0,12770,0,70235000,202401,서울특별시 노원구 상계동 626-,37.6698696701205,127.058738056584
1135010500,아파트,혼합식,개별난방,위탁관리,분양,서울특별시 노원구 한글비석로46가길 34,348.0,한신공영(주),서울특별시 노원구 상계동 458- 상계한신3차,0.0,한신공용(주),A13982002,5,0262230866,33044.604,0.0,0.0,0.0,348.0,상계한신3차,34010.0,029350866,15, ,19900528.0,10.0,348.0,15.0,26249.52,1654.0,23266280,193460,0,0,0,0,0,0,0,0,202401,서울특별시 노원구 상계동 458-,37.6668186482777,127.067550390937
1135010500,아파트,혼합식,지역난방,위탁관리,분양,서울특별시 노원구 한글비석로52길 66,385.0,(주)영수개발 직장주택조합외 6개 조합,서울특별시 노원구 상계동 463- 상계신동아,3.0,신동아건설(주),A13982003,3,029524876,30647.91,0.0,0.0,81.0,304.0,상계신동아,48906.05,029513051,15, ,19950602.0,12.0,385.0,15.0,30647.91,1651.0,25131360,0,52651980,114807,0,30148,4603,2595,5972590,12456000,202401,서울특별시 노원구 상계동 463-,37.667040321534,127.068121271671
1135010500,아파트,혼합식,지역난방,위탁관리,분양,서울특별시 노원구 한글비석로48길 6,471.0,한신 건설,서울특별시 노원구 상계동 451- 상계한신2차,1.0,한신 건설,A13982005,3,0262212309,38526.0,0.0,0.0,321.0,150.0,상계한신2차,40560.316,029392309,15, ,19880514.0,9.0,471.0,15.0,28983.12,1656.0,23885682,0,49107240,113952,0,12949,0,2456,282465,11543200,202401,서울특별시 노원구 상계동 451-,37.665212193322,127.067719058088
1135010500,아파트,혼합식,개별난방,위탁관리,분양,서울특별시 노원구 노원로34길 34,174.0,성원건설,서울특별시 노원구 상계동 1283- 상계성원,2.0,성원건설,A13982101,1,029302491,19289.74,34.0,0.0,76.0,64.0,상계성원,23884.92,029302471,20, ,19990819.0,4.0,174.0,20.0,13895.88,1679.0,10718280,0,0,0,0,0,0,0,3645690,0,202401,서울특별시 노원구 상계동 1283-,37.66033010225,127.065871725591
1135010500,아파트,계단식,개별난방,자치관리,분양,서울특별시 노원구 노원로30길 81,251.0,청솔연립1단지 재건축 조합,서울특별시 노원구 상계동 1299- 상계양우아파트,0.0,양우종합건설(주),A13982103,2,0220911607,30093.89,82.0,0.0,0.0,169.0,상계양우아파트,30093.89,029367775,25, ,20020716.0,6.0,251.0,25.0,21669.973,1697.0,17994500,0,0,78544,0,0,5427,0,5688150,0,202401,서울특별시 노원구 상계동 1299-,37.656684872484,127.071209258308
1135010500,아파트,복도식,지역난방,위탁관리,분양,서울특별시 노원구 한글비석로 530,1739.0,대한주택공사,서울특별시 노원구 상계동 647- 상계주공12단지,0.0,대한주택공사,A13982202,15,029330419,88064.98,0.0,0.0,1379.0,360.0,상계주공12단지,134728.04,029340418,15,-,19881019.0,27.0,1739.0,15.0,88220.08,1673.0,67307907,0,160526790,367523,0,68816,0,10368,1537790,45501560,202401,서울특별시 노원구 상계동 647-,37.6669329820293,127.059164856551
1135010500,아파트,복도식,지역난방,위탁관리,분양,서울특별시 노원구 동일로227길 25,1944.0,대한주택공사,서울특별시 노원구 상계동 652- 상계주공11단지,0.0,대한주택공사,A13982301,16,0262243335,113101.92,0.0,0.0,1272.0,672.0,상계주공11단지,157742.59,029353334,15, ,19880907.0,26.0,1944.0,15.0,113613.96,1619.0,100327629,0,193974430,456860,0,73181,0,12791,3469925,53722200,202401,서울특별시 노원구 상계동 652-,37.6668967573625,127.056039185663
1135010500,아파트,복도식,,위탁관리,분양,서울특별시 노원구 한글비석로 480,3315.0,군인공제회,서울특별시 노원구 상계동 639- 상계보람,0.0,군인공제회,A13982604,21,029324030,293093.595,0.0,0.0,1335.0,1980.0,상계보람,294982.66,029318796,15, ,19880629.0,42.0,3315.0,15.0,212709.75,1671.0,173151714,0,307587040,821172,0,99097,35711,19480,10556520,83374400,202401,서울특별시 노원구 상계동 639-,37.6667596586552,127.065752957789
1135010500,아파트,계단식,지역난방,위탁관리,분양,서울특별시 노원구 노원로 569,420.0,상계임광아파트,서울특별시 노원구 상계동 694- 상계임광아파트,0.0,임광,A13982701,4,029317549,56839.86,420.0,0.0,0.0,0.0,상계임광아파트,56839.86,029372502,15, ,19890501.0,14.0,420.0,15.0,48448.2,1687.0,38684040,0,67562390,152580,0,17790,7393,2524,9822950,11231800,202401,서울특별시 노원구 상계동 694-,37.6609665352836,127.057094734343
1135010500,아파트,계단식,지역난방,위탁관리,분양,서울특별시 노원구 동일로221길 22,538.0,대림산업주식회사,서울특별시 노원구 상계동 695- 상계마들대림,1.0,대림산업주식회사,A13982702,4,029523500,61181.36,538.0,0.0,0.0,0.0,상계마들대림,61183.28,029331084,15,www.daehan21c.co.kr,19880615.0,18.0,538.0,15.0,50270.72,1687.0,38560830,0,83771840,0,0,0,0,0,12168670,0,202401,서울특별시 노원구 상계동 695-,37.6599718955079,127.057375942195
1135010500,아파트,복도식,지역난방,위탁관리,분양,서울특별시 노원구 상계로1길 92,2634.0,대한주택공사,서울특별시 노원구 상계동 691- 상계주공7단지,0.0,라이프주택. 삼환. 장복건설,A13982704,21,029327970,187645.74,0.0,0.0,2394.0,240.0,상계주공7단지,190484.52,029333644,15,www.sanggye7.com,19880727.0,32.0,2634.0,15.0,135357.54,1691.0,105740056,0,237918340,508592,0,180122,0,14185,7821380,56740000,202401,서울특별시 노원구 상계동 691-,37.6599302425054,127.0620578719
1135010500,아파트,혼합식,지역난방,위탁관리,분양,서울특별시 노원구 동일로215길 23,2029.0,대한주택공사,서울특별시 노원구 상계동 740- 상계주공2단지,1.0,대한주택공사,A13983004,23,029352003,147760.15,0.0,0.0,1528.0,501.0,상계주공2단지,153686.0,029312002,15, ,19871121.0,21.0,2029.0,15.0,108644.92,1764.0,85918256,0,190389063,425284,0,92829,18366,12347,23969430,49388000,202401,서울특별시 노원구 상계동 740-,37.6504272951639,127.059109039116
1135010500,아파트,복도식,,위탁관리,임대,서울특별시 노원구 덕릉로70가길 101,170.0,에스에이치공사,서울특별시 노원구 상계동 771-3 상계마들,0.0,에스에이치공사,A13983101,3,029350775,9745.31,0.0,0.0,170.0,0.0,상계마들,9800.86,029354091,5, ,19881130.0,,170.0,5.0,5711.1,1772.0,2559850,2910,5980130,28556,0,6687,0,862,-32360,2086320,202401,서울특별시 노원구 상계동 771-3,37.6419755630047,127.057024451007
1135010500,아파트,혼합식,지역난방,위탁관리,분양,서울특별시 노원구 동일로213길 21,2064.0,대한주택공사,서울특별시 노원구 상계동 765- 상계주공1단지,1.0,대한주택공사,A13983105,24,029334866,150894.22,0.0,0.0,1618.0,446.0,상계주공1단지,150894.22,029316244,15, ,19880513.0,22.0,2064.0,15.0,112653.08,1766.0,90344895,0,182119670,560897,0,92465,0,11772,5063900,65570040,202401,서울특별시 노원구 상계동 765-,37.6477074025675,127.060010329586
1135010500,아파트,계단식,개별난방,위탁관리,분양,서울특별시 노원구 동일로230길 63,397.0,한신공영(주),서울특별시 노원구 상계동 995- 상계한신,1.0,조흥은행주택조합,A13983608,5,029307868,33681.48,0.0,0.0,0.0,397.0,상계한신,43147.0,029307426,15, ,19951017.0,16.0,397.0,15.0,33680.43,1628.0,25070812,0,0,144933,0,0,7816,0,9455890,0,202401,서울특별시 노원구 상계동 995-,37.6737368395994,127.058950013938
1135010500,아파트,계단식,개별난방,위탁관리,분양,서울특별시 노원구 동일로237길 41,331.0,제일제당과조합,서울특별시 노원구 상계동 1055- 상계현대1차,1.0,현대산업개발(주),A13983707,4,0233913583,35014.8681,0.0,0.0,0.0,331.0,상계현대1차,37638.99,029371949,15, ,19930408.0,13.0,331.0,15.0,27756.69,1613.0,19174670,0,0,93184,0,0,6311,0,7207140,0,202401,서울특별시 노원구 상계동 1055-,37.672750342271,127.052699611867
1135010500,아파트,계단식,개별난방,위탁관리,분양,서울특별시 노원구 동일로231길 86,465.0,현대산업개발(주),서울특별시 노원구 상계동 1078- 상계현대2차,0.0,현대산업개발(주),A13983709,4,029376109,50143.5,0.0,0.0,0.0,465.0,상계현대2차,50143.5,029513860,15, ,19931230.0,16.0,465.0,15.0,38082.32,1614.0,28861430,0,0,0,0,0,8966,0,10261220,0,202401,서울특별시 노원구 상계동 1078-,37.671735799494,127.049890428436
1135010500,아파트,계단식,지역난방,위탁관리,분양,서울특별시 노원구 수락산로 234,494.0,현대산업개발,서울특별시 노원구 상계동 1063- 상계3차현대아파트,0.0,현대산업개발,A13983712,6,0262241996,52166.4,0.0,0.0,0.0,494.0,상계3차현대아파트,52166.4,029321797,15, ,19990424.0,17.0,494.0,15.0,41970.54,1615.0,32817068,0,61756740,156667,0,20276,9726,3294,10508890,18117000,202401,서울특별시 노원구 상계동 1063-,37.6719288518576,127.052648476813
1135010500,아파트,혼합식,지역난방,위탁관리,분양,서울특별시 노원구 동일로241길 53,763.0,두산건설,서울특별시 노원구 상계동 1110- 두산아파트,1.0,두산건설,A13983713,11,029360772,67138.972,0.0,0.0,441.0,322.0,두산아파트,70005.29,029322972,15, ,19941015.0,17.0,763.0,15.0,49049.22,1606.0,4198150,-21420,102264134,0,0,23083,0,3472,1065770,2777600,202401,서울특별시 노원구 상계동 1110-,37.6780189926554,127.052913393102
1135010500,아파트,계단식,개별난방,위탁관리,분양,서울특별시 노원구 동일로242라길 27,165.0,대영연립재건축조합,서울특별시 노원구 상계동 1304- 대망드림힐,2.0,(주)대망종합건설,A13983801,1,0233911589,17894.0079,38.0,0.0,0.0,127.0,대망드림힐,22457.0,0233911589,18, ,20030627.0,1.0,165.0,18.0,13507.5094,1626.0,11914490,0,0,47768,0,0,5018,0,5851270,0,202401,서울특별시 노원구 상계동 1304-,37.6760024569375,127.058194246873
1135010500,아파트,혼합식,개별난방,위탁관리,분양,서울특별시 노원구 동일로239길 68,230.0,(주)삼호,서울특별시 노원구 상계동 1301- 상계대림e-편한세상,2.0,(주)삼호,A13983803,2,029343404,24490.625,37.0,0.0,80.0,113.0,상계대림e-편한세상,30127.93,029341489,19, ,20020719.0,5.0,230.0,19.0,18165.88,1610.0,16603070,90740,0,68045,0,0,4241,0,4850960,0,202401,서울특별시 노원구 상계동 1301-,37.6744941280381,127.050991354763
1135010500,아파트,계단식,지역난방,위탁관리,분양,서울특별시 노원구 동일로248길 16,468.0,SH공사,서울특별시 노원구 상계동 1269- 상계수락파크빌,2.0,SH공사,A13983810,7,029322369,61053.12,275.0,0.0,0.0,193.0,상계수락파크빌,82780.32,029522359,15, ,20010529.0,15.0,468.0,15.0,47920.11,1624.0,38284790,0,94589020,139020,0,55330,8634,3351,10625430,5361600,202401,서울특별시 노원구 상계동 1269-,37.6789969408616,127.056734118648
1135010500,아파트,계단식,지역난방,위탁관리,분양,서울특별시 노원구 동일로250길 18,492.0,"미주실업,동방티앤씨",서울특별시 노원구 상계동 1265- 수락산벨리체아파트,2.0,"미주실업,동방티앤씨",A13983811,12,0233913875,72486.792,492.0,0.0,0.0,0.0,수락산벨리체아파트,104648.0,0233913860,15, ,20000614.0,17.0,492.0,15.0,60504.6,1623.0,44349495,0,96943570,166752,0,43220,6235,3555,7187780,21330000,202401,서울특별시 노원구 상계동 1265-,37.6818424631869,127.056999292729
1135010500,아파트,혼합식,지역난방,위탁관리,분양,서울특별시 노원구 동일로245가길 41,1313.0,SH공사,서울특별시 노원구 상계동 1256- 상계은빛2단지,0.0,한신공영(주),A13983815,9,029393885,106883.75,0.0,0.0,1313.0,0.0,상계은빛2단지,108366.0,029513885,15, ,19981026.0,14.0,1313.0,15.0,68988.17,1604.0,57608993,2350,133666850,274775,0,74377,18284,6349,23326990,23491300,202401,서울특별시 노원구 상계동 1256-,37.6806663867465,127.053801434371
1135010500,아파트,혼합식,지역난방,위탁관리,분양,서울특별시 노원구 동일로245길 162,1391.0,서울도시개발공사,서울특별시 노원구 상계동 1255- 상계은빛1단지,1.0,(주)국제종합토건,A13983816,10,029359973,73269.35,0.0,0.0,1391.0,0.0,상계은빛1단지,118054.0,029359971,15, ,19981116.0,16.0,1391.0,15.0,73269.35,1603.0,63788830,0,146116590,301347,0,119191,20127,6844,23877390,27376000,202401,서울특별시 노원구 상계동 1255-,37.6808384621835,127.0542198702
1135010200,아파트,복도식,중앙난방,위탁관리,분양,서울특별시 노원구 마들로 127,910.0,(주)삼호,서울특별시 노원구 월계동 12- 월계삼호4차,0.0,(주)삼호,A13984003,7,029746986,66788.4,0.0,0.0,910.0,0.0,월계삼호4차,66788.4,029780313,14,apt.k-apt.go.kr,19870706.0,7.0,910.0,14.0,48270.6,1909.0,40536580,0,116167940,187220,0,0,0,3482,1791335,17410000,202401,서울특별시 노원구 월계동 12-,37.6267862606127,127.065271513405
1135010200,아파트,계단식,개별난방,위탁관리,분양,서울특별시 노원구 마들로 31,3003.0,00,서울특별시 노원구 월계동 18- 월계그랑빌,3.0,"한진중공업,한화건설",A13984004,25,029498894,346204.8924,524.0,328.0,725.0,1426.0,월계그랑빌,487925.6,029498800,28,wggv.gvapt.com,20021018.0,61.0,3003.0,28.0,269753.44,1913.0,193706620,0,0,907064,0,0,55826,0,67306310,0,202401,서울특별시 노원구 월계동 18-,37.6187253727752,127.067084588448
1135010200,아파트,복도식,지역난방,자치관리,분양,서울특별시 노원구 마들로 111,3930.0,서울시,서울특별시 노원구 월계동 13- 월계시영고층,0.0,미성.미륭.삼호,A13984005,32,029494482,278899.087,0.0,0.0,3930.0,0.0,월계시영고층,280427.0,029765993,14,www.wgka.or.kr,19860607.0,37.0,3930.0,14.0,201468.0,1909.0,168005875,0,363015364,820324,0,101194,55232,21444,68683570,96498000,202401,서울특별시 노원구 월계동 13-,37.6238343591525,127.064778103315
1135010200,아파트,복도식,지역난방,위탁관리,임대,서울특별시 노원구 월계로55길 16,775.0,SH공사,서울특별시 노원구 월계동 320-9 월계사슴2단지,1.0,(주)기산,A13984409,5,029788065,38710.7243,0.0,0.0,775.0,0.0,월계사슴2단지,39329.0,029788063,15, ,19950612.0,10.0,775.0,15.0,25861.86,1864.0,2589590,0,57077940,0,0,46183,0,2808,2606590,0,202401,서울특별시 노원구 월계동 320-9,37.6329639777027,127.060508959979
1135010200,아파트,복도식,지역난방,위탁관리,분양,서울특별시 노원구 월계로55길 15,884.0,sh공사,서울특별시 노원구 월계동 320-11 월계사슴3단지,1.0,(주)기산,A13984411,5,029497573,51241.71,0.0,0.0,884.0,0.0,월계사슴3단지,51241.71,029785356,15, ,19950612.0,10.0,884.0,15.0,35803.92,1865.0,6276540,0,80138820,0,0,35889,9342,3037,11139130,6074000,202401,서울특별시 노원구 월계동 320-11,37.6323964230017,127.059849039082
1135010200,아파트,혼합식,개별난방,자치관리,분양,서울특별시 노원구 광운로2나길 50,296.0,삼창주택,서울특별시 노원구 월계동 448-3 월계삼창,0.0,삼창주택,A13984603,3,0264364199,29121.248,80.0,0.0,168.0,48.0,월계삼창,29122.0,029124199,12, ,19841221.0,6.0,296.0,12.0,21325.04,1899.0,17572916,0,0,75673,0,0,9197,0,10610800,0,202401,서울특별시 노원구 월계동 448-3,37.6186918835086,127.060006370079
1135010200,아파트,복도식,개별난방,위탁관리,분양,서울특별시 노원구 광운로2나길 30,864.0,동신주택(주),서울특별시 노원구 월계동 436- 월계동신,0.0,동신주택(주),A13984604,7,029155187,79377.168,408.0,0.0,0.0,456.0,월계동신,81823.0,029152037,12,intm.co.kr/월계동신,19830430.0,9.0,864.0,12.0,71850.96,1900.0,42661910,0,0,205887,0,0,0,0,700000,0,202401,서울특별시 노원구 월계동 436-,37.6161515398139,127.060726394761
1135010200,아파트,복도식,중앙난방,위탁관리,임대,서울특별시 노원구 초안산로1길 51,2298.0,한국토지주택공사,서울특별시 노원구 월계동 556- 월계주공1단지,0.0,한국토지주택공사,A13984813,8,029978809,93537.03,0.0,0.0,2298.0,0.0,월계주공1단지,100682.0,029999402,15,www.kohom.co.kr,19921119.0,24.0,2298.0,15.0,64147.41,1881.0,13106240,0,153446471,68134,0,183238,0,6557,0,19671000,202401,서울특별시 노원구 월계동 556-,37.6272444506545,127.052765568541
1135010200,아파트,혼합식,개별난방,위탁관리,분양,서울특별시 노원구 초안산로1길 18,2002.0,주택공사,서울특별시 노원구 월계동 556- 월계주공2단지,1.0,주택공사,A13984814,16,029994998,100656.2604,0.0,0.0,1822.0,180.0,월계주공2단지,135018.0,029994097,15, ,19921030.0,29.0,2002.0,15.0,100306.5,1882.0,19734980,0,0,0,0,0,0,0,0,0,202401,서울특별시 노원구 월계동 556-,37.6291554160494,127.051603822219
1135010200,아파트,계단식,지역난방,자치관리,분양,서울특별시 노원구 초안산로5길 22,344.0,대우건설,서울특별시 노원구 월계동 775- 월계대우아파트,0.0,대우건설,A13985103,7,029040318,48948.864,344.0,0.0,0.0,0.0,월계대우아파트,63279.0,029040319,20, ,19980729.0,9.0,344.0,20.0,39869.4,1868.0,30794429,0,135033090,106554,0,45313,6266,2301,8620620,11274900,202401,서울특별시 노원구 월계동 775-,37.6331173218039,127.052013843042
1135010200,아파트,복도식,지역난방,위탁관리,분양,서울특별시 노원구 월계로45가길 89,458.0,SH공사,서울특별시 노원구 월계동 780- 월계청백3단지,1.0,태영,A13985105,4,029063544,36474.675,0.0,0.0,458.0,0.0,월계청백3단지,37135.51,029063554,15,cafe.daum.net/wgcb3,19980810.0,6.0,458.0,15.0,23201.31,1875.0,4927420,0,41667460,0,0,29206,6660,2155,7874850,10128500,202401,서울특별시 노원구 월계동 780-,37.6318138735535,127.050544595126
1135010200,아파트,복도식,지역난방,위탁관리,임대,서울특별시 노원구 초안산로 89,1147.0,성원건설,서울특별시 노원구 월계동 774- 월계청백1단지,1.0,SH공사,A13985106,8,029020088,69350.44,0.0,0.0,1147.0,0.0,월계청백1단지,71915.0,029020086,15, ,19980714.0,16.0,1147.0,15.0,42559.08,1869.0,7692550,0,83519880,0,0,73835,11434,4290,10090220,0,202401,서울특별시 노원구 월계동 774-,37.6358316688786,127.051926911669
1135010200,아파트,혼합식,지역난방,위탁관리,분양,서울특별시 노원구 월계로45가길 94,520.0,(주)태영건설,서울특별시 노원구 월계동 781- 월계청백4단지,1.0,서울특별시도시개발공사,A13985107,4,0262244688,49693.43,0.0,0.0,387.0,133.0,월계청백4단지,51070.0,0262244687,15,없음,19980810.0,10.0,520.0,15.0,31628.58,1876.0,5111930,0,1445760,0,0,37359,8559,3184,7472980,63314904,202401,서울특별시 노원구 월계동 781-,37.6318155292192,127.052326972987
1135010200,아파트,계단식,개별난방,위탁관리,분양,서울특별시 노원구 덕릉로60길 266,199.0,극동건설(주),서울특별시 노원구 월계동 803-1 월계극동,1.0,극동건설(주),A13985201,2,0262270497,20539.91,0.0,0.0,0.0,199.0,월계극동,21327.0,029020497,17,openapt.go.kr,19960809.0,8.0,199.0,17.0,16192.07,1873.0,12130361,0,0,64648,0,0,0,0,93460,0,202401,서울특별시 노원구 월계동 803-1,37.6295489650291,127.045940946278
1135010600,아파트,계단식,개별난방,위탁관리,분양,서울특별시 노원구 중계로8길 39,268.0,중랑지역 주택조합,서울특별시 노원구 중계동 49- 중계현대그린,0.0,현대산업개발,A13985402,3,0262233443,32097.8508,0.0,0.0,0.0,268.0,중계현대그린,32098.36,029353443,9, ,19981224.0,15.0,268.0,9.0,22777.32,1727.0,17690528,79610,0,83039,0,0,0,0,337680,0,202401,서울특별시 노원구 중계동 49-,37.6468125009299,127.083998288511
1135010600,아파트,혼합식,개별난방,위탁관리,분양,서울특별시 노원구 중계로8길 20,453.0,(주)현대건설,서울특별시 노원구 중계동 34- 중계현대6차,2.0,(주)현대건설,A13985406,5,0262236972,48436.119,76.0,0.0,185.0,192.0,중계현대6차,66423.0,029328244,19, ,20180627.0,11.0,453.0,19.0,36711.0,1728.0,32107097,0,0,127426,0,0,0,0,0,0,202401,서울특별시 노원구 중계동 34-,37.6453608485938,127.083218103465
1135010600,아파트,혼합식,개별난방,위탁관리,분양,서울특별시 노원구 덕릉로84길 7,499.0,한전주택조합외5개조합,서울특별시 노원구 중계동 161-1 중계중앙하이츠,1.0,중앙산업,A13985605,5,029388514,59180.936,0.0,0.0,53.0,446.0,중계중앙하이츠,62941.0,029326872,18,중계중앙하이츠.apti.co.kr/,19980616.0,17.0,499.0,18.0,40605.09,1715.0,11037410,0,0,27231,0,0,9499,0,10854990,0,202401,서울특별시 노원구 중계동 161-1,37.6599250195319,127.076753595407
1135010600,아파트,계단식,지역난방,위탁관리,분양,서울특별시 노원구 한글비석로15길 51,313.0,현대산업개발,서울특별시 노원구 중계동 435-1 중계현대2차(4동),0.0,현대산업개발(주),A13985904,3,029316017,25697.96,0.0,0.0,0.0,313.0,중계현대2차(4동),33705.0,029341068,15, ,19910202.0,11.0,313.0,15.0,25694.52,1700.0,19153140,0,40996370,93164,0,22065,3546,2360,4558530,10620000,202401,서울특별시 노원구 중계동 435-1,37.655569180671,127.074143426894
1135010600,아파트,혼합식,개별난방,위탁관리,분양,서울특별시 노원구 덕릉로79길 23,791.0,염광건설(주),서울특별시 노원구 중계동 445- 중계염광아파트,2.0,염광건설(주),A13985907,5,0263183491,87872.217,161.0,0.0,317.0,313.0,중계염광아파트,109964.354,029373491,26,intm.co.kr,19960618.0,17.0,791.0,26.0,66256.39,1701.0,53773142,0,0,232966,0,0,14783,0,16969040,0,202401,서울특별시 노원구 중계동 445-,37.6561110933603,127.072595026681
1135010600,아파트,복도식,지역난방,위탁관리,임대,서울특별시 노원구 덕릉로 662,1455.0,"선경건설(주),흥화건설(주)",서울특별시 노원구 중계동 358- 중계주공3단지,0.0,LH,A13985908,6,029383395,40477.91,0.0,0.0,1455.0,0.0,중계주공3단지,64137.2,029342456,15,www.kohom.or.kr,19910914.0,18.0,1455.0,15.0,38429.45,1711.0,22234680,0,56315360,233874,0,35312,4403,3742,775090,11226000,202401,서울특별시 노원구 중계동 358-,37.6563969498066,127.076623491267
1135010600,아파트,복도식,개별난방,위탁관리,분양,서울특별시 노원구 한글비석로14길 8,1800.0,LH공사,서울특별시 노원구 중계동 369- 중계주공2단지,1.0,LH공사,A13985909,10,0263150680,106571.88,0.0,0.0,1800.0,0.0,중계주공2단지,110267.21,029512425,15,www.jj2.co.kr/,19920626.0,20.0,1800.0,15.0,80136.0,1718.0,11364930,0,0,0,0,0,0,0,1178700,0,202401,서울특별시 노원구 중계동 369-,37.6574763373212,127.077434215909
1135010600,아파트,복도식,지역난방,위탁관리,분양,서울특별시 노원구 노원로22길 53,330.0,대한주택공사,서울특별시 노원구 중계동 360-16 중계주공10단지,0.0,(주)한주개발,A13986004,3,029313970,26109.6,0.0,0.0,330.0,0.0,중계주공10단지,26773.98,029323970,11, ,19950429.0,6.0,330.0,11.0,19186.2,1741.0,2756640,0,42895880,0,0,14034,4302,1996,7436070,0,202401,서울특별시 노원구 중계동 360-16,37.6478450563087,127.072986750115
1135010600,아파트,계단식,지역난방,자치관리,분양,서울특별시 노원구 노원로22길 34,568.0,"롯데건설,우성건설",서울특별시 노원구 중계동 361-1 롯데우성,2.0,"롯데건설,우성건설",A13986009,8,029522038,77758.56,568.0,0.0,0.0,0.0,롯데우성,93284.86,029392104,15, ,19930731.0,20.0,568.0,15.0,63862.08,1746.0,49869315,0,114969810,255294,0,47688,7721,5110,14070320,18226800,202401,서울특별시 노원구 중계동 361-1,37.6463693750751,127.072776926918
1135010600,아파트,계단식,개별난방,위탁관리,분양,서울특별시 노원구 중계로 233,780.0,청구건설+주민495명연합조합,서울특별시 노원구 중계동 360-2 중계청구3차,2.0,청구건설,A13986012,9,029308272,83623.8,0.0,0.0,0.0,780.0,중계청구3차,110118.438,029358046,15,www.intm.com,19960722.0,26.0,780.0,15.0,66120.6,1742.0,53159829,0,0,240024,0,0,0,0,0,0,202401,서울특별시 노원구 중계동 360-2,37.649899566756,127.075705410681
1135010600,아파트,계단식,중앙난방,위탁관리,분양,서울특별시 노원구 노원로22길 71,948.0,중계통합주택조합,서울특별시 노원구 중계동 360-15 중계건영3차,1.0,(주)건영,A13986013,12,029511481,101475.1524,0.0,0.0,0.0,948.0,중계건영3차,114433.0,029527562,15,openapt.seoul.co.kr,19951230.0,33.0,948.0,15.0,80485.2,1744.0,63973144,0,180154200,279322,0,0,0,7758,8689205,31807800,202401,서울특별시 노원구 중계동 360-15,37.6485594214008,127.075881614134
1135010600,아파트,계단식,중앙난방,자치관리,분양,서울특별시 노원구 중계로 184,960.0,(주)청구(주)라이프(주)신동아,서울특별시 노원구 중계동 366- 중계라이프신동아청구아파트,1.0,(주)청구(주)라이프(주)신동아,A13986111,17,029523161,131868.0,960.0,0.0,0.0,0.0,중계라이프신동아청구아파트,149833.22,029513236,15, ,19930810.0,33.0,960.0,15.0,109893.56,1721.0,104247952,0,85285600,0,0,0,0,0,3164850,49522000,202401,서울특별시 노원구 중계동 366-,37.6511079247726,127.079599122393
1135010600,아파트,혼합식,개별난방,위탁관리,분양,서울특별시 노원구 덕릉로 613,213.0,우성건설,서울특별시 노원구 중계동 585- 중계우성3차,2.0,우성건설,A13986201,2,029384522,20775.72,0.0,0.0,89.0,124.0,중계우성3차,25755.38,0262244522,24,cafe.daum.net/jw3apt,19990626.0,5.0,213.0,24.0,15826.14,1707.0,16660870,0,0,60605,0,0,4279,0,4981320,0,202401,서울특별시 노원구 중계동 585-,37.6521799757143,127.073100006389
1135010600,아파트,복도식,지역난방,위탁관리,임대,서울특별시 노원구 덕릉로73길 31,468.0,서울주택도시공사,서울특별시 노원구 중계동 587-1 중계양지대림1-2임대,2.0,대림산업,A13986207,2,029325266,26137.8,0.0,0.0,468.0,0.0,중계양지대림1-2임대,26470.95,029325265,23,happy.i-sh.co.kr/cms/main.do,19990204.0,5.0,468.0,23.0,14320.8,1708.0,10337650,0,38301600,0,0,0,3099,0,3462380,0,202401,서울특별시 노원구 중계동 587-1,37.6522890148804,127.071151120162
1135010600,아파트,혼합식,지역난방,위탁관리,분양,서울특별시 노원구 섬밭로 265,1890.0,"경남,롯데,상아건설",서울특별시 노원구 중계동 505- 중계경남롯데상아,0.0,"경남,롯데,상아건설",A13986302,15,029725439,147196.2,270.0,0.0,510.0,1110.0,중계경남롯데상아,184059.957,029725438,15,www.klsapt.or.kr,19890629.0,46.0,1890.0,15.0,147196.2,1774.0,160706530,0,208845430,1048291,0,167730,56850,20686,56215060,52563910,202401,서울특별시 노원구 중계동 505-,37.6382878280766,127.062716147408
1135010600,아파트,혼합식,지역난방,위탁관리,분양,서울특별시 노원구 동일로207길 18,3481.0,롯데건설(주)라이프주택(주)신동아건설(주)(주)삼호,서울특별시 노원구 중계동 502-1 중계그린,1.0,서울도시개발공사,A13986306,25,029798161,237403.594,0.0,0.0,3481.0,0.0,중계그린,237406.0,029711064,15, ,19900903.0,45.0,3481.0,15.0,166374.24,1777.0,89381340,0,149591958,637687,0,256132,0,8258,7634595,19819200,202401,서울특별시 노원구 중계동 502-1,37.6445728156805,127.062051438504
1135010600,아파트,복도식,지역난방,위탁관리,분양,서울특별시 노원구 동일로208길 20,2433.0,서울시,서울특별시 노원구 중계동 512- 중계무지개아파트,1.0,럭키외,A13986504,14,029797224,166984.649,0.0,0.0,2433.0,0.0,중계무지개아파트,172371.134,029487737,15, ,19911115.0,28.0,2433.0,15.0,117086.24,1782.0,90082862,0,245076243,479577,0,59751,0,8749,2000000,34558550,202401,서울특별시 노원구 중계동 512-,37.643256567583,127.066994809325
1135010600,아파트,복도식,지역난방,위탁관리,임대,서울특별시 노원구 노원로 331,2619.0,sh공사,서울특별시 노원구 중계동 514-3 중계시영3단지목련,0.0,sh공사,A13986505,11,029728731,121639.6173,0.0,0.0,2619.0,0.0,중계시영3단지목련,125080.0,029492714,15,happy.i-sh.co.kr/main.do?deptid=20165,19911115.0,22.0,2619.0,15.0,83867.9,1786.0,349870,0,128749160,0,18281,105916,0,11442,155710,26316600,202401,서울특별시 노원구 중계동 514-3,37.6461706893207,127.069521539074
1135010600,아파트,복도식,지역난방,위탁관리,임대,서울특별시 노원구 동일로210길 22,882.0,LH공사,서울특별시 노원구 중계동 515-3 중계주공1단지,1.0,(주)건영,A13986509,3,029739812,23607.83,0.0,0.0,882.0,0.0,중계주공1단지,37152.76,029772738,15,www.kohom.or.kr,19901214.0,12.0,882.0,15.0,23258.34,1759.0,21700020,0,40021540,154697,0,20224,0,2502,0,7506000,202401,서울특별시 노원구 중계동 515-3,37.6469078098159,127.065216258015
1135010600,아파트,계단식,개별난방,위탁관리,분양,서울특별시 노원구 덕릉로71길 5,402.0,서울시 교육청,서울특별시 노원구 중계동 580- 중계성원1차,2.0,성원건설주식회사,A13986606,3,029521865,42913.2,66.0,0.0,173.0,163.0,중계성원1차,49233.06,029511788,23, ,19960118.0,11.0,402.0,23.0,33045.61,1710.0,26769784,207180,0,150545,0,0,0,0,460575,0,202401,서울특별시 노원구 중계동 580-,37.6499764090371,127.069118959728
1135010600,아파트,복도식,개별난방,위탁관리,분양,서울특별시 노원구 덕릉로89길 8,167.0,한인연립재건축주택조합,서울특별시 노원구 중계동 581- 중계성원2차,21.0,(주)성원,A13986701,1,029396742,17461.33,36.0,0.0,74.0,57.0,중계성원2차,20279.801,029366742,18, ,19950706.0,3.0,167.0,18.0,12477.45,1662.0,11071390,145320,0,44261,1502,0,0,0,54500,0,202401,서울특별시 노원구 중계동 581-,37.6612273641215,127.074969590077
1135010600,아파트,복도식,개별난방,위탁관리,분양,서울특별시 노원구 한글비석로 383,203.0,삼창산업개발(주),서울특별시 노원구 중계동 584-1 삼창타워프라자,4.0,삼창산업개발(주),A13986702,1,029332247,23812.8,0.0,17.0,101.0,85.0,삼창타워프라자,31297.0,029332234,19, ,19970314.0,3.0,203.0,19.0,15734.42,1699.0,13229473,9770,0,72312,0,0,0,0,0,0,202401,서울특별시 노원구 중계동 584-1,37.6591119674807,127.073074956682
1135010600,아파트,계단식,개별난방,위탁관리,분양,서울특별시 노원구 덕릉로94길 10,299.0,정진연립재건축조합,서울특별시 노원구 중계동 597- 중계경남아너스빌,2.0,경남건설(주),A13986703,2,029528493,31720.19,54.0,0.0,17.0,228.0,중계경남아너스빌,42725.126,029528494,19, ,20021205.0,9.0,299.0,19.0,24717.2238,1716.0,22425030,0,0,94656,0,0,5824,0,6721360,0,202401,서울특별시 노원구 중계동 597-,37.6619833043387,127.076902596554
1135010400,아파트,계단식,개별난방,자치관리,분양,서울특별시 노원구 한글비석로 91,700.0,청구건설,서울특별시 노원구 하계동 251- 하계1차청구아파트,1.0,청구건설,A13987205,10,029480613,76363.63,0.0,0.0,0.0,700.0,하계1차청구아파트,87922.0,029761009,15, ,19970627.0,24.0,700.0,15.0,59220.0,1791.0,45729880,521910,0,262679,504,0,13621,0,16259290,0,202401,서울특별시 노원구 하계동 251-,37.6398260592996,127.071167444837
1135010400,아파트,복도식,중앙난방,위탁관리,임대,서울특별시 노원구 한글비석로 6,378.0,청구(주),서울특별시 노원구 하계동 356- 하계학여울청구B,1.0,청구(주),A13987301,1,029732686,17943.66,0.0,0.0,378.0,0.0,하계학여울청구B,18276.23,029732685,18, ,20020314.0,2.0,378.0,18.0,12383.28,1862.0,10208168,0,27885060,87257,0,0,3498,965,2133850,2895000,202401,서울특별시 노원구 하계동 356-,37.6326180569215,127.064482449011
1135010400,아파트,복도식,지역난방,위탁관리,임대,서울특별시 노원구 한글비석로 24,640.0,.,서울특별시 노원구 하계동 272- 하계시영5단지,0.0,유원건설,A13987302,13,029737177,29111.36,0.0,0.0,640.0,0.0,하계시영5단지,29740.0,029767252,5, ,19891030.0,,640.0,5.0,23568.0,1862.0,12087650,0,50430470,118626,0,30545,0,2381,0,9166850,202401,서울특별시 노원구 하계동 272-,37.6341990405486,127.065906091306
1135010400,아파트,계단식,중앙난방,위탁관리,분양,서울특별시 노원구 섬밭로 232,1320.0,"현대산업개발,우성건설",서울특별시 노원구 하계동 270- 하계현대우성,0.0,"현대산업개발,우성건설",A13987303,12,029779878,143902.8,270.0,0.0,0.0,1050.0,하계현대우성,147781069.0,029720754,15, ,19880929.0,44.0,1320.0,15.0,121153.3,1780.0,83535440,0,243058700,369443,0,0,20179,8588,21059690,35466880,202401,서울특별시 노원구 하계동 270-,37.6366151651829,127.065668150406
1135010400,아파트,복도식,중앙난방,자치관리,분양,서울특별시 노원구 섬밭로 196,1880.0,.,서울특별시 노원구 하계동 273- 하계 6단지 장미아파트,1.0,"라이프주택,진흥기업,현대건설",A13987304,15,029482596,131293.653,0.0,0.0,1472.0,408.0,하계 6단지 장미아파트,131293.653,029798514,15,하계장미.apti.co.kr/default.asp,19891030.0,28.0,1880.0,15.0,99254.46,1863.0,67567150,0,246578690,339636,0,0,0,7314,3654640,28817160,202401,서울특별시 노원구 하계동 273-,37.6339976168528,127.067277883916
1135010400,아파트,혼합식,지역난방,위탁관리,분양,서울특별시 노원구 동일로207길 186,1476.0,하계2구역 재개발조합,서울특별시 노원구 하계동 354- 하계학여울청구,3.0,(주)청구,A13987305,16,029787683,130350.96,468.0,0.0,324.0,684.0,하계학여울청구,177356.15,029776816,18,ckapt.apti.co.kr,19990209.0,36.0,1476.0,18.0,130350.96,1775.0,92438280,0,130454870,423865,0,1656728,16930,11790,23068220,60465880,202401,서울특별시 노원구 하계동 354-,37.6379556162713,127.059802173858
1135010400,아파트,혼합식,지역난방,위탁관리,분양,서울특별시 노원구 섬밭로 229,1980.0,극동건영벽산,서울특별시 노원구 하계동 271-3 하계극동건영벽산,1.0,극동건영벽산,A13987306,12,029781418,163764.0,0.0,0.0,750.0,1230.0,하계극동건영벽산,169224.41,029781417,15,www.h3apt.com,19880613.0,41.0,1980.0,15.0,134939.4,1776.0,118122131,0,237922740,547444,0,79592,0,12685,435500,44397500,202401,서울특별시 노원구 하계동 271-3,37.636617860423,127.064539154736
1135010200,아파트,계단식,개별난방,위탁관리,분양,서울특별시 노원구 광운로19길 38,157.0,(주)신도종합건설,서울특별시 노원구 월계동 941- 성북역신도브래뉴,1.0,(주)신도종합건설,A13987501,3,029138397,15220.45,10.0,0.0,48.0,99.0,성북역신도브래뉴,19626.637,029138390,15, ,20050523.0,7.0,157.0,15.0,12291.8118,1887.0,10203331,0,0,59487,0,0,2713,0,3015680,0,202401,서울특별시 노원구 월계동 941-,37.6231554284374,127.059188141024
1135010200,아파트,계단식,개별난방,위탁관리,분양,서울특별시 노원구 광운로 132,223.0,(주)신도종합건설,서울특별시 노원구 월계동 942- 월계역신도브래뉴,1.0,인덕주택재건축정비사업조합/(주)신도종합건설,A13987502,4,0264041207,22344.3,37.0,0.0,85.0,101.0,월계역신도브래뉴,30188.0,029090396,15, ,20050628.0,9.0,223.0,15.0,18054.9354,1885.0,13994370,0,0,67515,0,0,4204,0,5028290,0,202401,서울특별시 노원구 월계동 942-,37.6292532877883,127.058684212783
1135010200,아파트,계단식,개별난방,자치관리,분양,서울특별시 노원구 석계로13길 6-10,171.0,한일,서울특별시 노원구 월계동 927- 월계2차한일,3.0,한일건설,A13987503,1,0264352875,18943.0,19.0,0.0,38.0,114.0,월계2차한일,24554.0,029152874,19, ,20000426.0,5.0,171.0,19.0,14132.162,1896.0,11171863,0,0,47649,0,0,2987,0,3337660,0,202401,서울특별시 노원구 월계동 927-,37.6212353804853,127.062250313504
1135010500,아파트,혼합식,개별난방,위탁관리,분양,서울특별시 노원구 덕릉로 780,673.0,상계3-1지구 주택재개발조합,서울특별시 노원구 상계동 1285- 상계동아불암,0.0,상계3-1지구 주택재개발조합,A13989701,5,0233921736,70846.3,77.0,0.0,210.0,386.0,상계동아불암,115061.76,0233921735,22, ,19991125.0,15.0,673.0,22.0,54041.0,1647.0,42192900,565950,0,0,0,0,0,0,13156020,0,202401,서울특별시 노원구 상계동 1285-,37.6666919810414,127.079126011496
1135010500,아파트,복도식,개별난방,위탁관리,임대,서울특별시 노원구 덕릉로112길 13,434.0,동아건설,서울특별시 노원구 상계동 1286- 상계동아불암임대,2.0,동아건설,A13989702,1,0233922295,18651.2368,0.0,0.0,434.0,0.0,상계동아불암임대,20507.0,0233915525,22,"happy.i-sh.co.kr/intor,do",19991125.0,2.0,434.0,22.0,11718.0,1647.0,6087940,0,0,87278,0,0,8083,0,1967440,0,202401,서울특별시 노원구 상계동 1286-,37.6660290890895,127.078241474481
1135010200,아파트,계단식,개별난방,위탁관리,분양,서울특별시 노원구 덕릉로60길 252,154.0,대동연립 주택조합,서울특별시 노원구 월계동 880- 월계유원,1.0,유원건설,A13991015,1,029043453,14922.39,0.0,0.0,66.0,88.0,월계유원,18132.0,029043452,20, ,19980414.0,4.0,154.0,20.0,11428.62,1873.0,10475256,0,0,43085,0,0,2858,0,2904940,0,202401,서울특별시 노원구 월계동 880-,37.6291888689403,127.045168007143
1135010200,아파트,계단식,개별난방,위탁관리,분양,서울특별시 노원구 월계로53길 21,205.0,월계동원베네스트아파트조합,서울특별시 노원구 월계동 940- 월계동원베네스트,1.0,(주)동원건설,A13991016,5,029909567,18577.53,0.0,0.0,103.0,102.0,월계동원베네스트,24679.949,029029567,14, ,20050331.0,8.0,205.0,14.0,14796.356,1867.0,12873640,96310,0,56516,0,0,4148,0,5062820,0,202401,서울특별시 노원구 월계동 940-,37.6326095031966,127.058598372219
1135010200,아파트,계단식,개별난방,위탁관리,분양,서울특별시 노원구 덕릉로60길 222,225.0,.,서울특별시 노원구 월계동 945- 월계초안산쌍용,1.0,쌍용건설(주),A13991017,4,029050759,22568.55,0.0,0.0,60.0,165.0,월계초안산쌍용,29883.0,029050758,15,www.woorihom.co.kr/초안산쌍용/,20060327.0,9.0,225.0,15.0,17569.05,1872.0,16504163,0,0,68067,0,0,4222,0,4659410,0,202401,서울특별시 노원구 월계동 945-,37.6308930026478,127.043952668887
1135010200,아파트,계단식,개별난방,위탁관리,분양,서울특별시 노원구 월계로45길 21,850.0,재건축조합,서울특별시 노원구 월계동 947- 롯데캐슬루나,1.0,롯데건설,A13991018,21,029908816,98384.002,232.0,0.0,170.0,448.0,롯데캐슬루나,130109.4789,029908815,13,lotteca.co.kr,20061130.0,36.0,850.0,13.0,77743.514,1883.0,58546420,0,0,271298,0,0,15690,0,15757220,0,202401,서울특별시 노원구 월계동 947-,37.6256184658306,127.051276377642
1135010600,아파트,혼합식,개별난방,위탁관리,분양,서울특별시 노원구 중계로 172-13,130.0,현대,서울특별시 노원구 중계동 576- 중계현대3차,0.0,현대,A13993001,2,029344652,13752.063,0.0,0.0,0.0,130.0,중계현대3차,14529.0,029354652,11, ,19921031.0,5.0,130.0,11.0,9946.34,1724.0,0,0,0,0,0,0,0,0,0,0,202401,서울특별시 노원구 중계동 576-,37.6504706249474,127.081497301397
1135010600,아파트,계단식,개별난방,위탁관리,분양,서울특별시 노원구 중계로8길 103,140.0,현대건설,서울특별시 노원구 중계동 578- 중계현대2차,1.0,현대건설,A13993002,2,029319585,11869.2,0.0,0.0,0.0,140.0,중계현대2차,14996.62,029319585,9, ,19931125.0,,140.0,9.0,11855.46,1727.0,0,0,0,0,0,0,0,0,0,0,202401,서울특별시 노원구 중계동 578-,37.6480936194298,127.084614231813
1135010400,아파트,계단식,개별난방,위탁관리,분양,서울특별시 노원구 노원로 214,396.0,"삼익건설,선경건설",서울특별시 노원구 하계동 255-1 하계삼익선경,2.0,"삼익건설(주)-3개동, 선경건설(주)-3개동",A13993501,6,029490308,56205.012,396.0,0.0,0.0,0.0,하계삼익선경,67222.0,029490350,15, ,19930610.0,15.0,396.0,15.0,45897.0,1792.0,31192282,0,0,0,0,0,7608,0,9312600,0,202401,서울특별시 노원구 하계동 255-1,37.6383196610402,127.07752524971
1135010400,아파트,계단식,중앙난방,위탁관리,분양,서울특별시 노원구 한글비석로 151,498.0,한신.동성,서울특별시 노원구 하계동 256-5 하계한신동성,1.0,한신.동성,A13993502,6,029743679,72514.54,274.0,224.0,0.0,0.0,하계한신동성,84705.0,029735383,15, ,19930303.0,18.0,498.0,15.0,61730.72,1750.0,46756330,0,81652040,174354,0,21848,10994,3968,11815400,15872000,202401,서울특별시 노원구 하계동 256-5,37.6413291057329,127.075618420021
1135010400,아파트,복도식,지역난방,위탁관리,분양,서울특별시 노원구 공릉로 351,1200.0,한신공영,서울특별시 노원구 하계동 284- 하계한신,0.0,한신공영,A13993503,4,0262216570,54417.6,0.0,0.0,1200.0,0.0,하계한신,55504.0,029726570,15, ,19881029.0,9.0,1200.0,15.0,40914.0,1784.0,31600074,0,80310400,165983,0,22647,2563,2563,3525440,11277200,202401,서울특별시 노원구 하계동 284-,37.6381251181875,127.06790995973
1135010400,아파트,복도식,지역난방,위탁관리,임대,서울특별시 노원구 동일로207길 186,486.0,SH공사,서울특별시 노원구 하계동 355- 하계학여울청구A,1.0,청구,A13993901,1,029754318,22560.12,0.0,0.0,486.0,0.0,하계학여울청구A,22620.87,029754317,18, ,20010628.0,4.0,486.0,18.0,15921.36,1775.0,11043210,0,21832000,83115,0,21832,3245,1717,4565120,5837800,202401,서울특별시 노원구 하계동 355-,37.6379556162713,127.059802173858
1135010500,아파트,계단식,지역난방,위탁관리,분양,서울특별시 노원구 동일로216길 92,492.0,(주)한양,서울특별시 노원구 상계동 757- 상계한양,0.0,(주)한양,A13994302,5,0263192221,53479.2048,492.0,0.0,0.0,0.0,상계한양,54246.0,029317643,14,sghanyang.or.kr,19880530.0,19.0,492.0,14.0,43796.88,1754.0,33292830,0,63550430,157367,0,13735,0,3442,5916060,14456400,202401,서울특별시 노원구 상계동 757-,37.6505208152252,127.067349672237
1135010300,아파트,혼합식,개별난방,위탁관리,분양,서울특별시 노원구 공릉로27길 110,181.0,현대성우아파트재건축조합,서울특별시 노원구 공릉동 741- 공릉현대성우,3.0,현대성우건설,A13994501,1,029787119,16809.9126,0.0,0.0,101.0,80.0,공릉현대성우,22598.5,029787111,21, ,20001018.0,3.0,181.0,21.0,12854.78,1834.0,13227392,0,0,46866,0,0,0,0,39380,0,202401,서울특별시 노원구 공릉동 741-,37.6267191434676,127.077475137063
1135010200,아파트,복도식,지역난방,위탁관리,임대,서울특별시 노원구 월계로 372,1372.0,sh공사,서울특별시 노원구 월계동 321- 월계사슴1단지,1.0,삼익건설,A13995602,8,029788062,56641.696,0.0,0.0,1372.0,0.0,월계사슴1단지,58984.42,029788060,15,http://www.i-sh.co.kr/happy/intro.do,19950612.0,16.0,1372.0,15.0,37534.68,1905.0,0,0,63060730,0,0,48719,0,3608,1233760,13349600,202401,서울특별시 노원구 월계동 321-,37.6292472102426,127.059664124595
