bjdCode,codeAptNm,codeHallNm,codeHeatNm,codeMgrNm,codeSaleNm,address,hoCnt,kaptAcompany,kaptAddr,kaptBaseFloor,kaptBcompany,kaptCode,kaptDongCnt,kaptFax,kaptMarea,kaptMparea_135,kaptMparea_136,kaptMparea_60,kaptMparea_85,kaptName,kaptTarea,kaptTel,kaptTopFloor,kaptUrl,kaptUsedate,kaptdEcntp,kaptdaCnt,ktownFlrNo,privArea,zipcode,전기사용금액,가스사용금액,난방사용금액,전기사용량,가스사용량,난방사용량,냉수사용량,온수사용량,냉수사용금액,온수사용금액,집계날짜,cleaned_address,lat,lon
1159010900,아파트,혼합식,개별난방,자치관리,분양,서울 동작구 여의대방로22길 24,132.0,벽산건설,서울특별시 동작구 신대방동 709- 신대방벽산아파트,2.0,벽산건설,A10021100,2, ,11846.992,48.0,0.0,0.0,84.0,신대방벽산아파트,16796.37,028225245,17, ,19971212.0,,132.0,,,,0,0,0,0,0,0,0,0,0,0,202401,서울특별시 동작구 신대방동 709-,37.4974499466477,126.921572759176
1159010200,아파트,혼합식,개별난방,자치관리(직영),분양,서울 동작구 양녕로26길 11,130.0,건영건설,서울특별시 동작구 상도동 211-1 건영약수맨션,0.0,건영건설,A10021490,3, ,15953.24,130.0,0.0,0.0,0.0,건영약수맨션,17664.46,028232975,1, ,19800331.0,,130.0,,,,0,0,0,0,0,0,0,0,0,0,202401,서울특별시 동작구 상도동 211-1,37.4987504141982,126.944358687065
1159010700,아파트,혼합식,,자치관리,분양,서울 동작구 동작대로35아길 14,113.0,사당동재건축조합,서울특별시 동작구 사당동 1140- 사당삼성아파트,1.0,삼성준공업,A10021807,1,025954407,11368.29,54.0,10.0,0.0,49.0,사당삼성아파트,,025954406,12, ,19991231.0,0.0,113.0,,,,0,0,0,0,0,0,0,0,0,0,202401,서울특별시 동작구 사당동 1140-,37.4931041260997,126.979958177822
1159010800,,복도식,개별난방,위탁관리,임대,서울 동작구 상도로 36,110.0,이영희,서울특별시 동작구 대방동 403-16 골든노블레스,2.0,크라운종합건설,A10022093,1,07076090102,4055.84,0.0,0.0,98.0,12.0,골든노블레스,5142.0,07076090100,14,db40314.kr,20231124.0,,110.0,,,,0,0,0,0,0,0,0,0,0,0,202401,서울특별시 동작구 대방동 403-16,37.4996090735161,126.924548360735
1159010700,아파트,계단식,,위탁관리,분양,서울 동작구 사당로20나길 57,111.0,아주연립,서울특별시 동작구 사당동 1153- 사당kcc아파트,1.0,주)kcc건설,A10022181,2,025840585,12.0,88.0,23.0,0.0,0.0,사당kcc아파트,16.0,025840584,12,없음,20070720.0,5.0,111.0,,,,0,0,0,0,0,0,0,0,0,0,202401,서울특별시 동작구 사당동 1153-,37.4815737433268,126.973940940966
1159010900,아파트,계단식,,자치관리,분양,서울 동작구 신대방1나길 45,135.0,현진건설,서울특별시 동작구 신대방동 716- 현진에버빌아파트,1.0,현진건설,A10022217,1,028340134,9.0,0.0,0.0,59.0,76.0,현진에버빌아파트,16.0,028340133,19, ,20031024.0,,135.0,,,,0,0,0,0,0,0,0,0,0,0,202401,서울특별시 동작구 신대방동 716-,37.4858802112997,126.907048455296
1159010700,,혼합식,개별난방,위탁관리,분양,서울 동작구 사당로20길 119,140.0,르메이에르,서울특별시 동작구 사당동 1141- 르메이에르,2.0,르메이에르,A10022230,1,025831066,13441.38,77.0,0.0,0.0,63.0,르메이에르,,025831065,0, ,20011207.0,,140.0,,,,0,0,0,0,0,0,0,0,0,0,202401,서울특별시 동작구 사당동 1141-,37.478434104796,126.973615974527
1159010800,아파트,계단식,개별난방,위탁관리,분양,서울 동작구 알마타길 53,100.0,대림산업,서울특별시 동작구 대방동 507- 대방2차e편한세상아파트,2.0,대림산업,A10022384,1,028134255,16032.0,0.0,100.0,0.0,0.0,대방2차e편한세상아파트,21197.0,028134265,18, ,20030627.0,4.0,100.0,,,,0,0,0,0,0,0,0,0,0,0,202401,서울특별시 동작구 대방동 507-,37.5120403321993,126.931346406277
1159010100,아파트,복도식,개별난방,위탁관리,임대,서울 동작구 장승배기로 174,299.0,코레이트노량진역청년주택전문투자형사모부동산투자 유한회사,서울특별시 동작구 노량진동 54-4 더써밋타워,2.0,강남건영(주),A10022416,1, ,12120.29,0.0,0.0,291.0,8.0,더써밋타워,13907.0,0226639656,27, ,20240329.0,2.0,299.0,,,,0,0,0,0,0,0,0,0,0,0,202401,서울특별시 동작구 노량진동 54-4,37.5130276783933,126.940710722146
1159010200,아파트,계단식,,위탁관리,분양,서울 동작구 국사봉길 175,118.0,..,서울특별시 동작구 상도동 459- 상도2차갑을명가아파트,0.0,..,A10022456,1, ,12319.04,104.0,0.0,0.0,14.0,상도2차갑을명가아파트,18172.0,028111705,1, ,20060922.0,,118.0,,,,0,0,0,0,0,0,0,0,0,0,202401,서울특별시 동작구 상도동 459-,37.4934714995122,126.935321085018
1159010200,아파트,타워형,,위탁관리,분양,서울특별시 동작구 성대로 164,771.0,(주)포스트개발,서울특별시 동작구 상도동 906- 상도 푸르지오 클라베뉴,4.0,(주)대우건설,A10022720,10,028230772,76513.1752,0.0,0.0,261.0,510.0,상도 푸르지오 클라베뉴,121475.0,028230771,18, ,20240229.0,27.0,771.0,18.0,57364.88,7046.0,0,0,0,0,0,0,0,0,0,0,202401,서울특별시 동작구 상도동 906-,37.4981622716681,126.939480444315
1159010200,,계단식,개별난방,위탁관리,분양,서울특별시 동작구 국사봉길 178,123.0,조합,서울특별시 동작구 상도동 458- 상도1차갑을명가아파트,0.0,갑을건설(주),A10022916,2, ,12827.42,0.0,0.0,0.0,123.0,상도1차갑을명가아파트,17948.0,0232804434,13, ,20061016.0,4.0,123.0,13.0,10141.39,7051.0,0,0,0,0,0,0,0,0,0,0,202401,서울특별시 동작구 상도동 458-,37.4937475179445,126.934089290819
1159010900,주상복합,복도식,개별난방,자치관리(직영),분양,서울특별시 동작구 보라매로5가길 7,96.0,우성건설,서울특별시 동작구 신대방동 395-73 캐릭터그린빌아파트,5.0,우성건설,A10023324,1,028334752,17851.2,48.0,48.0,0.0,0.0,캐릭터그린빌아파트,25162.39,028334751,27, ,20001117.0,4.0,96.0,26.0,13566.96,7071.0,0,0,0,0,0,0,0,0,0,0,202401,서울특별시 동작구 신대방동 395-73,37.4919541191175,126.924968681319
1159010500,아파트,혼합식,개별난방,위탁관리,혼합,서울특별시 동작구 서달로 90,1772.0,흑석3재개발정비조합,서울특별시 동작구 흑석동 253-89 흑석자이,5.0,GS건설,A10023350,26,028269905,167725.34,36.0,0.0,880.0,856.0,흑석자이,167797.88,028269903,20, ,20230227.0,72.0,1772.0,20.0,124541.87,6987.0,193456886,0,0,519498,0,0,22564,0,25602380,0,202401,서울특별시 동작구 흑석동 253-89,37.5024629483784,126.963346676611
1159010900,,계단식,개별난방,위탁관리,분양,서울특별시 동작구 시흥대로 606,274.0,(주)청민건설,서울특별시 동작구 신대방동 686-48 동작협성휴포레시그니처아파트,6.0,(주)협성건설,A10023551,5,028498835,31880.1879,0.0,0.0,0.0,274.0,동작협성휴포레시그니처아파트,47065.0837,028498834,29, ,20220527.0,6.0,274.0,29.0,23281.4591,7074.0,26300960,0,0,0,0,0,0,0,4395680,0,202401,서울특별시 동작구 신대방동 686-48,37.4864917793931,126.905526238207
1159010800,,계단식,개별난방,위탁관리,분양,서울 동작구 여의대방로62길 7,130.0,(주)신일,서울특별시 동작구 대방동 510- 대방동신일해피트리 아파트,2.0,신일건설주식회사,A10023859,2,028141484,10644.772,0.0,0.0,118.0,12.0,대방동신일해피트리 아파트,11248.5976,028261117,19, ,20051125.0,0.0,130.0,19.0,8078.071,,0,0,0,0,0,0,0,0,0,0,202401,서울특별시 동작구 대방동 510-,37.514107874343,126.927735370351
1159010600,아파트,계단식,개별난방,위탁관리,분양,서울특별시 동작구 동작대로45길 10,366.0,KCC건설,서울특별시 동작구 동작동 102- 이수스위첸포레힐즈아파트,2.0,KCC건설,A10023898,7,0234829234,40829.9225,0.0,0.0,88.0,278.0,이수스위첸포레힐즈아파트,55634.9544,0234829233,15, ,20220228.0,17.0,366.0,15.0,28546.57,6994.0,37444955,220860,0,123012,0,0,5501,0,6333130,0,202401,서울특별시 동작구 동작동 102-,37.4970434396084,126.98235159031
1159010100,도시형 생활주택(주상복합),계단식,개별난방,위탁관리,임대,서울특별시 동작구 노량진로 190,207.0,(주)마스턴제14호,서울특별시 동작구 노량진동 333- 어바니엘한강,3.0,(주)이테크건설,A10023966,1,028522809,5425.34,0.0,0.0,207.0,0.0,어바니엘한강,14680.19,028522805,19, ,20180724.0,3.0,207.0,19.0,5425.34,6913.0,3407487,0,0,0,0,0,0,0,583360,0,202401,서울특별시 동작구 노량진동 333-,37.5129574445121,126.946862445323
1159010900,아파트,혼합식,개별난방,위탁관리,혼합,서울특별시 동작구 여의대방로22길 121,959.0,동작트인시아 지역주택조합,서울특별시 동작구 신대방동 724- 보라매자이 더 포레스트,3.0,GS건설(주),A10024098,8,0269515072,86911.3231,0.0,0.0,665.0,294.0,보라매자이 더 포레스트,138393.9451,0269515071,38, ,20211029.0,21.0,959.0,38.0,63820.2489,7056.0,69705000,0,0,402764,0,0,14506,0,16501250,0,202401,서울특별시 동작구 신대방동 724-,37.4983519180861,126.925286048904
1159010900,주상복합,,,기타,분양,서울 동작구 보라매로5길 51,, ,서울특별시 동작구 신대방동 395-67 롯데타워아파트,, ,A10024188,1, ,,0.0,90.0,0.0,0.0,롯데타워아파트,,028469701,1, ,19960628.0,0.0,90.0,30.0,14771.08,,0,0,0,0,0,0,0,0,0,0,202401,서울특별시 동작구 신대방동 395-67,37.4909420086406,126.923271180059
1159010700,아파트,계단식,개별난방,위탁관리,혼합,서울특별시 동작구 동작대로39길 39,514.0,사당3주택재건축정비사업조합,서울특별시 동작구 사당동 42- 이수푸르지오더프레티움,3.0,대우건설,A10024245,11,0234829310,50194.0926,12.0,3.0,193.0,306.0,이수푸르지오더프레티움,80835.0703,0234829309,15, ,20210629.0,21.0,514.0,15.0,38715.6,6995.0,48948410,449320,0,161842,3470,0,7445,0,8463766,0,202401,서울특별시 동작구 사당동 42-,37.4937647052236,126.979727883065
1159010200,아파트,계단식,개별난방,위탁관리,분양,서울특별시 동작구 양녕로 220,950.0,태려건설,서울특별시 동작구 상도동 904- 상도역롯데캐슬파크엘,5.0,롯데건설,A10024365,13,0232806668,89570.7114,32.0,0.0,467.0,451.0,상도역롯데캐슬파크엘,139978.0,0232806667,20, ,20210218.0,31.0,950.0,20.0,68120.5232,7032.0,68259340,0,0,313146,0,0,14495,0,16605550,0,202401,서울특별시 동작구 상도동 904-,37.5006923608129,126.945536442321
1159010100,도시형 생활주택(주상복합),복도식,개별난방,위탁관리,임대,서울특별시 동작구 노량진로8길 55,272.0,더클래식동작,서울특별시 동작구 노량진동 37-1 더클래식동작,2.0,강남건영,A10024524,1,028130362,7342.24,0.0,0.0,272.0,0.0,더클래식동작,8517.85,028130361,18, ,20201117.0,0.0,272.0,18.0,4372.64,6928.0,10372050,0,0,52110,0,0,3401,0,5142910,0,202401,서울특별시 동작구 노량진동 37-1,37.5123712815087,126.938564785768
1159010700,아파트,혼합식,개별난방,위탁관리,분양,서울특별시 동작구 사당로16아길 43,140.0,성동종합건설(주),서울특별시 동작구 사당동 1142- 사당진흥아파트,0.0,성동종합건설(주),A10024642,1,025982798,11962.1738,14.0,0.0,6.0,120.0,사당진흥아파트,21137.33,025982778,1, ,20041229.0,,140.0,14.0,11962.1738,7020.0,0,0,0,0,0,0,0,0,0,0,202401,서울특별시 동작구 사당동 1142-,37.4805619744721,126.969329448957
1159010800,아파트,복도식,개별난방,위탁관리,분양,서울특별시 동작구 등용로14길 34,134.0,(주)신한건설,서울특별시 동작구 대방동 41- 신한토탈아파트,1.0,(주) 신한건설,A10024752,1,028248315,13335.0,0.0,0.0,44.0,90.0,신한토탈아파트,15117.21,028248314,18, ,19971117.0,2.0,134.0,18.0,9704.08,6932.0,0,0,0,0,0,0,0,0,0,0,202401,서울특별시 동작구 대방동 41-,37.5117964394712,126.933089388437
1159010200,,계단식,개별난방,위탁관리(직영+위탁),분양,서울특별시 동작구 양녕로 170,141.0,약수아파트 재건축 조합,서울특별시 동작구 상도동 530- 상도동 롯데캐슬 비엔,2.0,롯데건설,A10024777,4,028157524,16235.3,42.0,0.0,0.0,99.0,상도동 롯데캐슬 비엔,26307.51,028157522,10, ,20101230.0,0.0,141.0,10.0,12830.68,7037.0,0,0,0,0,0,0,0,0,0,0,202401,서울특별시 동작구 상도동 530-,37.4970019422426,126.943642572569
1159010700,아파트,혼합식,개별난방,위탁관리,분양,서울특별시 동작구 사당로2가길 173,131.0,남해건설,서울특별시 동작구 사당동 1143- 남해오네뜨아파트,2.0,남해건설,A10024811,1,025811910,12763.656,14.0,0.0,60.0,57.0,남해오네뜨아파트,16925.967,0234722741,15, ,20021230.0,3.0,131.0,15.0,9821.645,7030.0,9298140,0,0,36052,0,0,4271,0,5063350,0,202401,서울특별시 동작구 사당동 1143-,37.4870204798096,126.965674646209
1159010700,아파트,혼합식,개별난방,위탁관리,분양,서울특별시 동작구 사당로 90,996.0,사당2주택 재건축정비사업조합,서울특별시 동작구 사당동 1160- 사당롯데캐슬골든포레,4.0,롯데건설,A10025013,17,0234874102,94432.0852,3.0,0.0,468.0,488.0,사당롯데캐슬골든포레,160369.27,0234874101,18, ,20210702.0,36.0,959.0,18.0,69431.36,7075.0,86904580,0,0,289344,0,0,14224,0,15791010,0,202401,서울특별시 동작구 사당동 1160-,37.4923356236,126.962447793145
1159010600,아파트,,,기타,,서울특별시 동작구 동작대로43길 36,, ,서울특별시 동작구 동작동 329- 신동아갯마을아파트,, ,A10025175,1, ,,3.0,0.0,21.0,20.0,신동아갯마을아파트,,025940999,1, ,20010704.0,,44.0,10.0,3117.09,6994.0,0,0,0,0,0,0,0,0,0,0,202401,서울특별시 동작구 동작동 329-,37.4971060237254,126.980960287681
1159010900,아파트,계단식,개별난방,위탁관리,분양,서울특별시 동작구 여의대방로10길 100,105.0,신동아건설,서울특별시 동작구 신대방동 717- 숲속마을 신동아파밀리에 아파트,1.0,신동아건설,A10025504,2,028316829,11975.52,59.0,0.0,0.0,46.0,숲속마을 신동아파밀리에 아파트,18486.7562,028317829,13, ,20050624.0,5.0,105.0,13.0,10717.8976,7062.0,0,0,0,0,0,0,0,0,0,0,202401,서울특별시 동작구 신대방동 717-,37.4916382065289,126.91471472409
1159010200,아파트,혼합식,개별난방,위탁관리,혼합,서울특별시 동작구 만양로 6,893.0,상도노빌리티재건축조합,서울특별시 동작구 상도동 903- 이편한세상 상도노빌리티,4.0,대림산업,A10025768,8,028270183,94471.74,56.0,0.0,253.0,584.0,이편한세상 상도노빌리티,141262.7372,028270181,29,cafe.naver.com/sdnobilityapt,20181203.0,21.0,893.0,29.0,70828.56,6919.0,84233109,0,0,285599,0,0,13849,0,16071340,0,202401,서울특별시 동작구 상도동 903-,37.5049818982281,126.946788478219
1159010500,아파트,계단식,개별난방,위탁관리,혼합,서울특별시 동작구 현충로 52,1073.0,흑석7재정비촉진구역주택재개발정비사업조합,서울특별시 동작구 흑석동 158-1 아크로 리버하임,3.0,대림건설(주),A10025770,20,028270192,108732.15,36.0,8.0,313.0,716.0,아크로 리버하임,109103.78,028270190,28, ,20191224.0,39.0,1073.0,28.0,81538.28,6909.0,103740341,0,0,348599,0,0,17780,0,19002200,0,202401,서울특별시 동작구 흑석동 158-1,37.5096317962488,126.962204212791
1159010500,아파트,타워형,개별난방,위탁관리,혼합,서울특별시 동작구 서달로 123,545.0,흑석8재정비촉진구역주택재개발정비사업조합,서울특별시 동작구 흑석동 340- 흑석롯데캐슬에듀포레,4.0,롯데건설(주),A10025867,7,028127230,52629.9598,30.0,0.0,278.0,237.0,흑석롯데캐슬에듀포레,84582.3338,028127231,23, ,20181129.0,20.0,545.0,23.0,38395.02,6973.0,46811180,0,0,170934,0,0,8272,0,10762580,0,202401,서울특별시 동작구 흑석동 340-,37.5042118646331,126.959673143176
1159010700,,계단식,개별난방,위탁관리(직영+위탁),분양,서울특별시 동작구 솔밭로 65,63.0,갑을건설,서울특별시 동작구 사당동 1151- 사당갑을명가아파트,1.0,갑을건설,A10026025,1,025845011,6243.4569,0.0,0.0,0.0,63.0,사당갑을명가아파트,8285302.5,025845012,12, ,20060324.0,3.0,63.0,12.0,5022.5619,7031.0,0,0,0,0,0,0,0,0,0,0,202401,서울특별시 동작구 사당동 1151-,37.4822742776539,126.966441009644
1159010700,아파트,계단식,개별난방,위탁관리,혼합,서울특별시 동작구 사당로23길 112,668.0,사당1 주택재건축정비사업,서울특별시 동작구 사당동 1159- 래미안로이파크아파트,4.0,삼성물산(주),A10026299,6,025959483,68672.5312,24.0,0.0,158.0,486.0,래미안로이파크아파트,117327.85,025959481,25, ,20181227.0,18.0,668.0,25.0,53752.64,7001.0,68190452,0,0,233614,0,0,21835,0,25562800,0,202401,서울특별시 동작구 사당동 1159-,37.4878281721514,126.973484900483
1159010400,아파트,계단식,개별난방,위탁관리,분양,서울특별시 동작구 매봉로 156,123.0,흥국생명보험(주),서울특별시 동작구 본동 148-2 극동강변아파트,0.0,극동건설(주),A10026873,1,028130449,10421.79,0.0,0.0,0.0,123.0,극동강변아파트,13816.95,028130446,13, ,19920309.0,5.0,123.0,13.0,10421.79,6906.0,0,0,0,0,0,0,0,0,0,0,202401,서울특별시 동작구 본동 148-2,37.5116540045705,126.952014044645
1159010200,아파트,혼합식,개별난방,위탁관리,혼합,서울특별시 동작구 장승배기로11가길 11,471.0,상도제10구역 주택재개발 정비사업조합,서울특별시 동작구 상도동 363- 상도파크자이 아파트,2.0,GS건설,A10027424,7,028270798,46217.676,0.0,0.0,106.0,365.0,상도파크자이 아파트,68939.781,028270795,25, ,20160826.0,13.0,471.0,25.0,33362.69,6937.0,40771983,0,0,145630,0,0,7960,0,8740960,0,202401,서울특별시 동작구 상도동 363-,37.5055659930949,126.938911240196
1159010200,아파트,계단식,개별난방,위탁관리,혼합,서울특별시 동작구 상도로 207,202.0,상도동지역주택조합,서울특별시 동작구 상도동 536- 상도효성해링턴플레이스,4.0,(주)효성,A10027472,2,028255330,21163.0677,0.0,0.0,54.0,148.0,상도효성해링턴플레이스,33592.0,028255300,28, ,20160203.0,6.0,202.0,28.0,15804.14,6921.0,16452900,0,0,87180,0,0,3653,0,4289730,0,202401,서울특별시 동작구 상도동 536-,37.5055712636346,126.941856308051
1159010700,주상복합,복도식,개별난방,위탁관리(직영+위탁),분양,서울 동작구 사당로 300,140.0,(주)모벡에셋,서울특별시 동작구 사당동 147-29 이수자이 주상복합,7.0,GS건설,A10027495,2,025975117,36015.32,120.0,20.0,0.0,0.0,이수자이 주상복합,52544.0,025975116,24, ,20101215.0,2.0,140.0,24.0,16732.83,,0,0,0,0,0,0,0,0,0,0,202401,서울특별시 동작구 사당동 147-29,37.4844359490926,126.980308511151
1159010200,도시형 생활주택(주상복합),계단식,개별난방,위탁관리,분양,서울특별시 동작구 상도로15길 131,298.0,상도개발(주),서울특별시 동작구 상도동 363-164 상도 휴엔하임 도시형생횔주택,2.0,신구건설(주),A10027614,1,028264670,4444.8,0.0,0.0,298.0,0.0,상도 휴엔하임 도시형생횔주택,11143.0,028254670,15, ,20160224.0,2.0,298.0,15.0,4444.8,6937.0,9235360,0,0,45502,0,0,0,0,0,0,202401,서울특별시 동작구 상도동 363-164,37.504967595768,126.937970420644
1159010200,아파트,계단식,개별난방,위탁관리,혼합,서울특별시 동작구 상도로30길 39,582.0,상도동 두산위브 지역주택조합,서울특별시 동작구 상도동 535- 상도2차 두산위브트레지움 아파트,3.0,두산중공업,A10027633,6,028270512,63187.7971,0.0,0.0,127.0,455.0,상도2차 두산위브트레지움 아파트,99488.17,028270510,23, ,20160127.0,14.0,582.0,23.0,46214.5592,6964.0,46180280,0,0,182513,0,0,9912,0,14398630,0,202401,서울특별시 동작구 상도동 535-,37.5047956242888,126.942297308681
1159010900,아파트,복도식,개별난방,위탁관리,분양,서울특별시 관악구 보라매로3길 29,256.0,해태건설(주),서울특별시 동작구 신대방동 708- 해태보라매타워,6.0,해태건설(주),A15183001,2,028446110,26122.8,0.0,0.0,130.0,126.0,해태보라매타워,46900.0,028360020,23,해태보라매타워.apti.co.kr,19961018.0,4.0,256.0,23.0,18384.72,8708.0,15682040,0,445240,64755,0,0,0,0,325950,0,202401,서울특별시 동작구 신대방동 708-,37.4912113425285,126.924990343437
1159010900,주상복합,복도식,개별난방,자치관리,분양,서울특별시 동작구 보라매로5가길 16,225.0,주은부동산신탁,서울특별시 동작구 신대방동 395-69 보라매아카데미타워아파트,0.0,라성건설,A15601002,1,028316662,35335.71,153.0,9.0,0.0,63.0,보라매아카데미타워아파트,40411.42,028316649,41, ,19980817.0,3.0,225.0,41.0,25812.54,7071.0,24521164,67440,0,78972,0,0,0,0,411750,0,202401,서울특별시 동작구 신대방동 395-69,37.4912751024086,126.924094714271
1159010900,아파트,계단식,개별난방,위탁관리,분양,서울특별시 동작구 보라매로 70,386.0,스톰디엔엠,서울특별시 동작구 신대방동 720- 보라매e편한세상,3.0,(주)삼호,A15601003,5,028143692,37394.96,154.0,0.0,97.0,135.0,보라매e편한세상,67442.6,028143691,19, ,20100726.0,0.0,386.0,19.0,37516.1,7054.0,39862522,0,0,133635,0,0,6331,0,7456050,0,202401,서울특별시 동작구 신대방동 720-,37.4957731735095,126.928979767472
1159010900,주상복합,복도식,,자치관리,혼합,서울특별시 동작구 보라매로 83,108.0,서울도시개발공사,서울특별시 동작구 신대방동 705- 신대방,1.0,(주)대호종합건설,A15601004,1,028213075,7.0,0.0,0.0,108.0,0.0,신대방,7.0,028213074,12, ,19950517.0,,108.0,12.0,5164.7,7060.0,0,0,0,0,0,0,0,0,0,0,202401,서울특별시 동작구 신대방동 705-,37.4966586765235,126.927339768223
1159010900,아파트,계단식,개별난방,위탁관리,분양,서울특별시 동작구 여의대방로10길 14,295.0,재건축조합,서울특별시 동작구 신대방동 710- 신대방경남교수,0.0,경남기업,A15601102,4,028363776,36338.2,130.0,0.0,0.0,165.0,신대방경남교수,49639.0,028363737,23, ,20010802.0,7.0,295.0,23.0,28826.0,7064.0,23338726,0,0,95004,0,0,11786,0,13351750,0,202401,서울특별시 동작구 신대방동 710-,37.4963277625254,126.913963489025
1159010900,아파트,혼합식,개별난방,위탁관리,분양,서울특별시 동작구 신대방길 85,427.0,무림아파트재건축조합,서울특별시 동작구 신대방동 712- 신대방경남아너스빌,2.0,경남기업,A15601103,5,028479670,44915.49,54.0,32.0,78.0,263.0,신대방경남아너스빌,65144.0,028479669,20,신대방경남.apti.co.kr,20030228.0,11.0,427.0,20.0,35542.47,7069.0,28988930,0,0,121389,0,0,7772,0,9199820,0,202401,서울특별시 동작구 신대방동 712-,37.4900534247859,126.908337875287
1159010900,아파트,계단식,개별난방,위탁관리,분양,서울특별시 동작구 여의대방로10길 38,734.0,신생 재건축조합,서울특별시 동작구 신대방동 713- 보라매롯데낙천대,3.0,롯데건설,A15601104,7,0262959657,65443.51,83.0,0.0,415.0,236.0,보라매롯데낙천대,93924.0,0262959655,21,www.boramelotteapt.com,20030802.0,22.0,734.0,21.0,50898.8536,7064.0,44798040,0,0,212994,0,0,0,0,0,0,202401,서울특별시 동작구 신대방동 713-,37.4954099627716,126.912566500917
1159010900,아파트,계단식,개별난방,위탁관리,분양,서울특별시 동작구 여의대방로 28,880.0,조합주택,서울특별시 동작구 신대방동 707- 신대방현대,2.0,현대건설,A15601105,6,028356421,96000.08,1.0,0.0,0.0,879.0,신대방현대,113324.98,028356423,20,cafe.daum.net/aptsdhd,19960213.0,22.0,880.0,20.0,74429.85,7064.0,55431710,0,0,254485,0,0,16471,0,20837540,0,202401,서울특별시 동작구 신대방동 707-,37.4952734394062,126.911690497183
1159010900,아파트,복도식,개별난방,위탁관리,분양,서울특별시 동작구 여의대방로22아길 22,171.0,신동아건설(주),서울특별시 동작구 신대방동 360-17 신대방신동아,1.0,신동아,A15601201,1,028260713,11953.09,0.0,0.0,171.0,0.0,신대방신동아,11953.09,028260713,14, ,19930113.0,2.0,171.0,14.0,7915.14,7058.0,1493040,1370,0,0,0,0,0,0,50000,0,202401,서울특별시 동작구 신대방동 360-17,37.4966064089647,126.924030853925
1159010900,아파트,계단식,개별난방,자치관리,분양,서울특별시 동작구 여의대방로10길 13,272.0,한성건설,서울특별시 동작구 신대방동 470-8 신대방한성,1.0,한성건설,A15601202,4,0262652295,29472.72,68.0,0.0,120.0,84.0,신대방한성,33023.0,028492295,21, ,19950218.0,7.0,272.0,21.0,23172.4,7063.0,18062225,477710,0,78867,0,0,0,0,0,0,202401,서울특별시 동작구 신대방동 470-8,37.4957426504432,126.915211806863
1159010800,아파트,계단식,개별난방,자치관리(직영),분양,서울특별시 동작구 여의대방로54길 6,163.0,대방시범아파트재건축조합,서울특별시 동작구 대방동 512- 대방경남아너스빌,2.0,경남기업,A15602001,2,028242247,16852.081,0.0,0.0,0.0,163.0,대방경남아너스빌,25144.49,028242225,15, ,20060327.0,6.0,163.0,15.0,13822.033,6939.0,11557490,0,0,48895,0,0,0,0,0,0,202401,서울특별시 동작구 대방동 512-,37.5115522882905,126.925307842977
1159010800,아파트,계단식,개별난방,위탁관리,분양,서울특별시 동작구 여의대방로24다길 40,200.0,코오롱건설(주),서울특별시 동작구 대방동 509- 보라매코오롱하늘채,1.0,코오롱건설,A15602002,2,0264091373,21286.0,0.0,0.0,0.0,200.0,보라매코오롱하늘채,27271.0,0264091372,19, ,20050916.0,6.0,200.0,19.0,16939.58,7055.0,13954480,0,0,61747,1386,0,0,0,0,0,202401,서울특별시 동작구 대방동 509-,37.4984805113483,126.922794381305
1159010800,아파트,계단식,개별난방,위탁관리,분양,서울특별시 동작구 알마타길 37,609.0,대림산업,서울특별시 동작구 대방동 508- 대방1차e편한세상,3.0,대림산업,A15602007,7,028134263,64450.47,0.0,0.0,0.0,609.0,대방1차e편한세상,85252.95,028134262,24, ,20030628.0,16.0,609.0,24.0,51350.88,6939.0,43245743,477210,0,189840,0,0,11551,0,14598020,0,202401,서울특별시 동작구 대방동 508-,37.5126598875852,126.929552613479
1159010200,아파트,계단식,개별난방,위탁관리,분양,서울특별시 동작구 상도로34길 42,162.0,상도동원지역주택조합,서울특별시 동작구 상도동 528- 상도동원베네스트,1.0,동원시스템즈(주)/건설,A15603001,4,028253394,17602.009,0.0,0.0,0.0,162.0,상도동원베네스트,23332.004,028243394,13, ,20081031.0,6.0,162.0,13.0,13731.147,6965.0,11585720,0,0,52637,0,0,2936,0,3493830,0,202401,서울특별시 동작구 상도동 528-,37.5030119526596,126.944658956323
1159010200,아파트,계단식,개별난방,위탁관리,분양,서울특별시 동작구 상도로31길 19,415.0,상도이수지역주택조합,서울특별시 동작구 상도동 527- 브라운스톤상도,2.0,이수건설,A15603002,8,028212753,40979.42,0.0,0.0,110.0,305.0,브라운스톤상도,58340.28,028212755,18,www.brsda.com,20071226.0,13.0,415.0,18.0,32498.01,6921.0,28476560,0,0,127571,0,0,6875,0,9642910,0,202401,서울특별시 동작구 상도동 527-,37.5062358749024,126.944541781061
1159010200,아파트,복도식,개별난방,위탁관리,임대,서울특별시 동작구 만양로 26,552.0,재개발사업,서울특별시 동작구 상도동 414- 상도건영제2 관리사무소,1.0,(주)건영,A15603003,2,028138233,29979.12,0.0,0.0,552.0,0.0,상도건영제2 관리사무소,29981.49,028138133,18, ,19970912.0,8.0,552.0,18.0,18105.6,6918.0,12939110,0,0,127207,0,0,7208,0,7144690,0,202401,서울특별시 동작구 상도동 414-,37.5076264776599,126.949547851693
1159010200,아파트,복도식,개별난방,위탁관리,임대,서울특별시 동작구 상도로53길 70,953.0,에스에이치공사,서울특별시 동작구 상도동 430- 상도sh-ville,0.0,(주)C&우방,A15603004,4, ,44304.97,0.0,0.0,953.0,0.0,상도sh-ville,65825.46,028226950,15, ,20061103.0,10.0,953.0,15.0,30905.79,6977.0,22344040,0,0,167371,0,0,10161,0,8476710,0,202401,서울특별시 동작구 상도동 430-,37.502534581317,126.954540960439
1159010200,아파트,계단식,개별난방,위탁관리,분양,서울특별시 동작구 상도로53길 8,1656.0,상도 제4구역 주택재개발사업 조합,서울특별시 동작구 상도동 431- 래미안상도3차,2.0,삼성물산(주) 주택부문,A15603006,28,0263325580,192418.69,493.0,28.0,116.0,1019.0,래미안상도3차,280216.8,028122936,15, ,20041224.0,58.0,1656.0,15.0,155288.68,6977.0,110387875,400230,0,501850,0,0,28106,0,32957560,0,202401,서울특별시 동작구 상도동 431-,37.5008627565642,126.954053195079
1159010200,아파트,복도식,개별난방,위탁관리,임대,서울특별시 동작구 등용로 37,164.0,삼성건설,서울특별시 동작구 상도동 447- 상도래미안1차제2,3.0,삼성건설,A15603007,1,028156524,11207.432,0.0,0.0,164.0,0.0,상도래미안1차제2,11207.432,028156523,18, ,20041206.0,2.0,164.0,18.0,4967.396,6948.0,6836100,5300,0,29672,0,0,1827,0,1616490,0,202401,서울특별시 동작구 상도동 447-,37.5052397636547,126.933133919908
1159010200,아파트,계단식,개별난방,위탁관리,분양,서울특별시 동작구 상도로 346-2,882.0,지역주택조합,서울특별시 동작구 상도동 533- 힐스테이트상도프레스티지,4.0,현대엠코,A15603008,16,028270389,106266.174,218.0,0.0,24.0,640.0,힐스테이트상도프레스티지,158633.72,028270388,20,astonpark.co.kr,20130814.0,26.0,882.0,20.0,82034.881,7034.0,96342811,0,0,325999,0,0,16291,0,20374530,0,202401,서울특별시 동작구 상도동 533-,37.4947527141503,126.948270774161
1159010200,아파트,계단식,개별난방,위탁관리,분양,서울특별시 동작구 장승배기로10길 100,138.0,상도동165번지 지역주택조합,서울특별시 동작구 상도동 534- 상도더샵2차,3.0,포스코건설,A15603009,4,0232806661,11758.61,1.0,1.0,0.0,136.0,상도더샵2차,23430.0,0232806663,12,상도더샵2차.apti.co.kr,20140407.0,6.0,138.0,12.0,11758.61,6966.0,0,0,0,0,0,0,0,0,0,0,202401,서울특별시 동작구 상도동 534-,37.5028684818551,126.943452576133
1159010200,아파트,계단식,개별난방,위탁관리,분양,서울특별시 동작구 장승배기로 26,400.0,상도아파트재건축조합,서울특별시 동작구 상도동 416- 아이파크상도동,2.0,현대산업개발주식회사,A15603203,6,028158897,45355.64,76.0,0.0,0.0,324.0,아이파크상도동,45623.46,028238896,22, ,20040427.0,11.0,400.0,22.0,36254.12,6967.0,25294521,0,0,111807,0,0,7004,0,7957560,0,202401,서울특별시 동작구 상도동 416-,37.5006642434154,126.943414996004
1159010200,아파트,계단식,개별난방,위탁관리,분양,서울특별시 동작구 등용로 37,517.0,상도2구역 주택재개발조합,서울특별시 동작구 상도동 450- 상도래미안1차,2.0,삼성건설(주),A15603204,7,028236885,59196.879,131.0,0.0,109.0,277.0,상도래미안1차,81236.0,028236884,19,상도래미안1차.apti.co.kr,20041206.0,15.0,517.0,19.0,45011.296,6948.0,36041760,0,0,152760,0,0,0,0,0,0,202401,서울특별시 동작구 상도동 450-,37.5052397636547,126.933133919908
1159010100,아파트,혼합식,중앙난방,위탁관리,분양,서울특별시 동작구 만양로 26,824.0,본동2구역주택재개발조합,서울특별시 동작구 노량진동 324- 상도건영,0.0,(주)건영,A15603205,6,028249344,93417.32,322.0,0.0,162.0,340.0,상도건영,142301.18,028136445,18, ,19970912.0,21.0,824.0,18.0,71696.86,6918.0,45384769,0,119226000,218368,0,0,13417,5312,17239830,23904000,202401,서울특별시 동작구 노량진동 324-,37.5076264776599,126.949547851693
1159010200,아파트,계단식,개별난방,위탁관리,분양,서울특별시 동작구 장승배기로4길 9,1122.0,포스코건설(주),서울특별시 동작구 상도동 521- 상도더샵,3.0,포스코건설(주),A15603206,22,0262698293,137481.02,288.0,165.0,364.0,305.0,상도더샵,197874.171,028248292,15,.www.sdthesharp.com/,20070928.0,41.0,1122.0,15.0,109786.216,6966.0,91910977,0,0,479148,0,0,22012,0,25093060,0,202401,서울특별시 동작구 상도동 521-,37.5014493001475,126.943814183056
1159010200,아파트,혼합식,개별난방,위탁관리,분양,서울특별시 동작구 양녕로23길 9,197.0,삼진재건축조합,서울특별시 동작구 상도동 445- 경향렉스빌아파트,3.0,경향건설(주),A15603401,2,0263347345,23456.41,71.0,0.0,18.0,108.0,경향렉스빌아파트,33119.0,028237345,18, ,20021015.0,4.0,197.0,18.0,17515.6418,7049.0,12735790,0,0,59382,0,0,3831,0,3918150,0,202401,서울특별시 동작구 상도동 445-,37.4953241507248,126.941729458778
1159010200,아파트,계단식,개별난방,위탁관리,분양,서울특별시 동작구 상도로55길 47,431.0,상도6구역주택재개발조합,서울특별시 동작구 상도동 421- 래미안상도2차,0.0,삼성물산,A15603502,9,028135426,42265.67,84.0,0.0,173.0,174.0,래미안상도2차,63061.123,028139922,15,cafe.daum.net/raemian02,20031030.0,17.0,431.0,15.0,34752.774,6978.0,28181886,0,0,124807,0,0,6677,0,7866100,0,202401,서울특별시 동작구 상도동 421-,37.4983400860939,126.958850538909
1159010100,주상복합,복도식,개별난방,위탁관리(총액관리제),분양,서울특별시 동작구 만양로 84,175.0,주-삼익,서울특별시 동작구 노량진동 330- 노량진삼익,3.0,주-삼익,A15605001,1,028156851,17845.23,0.0,0.0,82.0,93.0,노량진삼익,34982.89,028156850,19, ,20010711.0,3.0,175.0,19.0,12709.96,6914.0,1549450,0,0,0,0,0,0,0,0,0,202401,서울특별시 동작구 노량진동 330-,37.5113671453073,126.945225673807
1159010100,아파트,혼합식,중앙난방,위탁관리,분양,서울특별시 동작구 만양로8길 50,901.0,본동 제2-1 재개발조합,서울특별시 동작구 노량진동 323- 노량진우성,2.0,본동 제2-1 재개발조합,A15605002,7,028234531,104876.189,288.0,0.0,255.0,358.0,노량진우성,127834.08,028234532,18, ,19971216.0,21.0,901.0,18.0,81597.06,6917.0,62550559,0,160378055,253111,0,0,0,5730,707980,16044000,202401,서울특별시 동작구 노량진동 323-,37.5103042588159,126.946865796584
1159010100,아파트,혼합식,개별난방,위탁관리,분양,서울특별시 동작구 장승배기로16길 134,299.0,노량진1구역재개발정비사업조합,서울특별시 동작구 노량진동 332- 노량진쌍용예가,3.0,쌍용건설(주),A15605003,5,028137544,31281.0,45.0,0.0,118.0,136.0,노량진쌍용예가,49333.838,028137510,15, ,20100826.0,10.0,299.0,15.0,23774.055,6926.0,25509373,0,0,96334,0,0,4901,0,5841640,0,202401,서울특별시 동작구 노량진동 332-,37.5103212176243,126.943794074144
1159010400,아파트,계단식,개별난방,위탁관리,분양,서울특별시 동작구 매봉로 99,247.0,본동제2구역 제3지구 주택재개발조합,서울특별시 동작구 본동 487- 본동한신휴플러스,3.0,한신공영,A15605102,4,0262687209,22344.14,72.0,0.0,31.0,144.0,본동한신휴플러스,39507.0,028137209,18, ,20040807.0,8.0,247.0,18.0,22344.14,6916.0,17193963,0,0,73665,0,0,4416,0,5356020,0,202401,서울특별시 동작구 본동 487-,37.5092074718276,126.949130340547
1159010100,아파트,혼합식,중앙난방,위탁관리,분양,서울특별시 동작구 만양로 19,1696.0,신동아건설(주),서울특별시 동작구 노량진동 325- 신동아리버파크,2.0,신동아건설(주),A15605103,7,028122133,193621.6,524.0,0.0,386.0,786.0,신동아리버파크,240235.69,028120322,28,신동아리버파크.apti.co.kr,20010215.0,34.0,1696.0,28.0,149877.5,6920.0,107860697,0,272043650,467398,0,0,29372,9229,37448430,59988500,202401,서울특별시 동작구 노량진동 325-,37.5070717430905,126.945718197277
1159010400,아파트,계단식,개별난방,위탁관리,분양,서울특별시 동작구 노량진로32길 156,272.0,경동건설,서울특별시 동작구 본동 484- 경동윈츠리버,2.0,경동건설,A15606001,6,0262938656,24595.046,52.0,0.0,142.0,78.0,경동윈츠리버,34886.02,028128656,13, ,20041230.0,13.0,272.0,13.0,19985.68,6907.0,15961709,0,0,72712,0,0,3908,0,4754610,0,202401,서울특별시 동작구 본동 484-,37.5094180674846,126.954507492454
1159010400,아파트,계단식,개별난방,위탁관리,분양,서울특별시 동작구 노량진로23가길 20,306.0,준용연립재건축조합외,서울특별시 동작구 본동 482- 유원강변,2.0,유원울트라,A15606002,5,028259414,32506.4,26.0,0.0,44.0,236.0,유원강변,41807.8,028249414,25, ,20000809.0,1.0,306.0,25.0,25532.62,6902.0,17939450,0,0,104766,0,0,0,0,0,0,202401,서울특별시 동작구 본동 482-,37.5150888580885,126.951028672689
1159010400,아파트,계단식,개별난방,위탁관리,분양,서울특별시 동작구 매봉로 123,477.0,본동제4구역재개발조합,서울특별시 동작구 본동 492- 본동삼성래미안아파트,2.0,삼성물산,A15606003,6,028221163,50884.39,106.0,0.0,99.0,272.0,본동삼성래미안아파트,72488.83,028221162,18, ,20041021.0,14.0,477.0,18.0,41034.9986,6916.0,36764190,0,0,198288,0,0,9327,0,10199080,0,202401,서울특별시 동작구 본동 492-,37.5101431194272,126.949866584084
1159010400,아파트,혼합식,중앙난방,자치관리,분양,서울특별시 동작구 매봉로 134,765.0,본동제1구역제2지구주택개량재개발조합,서울특별시 동작구 본동 481- 본동신동아,0.0,신동아,A15606004,9,028261291,81054.9102,264.0,0.0,273.0,228.0,본동신동아,85044.0,028252318,12, ,19930626.0,16.0,765.0,12.0,61394.91,6906.0,36880471,0,100946170,179818,0,0,9880,4261,11314720,36772430,202401,서울특별시 동작구 본동 481-,37.5101470412624,126.951490881181
1159010400,아파트,혼합식,개별난방,위탁관리,분양,서울특별시 동작구 노량진로24길 2,161.0,본동재개발조합,서울특별시 동작구 본동 150- 한강쌍용,2.0,쌍용건설(주),A15606005,2,028226741,16420.37,32.0,0.0,81.0,48.0,한강쌍용,23192.16,028226740,17, ,19990430.0,4.0,161.0,17.0,12549.0,6906.0,9456440,0,0,39434,0,0,2326,0,2971890,0,202401,서울특별시 동작구 본동 150-,37.5123852255703,126.953050440254
1159010400,아파트,혼합식,개별난방,위탁관리,임대,서울특별시 동작구 매봉로 99,134.0,재개발,서울특별시 동작구 본동 488- 본동한신휴플러스제2,3.0,(주)한신,A15606006,1,028146976,10435.92,0.0,0.0,134.0,0.0,본동한신휴플러스제2,10438.46,028146975,18, ,20040807.0,2.0,134.0,18.0,4356.34,6916.0,3102760,0,0,36121,0,0,1330,0,1154040,0,202401,서울특별시 동작구 본동 488-,37.5092074718276,126.949130340547
1159010400,아파트,계단식,개별난방,위탁관리,혼합,서울특별시 동작구 노량진로23가길 23,523.0,본동5구역주택재개발정비사업조합,서울특별시 동작구 본동 494- 래미안트윈파크,3.0,삼성물산,A15606007,5,028150910,52125.79,104.0,0.0,203.0,216.0,래미안트윈파크,80008.23,028150900,29, ,20111104.0,10.0,523.0,29.0,40543.38,6902.0,50703670,0,0,260948,0,0,8903,0,9512980,0,202401,서울특별시 동작구 본동 494-,37.5133034686366,126.951782471081
1159010500,아파트,계단식,개별난방,위탁관리,분양,서울특별시 동작구 서달로1길 17,423.0,동양메이저건설,서울특별시 동작구 흑석동 328- 흑석동양,2.0,동양메이저건설,A15607001,7,028167476,41771.82,0.0,0.0,147.0,276.0,흑석동양,53118.232,028167477,17,www.dyapt.net,20031104.0,13.0,423.0,17.0,32204.846,6976.0,30033779,0,0,123536,0,0,0,0,0,0,202401,서울특별시 동작구 흑석동 328-,37.5007351675912,126.958669749605
1159010600,아파트,계단식,개별난방,위탁관리,분양,서울특별시 동작구 동작대로45길 22,178.0,공작파크재건축조합,서울특별시 동작구 동작동 332- 이수교스위첸,2.0,케이씨씨건설,A15608001,5,0234828583,21820.5,86.0,0.0,20.0,72.0,이수교스위첸,32003.0,0234828584,15, ,20060330.0,8.0,178.0,15.0,17793.94,6994.0,14409390,0,0,57531,0,0,0,0,0,0,202401,서울특별시 동작구 동작동 332-,37.4975350176003,126.981113975593
1159010600,아파트,계단식,개별난방,위탁관리,분양,서울특별시 동작구 동작대로39가길 55,276.0,태화연립조합,서울특별시 동작구 동작동 331- 동작금강KCC,1.0,주)KCC건설,A15608002,7,025915609,23894.93,32.0,0.0,21.0,223.0,동작금강KCC,38393.71,025915610,23, ,20031030.0,9.0,276.0,23.0,23894.93,6992.0,32057891,0,0,89877,0,0,4876,0,11711090,0,202401,서울특별시 동작구 동작동 331-,37.4935140700166,126.978842535666
1159010600,아파트,계단식,개별난방,위탁관리,분양,서울특별시 동작구 동작대로39길 22,680.0,정금마을재건축조합,서울특별시 동작구 동작동 333- 이수힐스테이트,2.0,현대건설,A15608003,15,025372170,80717.5534,173.0,33.0,171.0,303.0,이수힐스테이트,115589.0,025372083,15,isuhillstate.com,20130219.0,27.0,680.0,15.0,59856.36,6993.0,77729320,0,0,252806,0,0,11660,0,14110750,0,202401,서울특별시 동작구 동작동 333-,37.4946359814369,126.981965983395
1159010700,아파트,계단식,개별난방,위탁관리,분양,서울특별시 동작구 동작대로29길 195,151.0,사당제7주택 재개발조합,서울특별시 동작구 사당동 1155- 사당유니드,3.0,대성산업(주),A15609001,5,025330588,15206.71,0.0,0.0,27.0,124.0,사당유니드,23347.76,025330511,9,cafe.daum.net/sd-uneed,20090203.0,10.0,151.0,9.0,11568.59,6991.0,14403110,0,0,70981,0,0,0,0,0,0,202401,서울특별시 동작구 사당동 1155-,37.4932876140379,126.974985570967
1159010700,아파트,혼합식,개별난방,위탁관리,분양,서울특별시 동작구 사당로2가길 188,211.0,그린재건축조합,서울특별시 동작구 사당동 1138- 사당삼호그린,3.0,(주)삼호건설,A15609002,1,025834643,16298.8407,18.0,0.0,83.0,110.0,사당삼호그린,27671.55,025834642,17, ,19991016.0,5.0,211.0,17.0,16320.64,7031.0,13838775,0,0,58315,0,0,7644,0,8452190,0,202401,서울특별시 동작구 사당동 1138-,37.4864435205406,126.965524302043
1159010700,아파트,계단식,개별난방,위탁관리,분양,서울특별시 동작구 사당로16길 96,480.0,한국토지주택공사,서울특별시 동작구 사당동 1154- 사당휴먼시아,3.0,(주)서희건설,A15609003,8,025882779,49613.919,0.0,0.0,96.0,384.0,사당휴먼시아,64450.0,025882778,15, ,20090305.0,18.0,480.0,15.0,38308.12,7020.0,34154310,0,0,139829,0,0,7838,0,10066480,0,202401,서울특별시 동작구 사당동 1154-,37.4794961082029,126.970140515548
1159010700,아파트,계단식,중앙난방,위탁관리,분양,서울특별시 동작구 사당로17길 52,1152.0,대림산업,서울특별시 동작구 사당동 169-8 사당 대림아파트,0.0,대림산업,A15609005,12,025946447,135400.5,420.0,0.0,162.0,570.0,사당 대림아파트,136437.05,025939580,15,사당대림.apti.co.kr,19900807.0,35.0,1152.0,15.0,110733.24,7005.0,74314450,0,185999810,340442,0,1498530,0,7213,4923820,44534600,202401,서울특별시 동작구 사당동 169-8,37.4874248960085,126.973152502209
1159010700,아파트,혼합식,지역난방,위탁관리,혼합,서울특별시 동작구 동작대로29길 118,333.0,신동아건설(주),서울특별시 동작구 사당동 1137- 신동아5,0.0,신동아건설(주),A15609006,4,025996156,30096.67,66.0,0.0,177.0,90.0,신동아5,35030.57,025996159,19,www.shindonga5.com,19981120.0,8.0,333.0,19.0,22789.77,6998.0,24772870,0,27000870,136344,0,14170,4450,1755,6781600,10530180,202401,서울특별시 동작구 사당동 1137-,37.4910414805382,126.977148222194
1159010700,아파트,계단식,개별난방,위탁관리,분양,서울특별시 동작구 사당로27길 130,452.0,사당동 지역주택조합,서울특별시 동작구 사당동 1157- 이수역리가,3.0,LIG건설,A15609007,8,025323507,48868.62,0.0,0.0,0.0,452.0,이수역리가,75491.2549,025323506,17, ,20130924.0,1.0,452.0,17.0,38380.3692,7000.0,38683450,0,0,149028,0,0,16523,0,18064550,0,202401,서울특별시 동작구 사당동 1157-,37.4898294436805,126.972880828734
1159010700,아파트,복도식,,자치관리,분양,서울 동작구 사당로 165,120.0,대아아파트,서울특별시 동작구 사당동 1135- 사당대아2차,3.0,대아아파트,A15609008,1,0263328849,11926.16,0.0,0.0,64.0,56.0,사당대아2차,16018.96,025358849,19, ,19980530.0,2.0,120.0,19.0,8591.36,,0,0,0,0,0,0,0,0,0,0,202401,서울특별시 동작구 사당동 1135-,37.487412281918,126.967748860871
1159010700,아파트,계단식,개별난방,위탁관리,분양,서울특별시 동작구 사당로27길 181,223.0,남성재건축조합,서울특별시 동작구 사당동 1149- 사당롯데캐슬,1.0,롯데건설(주),A15609301,4,025370678,19590.4,25.0,0.0,0.0,198.0,사당롯데캐슬,31057145.0,0234767786,15, ,20040922.0,8.0,223.0,15.0,19534.249,6989.0,15524360,309470,0,70832,0,0,8583,0,8667810,0,202401,서울특별시 동작구 사당동 1149-,37.4905514867955,126.971626109522
1159010700,아파트,혼합식,개별난방,자치관리,분양,서울특별시 동작구 사당로9가길 82,340.0,대아건설,서울특별시 동작구 사당동 1134- 사당경남아너스빌,2.0,대아건설,A15609303,3,025925889,26805.8,52.0,0.0,144.0,144.0,사당경남아너스빌,45527.273,025925644,18, ,19970228.0,8.0,340.0,18.0,26805.8,6988.0,21126450,140470,0,91721,0,0,0,0,0,0,202401,서울특별시 동작구 사당동 1134-,37.488281495026,126.967133941149
1159010700,아파트,계단식,개별난방,위탁관리,분양,서울특별시 동작구 사당로27길 190,444.0,삼익아파트재건축조합,서울특별시 동작구 사당동 1132- 사당롯데캐슬샤인,3.0,롯데건설,A15609305,7,0234823738,57136.44,134.0,114.0,0.0,196.0,사당롯데캐슬샤인,87764.67,0234813737,20, ,20031017.0,12.0,444.0,20.0,49701.22,6989.0,37567891,0,0,145770,0,0,8337,0,9059700,0,202401,서울특별시 동작구 사당동 1132-,37.490957111073,126.971587397179
1159010700,아파트,계단식,개별난방,위탁관리,분양,서울특별시 동작구 사당로23바길 9,896.0,삼성물산,서울특별시 동작구 사당동 1133- 사당동작삼성래미안아파트,3.0,삼성물산,A15609306,18,025923465,114737.1872,314.0,40.0,0.0,542.0,사당동작삼성래미안아파트,155858.437,025933465,20, ,20030215.0,24.0,896.0,20.0,86503.134,7002.0,64946413,0,0,282789,0,0,31516,0,39030270,0,202401,서울특별시 동작구 사당동 1133-,37.4896096841076,126.969190174402
1159010700,아파트,계단식,개별난방,위탁관리,분양,서울특별시 동작구 남부순환로255길 21,183.0,삼익건설,서울특별시 동작구 사당동 1150- 사당삼익그린뷰,2.0,삼익건설,A15609401,2,025252810,19484.502,32.0,0.0,39.0,112.0,사당삼익그린뷰,26617.3746,025250810,16, ,20031002.0,6.0,183.0,16.0,15336.8515,7021.0,12979400,0,0,56660,0,0,3494,0,4053050,0,202401,서울특별시 동작구 사당동 1150-,37.4773760711899,126.968891191178
1159010700,아파트,복도식,개별난방,위탁관리,분양,서울특별시 동작구 사당로16다길 57,296.0,제일건축,서울특별시 동작구 사당동 240-15 사당제일,0.0,제일건축,A15609501,3,025834546,17768.88,0.0,0.0,0.0,296.0,사당제일,25716.56,025834526,10, ,19870213.0,3.0,296.0,10.0,17768.88,7019.0,13413820,0,0,84354,0,0,0,0,0,0,202401,서울특별시 동작구 사당동 240-15,37.4826874348797,126.969254071316
1159010700,아파트,혼합식,개별난방,위탁관리,분양,서울특별시 동작구 사당로2가길 102,719.0,해병주택재건축조합,서울특별시 동작구 사당동 1139- 사당자이,3.0,엘지건설(주),A15609502,9,0262644450,74435.9649,172.0,0.0,329.0,218.0,사당자이,76425.0,0234861182,25,사당자이.apti.co.kr,19991228.0,17.0,719.0,25.0,57908.48,7028.0,47931171,0,0,214365,0,0,11942,0,13461050,0,202401,서울특별시 동작구 사당동 1139-,37.4883730263155,126.96341744773
1159010900,아파트,혼합식,개별난방,위탁관리,분양,서울특별시 동작구 신대방1가길 38,545.0,에스엘종합건설(주),서울특별시 동작구 신대방동 719- 동작상떼빌주상복합,4.0,성원건설(주),A15670001,4,0232891114,62251.49,349.0,0.0,0.0,196.0,동작상떼빌주상복합,122425.83,0232891113,28,dj-stv.com,20060825.0,8.0,545.0,28.0,62251.49,7072.0,64577150,0,0,202829,0,0,10179,0,12186540,0,202401,서울특별시 동작구 신대방동 719-,37.487900996008,126.906939551385
1159010200,아파트,계단식,개별난방,위탁관리,분양,서울특별시 동작구 상도로30길 39,190.0,아이앤디개발(주),서울특별시 동작구 상도동 529- 상도두산위브,2.0,두산중공업(주),A15671801,4,028130042,16468.135,10.0,0.0,0.0,180.0,상도두산위브,31702.997,028130041,18,없음,20100315.0,8.0,190.0,18.0,16468.135,6964.0,17267000,0,0,62869,2151,0,3247,0,3939040,0,202401,서울특별시 동작구 상도동 529-,37.5047956242888,126.942297308681
1159010900,아파트,복도식,개별난방,위탁관리,분양,서울특별시 동작구 보라매로5길 5,199.0,우성건설,서울특별시 동작구 신대방동 706- 보라매우성,4.0,우성건설,A15672001,2,028353382,23057.891,54.0,0.0,87.0,58.0,보라매우성,32438.458,028313382,22, ,19951114.0,4.0,199.0,22.0,16422.16,7071.0,13945925,0,0,55347,0,0,0,0,0,0,202401,서울특별시 동작구 신대방동 706-,37.4923884716229,126.925359044805
1159010900,주상복합,계단식,개별난방,위탁관리,분양,서울특별시 동작구 보라매로5길 43,246.0,삼성중공업,서울특별시 동작구 신대방동 395-66 보라매삼성쉐르빌,4.0,삼성중공업,A15672002,1,028485204,68241.72,74.0,172.0,0.0,0.0,보라매삼성쉐르빌,76592.73,028485203,49,보라매삼성쉐르빌.apti.co.kr,20030103.0,8.0,246.0,49.0,37102.42,7071.0,38028000,0,0,103887,0,0,4669,0,5480940,0,202401,서울특별시 동작구 신대방동 395-66,37.4914310798968,126.923417000996
1159010800,아파트,복도식,중앙난방,위탁관리,임대,서울특별시 동작구 여의대방로44길 47,925.0,LH,서울특별시 동작구 대방동 503- 대방주공1단지,0.0,"동양고속,신태진건설",A15676512,5,028179469,40794.03,0.0,0.0,925.0,0.0,대방주공1단지,45044.24,028249974,15,www.kohom.co.kr,19930418.0,12.0,925.0,15.0,28233.45,6942.0,7665670,0,45746471,21650,0,59122,2601,2601,0,7803000,202401,서울특별시 동작구 대방동 503-,37.5099235104732,126.930418625519
1159010100,아파트,복도식,개별난방,위탁관리,임대,서울특별시 동작구 만양로 19,925.0,상도제1구역 재개발조합,서울특별시 동작구 노량진동 326- 신동아리버파크제2관리사무소,0.0,신동아,A15676701,3,0232805301,54256.16,0.0,0.0,925.0,0.0,신동아리버파크제2관리사무소,54276.78,0232805300,25,www.i-sh.co.kr/apthomepage/MB01_main.jsp?deptid=70162,20010215.0,12.0,925.0,25.0,30303.0,6920.0,30944748,0,0,233512,0,0,10045,0,6166380,0,202401,서울특별시 동작구 노량진동 326-,37.5070717430905,126.945718197277
1159010400,아파트,복도식,개별난방,위탁관리,임대,서울특별시 동작구 노량진로22길 60,176.0,본동4구역재개발임대아파트건설공사,서울특별시 동작구 본동 490- 본동SH-ville,2.0,(주)C&우방,A15676702,1,028244274,7788.0,0.0,0.0,176.0,0.0,본동SH-ville,13308.0,028227923,17,SH공사홈페이지,20061103.0,0.0,176.0,17.0,5320.48,6915.0,3629530,0,0,32413,0,0,1833,0,1841190,0,202401,서울특별시 동작구 본동 490-,37.5107890642112,126.949689254453
1159010700,아파트,혼합식,중앙난방,위탁관리,분양,서울특별시 동작구 동작대로29길 110,912.0,...,서울특별시 동작구 사당동 105- 사당신동아4단지,0.0,신동아건설,A15677204,8,025353278,91645.503,240.0,0.0,465.0,207.0,사당신동아4단지,91645.503,025951977,15, ,19931221.0,15.0,912.0,15.0,71938.17,6998.0,38189420,0,105726860,208566,0,28349,10197,3786,11829800,25552250,202401,서울특별시 동작구 사당동 105-,37.489824423368,126.977745172841
1159010700,아파트,계단식,개별난방,위탁관리,혼합,서울특별시 동작구 사당로13길 31,451.0,영아아파트조합,서울특별시 동작구 사당동 1131- 남성두산위브트레지움,3.0,두산건설,A15677501,4,025333965,52230.64,104.0,0.0,91.0,256.0,남성두산위브트레지움,76792.0,025333964,28, ,20111028.0,9.0,451.0,28.0,39340.2583,7004.0,44171730,0,0,156687,0,0,8243,0,9484350,0,202401,서울특별시 동작구 사당동 1131-,37.4858029952773,126.971254780365
1159010200,아파트,혼합식,개별난방,위탁관리,분양,서울특별시 동작구 사당로2길 2-32,194.0,상도연합주택조합,서울특별시 동작구 상도동 412- 상도현대,2.0,현대건설,A15678101,2,028138156,18638.42,0.0,0.0,99.0,95.0,상도현대,21098.0,028132231,15, ,20030616.0,5.0,194.0,15.0,13984.55,7027.0,12724120,0,0,72833,0,0,0,0,0,0,202401,서울특별시 동작구 상도동 412-,37.494199127909,126.959570309037
1159010200,아파트,혼합식,중앙난방,위탁관리,혼합,서울특별시 동작구 상도로 407,682.0,삼호건설,서울특별시 동작구 상도동 408- 상도삼호,3.0,삼호건설,A15678102,5,0262656521,66203.05,204.0,0.0,221.0,257.0,상도삼호,81197.0,02-825-6525,17, ,19940225.0,16.0,682.0,17.0,52353.09,7026.0,38389693,0,124757035,160292,0,0,7426,2870,12865970,0,202401,서울특별시 동작구 상도동 408-,37.4939173850834,126.95777327345
1159010200,아파트,계단식,개별난방,위탁관리,분양,서울특별시 동작구 상도로 346-1,1559.0,상도134지역주택조합,서울특별시 동작구 상도동 531- 힐스테이트상도센트럴파크,0.0,현대엠코,A15678103,22,028268904,172423.382,239.0,0.0,241.0,1079.0,힐스테이트상도센트럴파크,251674.0,028268901,18,amcocentralpark.co.kr,20120925.0,47.0,1559.0,18.0,134028.4378,7039.0,150953567,0,0,554789,0,0,28205,0,31978270,0,202401,서울특별시 동작구 상도동 531-,37.4967899772343,126.951667453182
1159010500,아파트,혼합식,개별난방,위탁관리,분양,서울특별시 동작구 서달로 83,206.0,경수재건축조합,서울특별시 동작구 흑석동 329- 우리유앤미,2.0,우리건설,A15679103,2,028127542,20097.84,24.0,0.0,89.0,93.0,우리유앤미,27096.681,028127541,17, ,20031226.0,6.0,206.0,17.0,15827.2671,6976.0,12804072,0,0,58832,0,0,3265,2146,4784140,0,202401,서울특별시 동작구 흑석동 329-,37.5004290569295,126.959863359852
1159010500,아파트,복도식,개별난방,위탁관리,혼합,서울특별시 동작구 서달로2길 29,346.0,서울특별시 도시개발공사,서울특별시 동작구 흑석동 327- 흑석청호,0.0,(주)해강,A15679104,5,028175142,23233.65,0.0,0.0,346.0,0.0,흑석청호,23233.65,028175152,14, ,19971014.0,2.0,346.0,14.0,16286.4,6986.0,12087697,320230,0,69761,0,0,0,0,0,0,202401,서울특별시 동작구 흑석동 327-,37.5019032323692,126.962734780596
1159010500,아파트,혼합식,중앙난방,위탁관리,분양,서울특별시 동작구 현충로 119,660.0,주택조합,서울특별시 동작구 흑석동 10- 명수대현대아파트,0.0,현대산업개발,A15679105,8,028247021,87517.65,270.0,60.0,0.0,330.0,명수대현대아파트,91430.0,028160300,15,명수대현대.apti.co.kr,19880829.0,21.0,660.0,15.0,67289.1,6904.0,55357375,0,168607340,191385,6990,0,11683,3470,13463200,0,202401,서울특별시 동작구 흑석동 10-,37.5082713465255,126.967258187125
1159010500,주상복합,혼합식,개별난방,위탁관리,분양,서울특별시 동작구 서달로 150,154.0,흑석시장재개발정비사업조합,서울특별시 동작구 흑석동 332- 흑석해가든,5.0,이랜드건설(주),A15679106,1,028254401,20044.16,92.0,0.0,0.0,62.0,흑석해가든,20044.16,028254400,20, ,20101229.0,2.0,154.0,20.0,15251.64,6980.0,14281960,0,0,71744,0,0,5231,0,5870360,0,202401,서울특별시 동작구 흑석동 332-,37.5066265781961,126.962183786625
1159010500,아파트,혼합식,개별난방,위탁관리,혼합,서울특별시 동작구 흑석한강로 12,655.0,동부건설(주),서울특별시 동작구 흑석동 335- 흑석한강센트레빌,3.0,흑석5구역재개발조합,A15679107,10,028128847,70868.74,126.0,0.0,138.0,391.0,흑석한강센트레빌,112883.86,028128846,20,www.hshg.kr,20110916.0,20.0,655.0,20.0,54329.68,6981.0,62154320,0,0,300858,0,0,12054,0,13302620,0,202401,서울특별시 동작구 흑석동 335-,37.5051798359323,126.964512513845
1159010500,아파트,혼합식,개별난방,위탁관리,혼합,서울특별시 동작구 흑석한강로 27,863.0,흑석4구역재정비조합,서울특별시 동작구 흑석동 336- 흑석한강푸르지오,4.0,대우건설,A15679108,14, ,71696.9,170.0,0.0,175.0,518.0,흑석한강푸르지오,152758.26,028230300,19,서울흑석동한강푸르지오.apti.co.kr/aptHome/,20120802.0,33.0,863.0,19.0,71714.84,6981.0,84919358,0,0,303168,0,0,14402,0,16479340,0,202401,서울특별시 동작구 흑석동 336-,37.5040994188129,126.966284444741
1159010500,아파트,계단식,개별난방,위탁관리,혼합,서울특별시 동작구 서달로 91,963.0,흑석6재정비구역 주택재개발정비사업조합,서울특별시 동작구 흑석동 339- 흑석한강센트레빌2차,4.0,동부건설(주),A15679109,14,028160111,106618.39,159.0,32.0,213.0,559.0,흑석한강센트레빌2차,167101.0,028160088,20,www.흑석한강센트레빌2.com,20121224.0,34.0,963.0,20.0,81393.655,6975.0,91792180,0,0,341187,0,0,16049,0,18038320,0,202401,서울특별시 동작구 흑석동 339-,37.5031656177406,126.958890979647
1159010800,아파트,계단식,개별난방,위탁관리,분양,서울특별시 동작구 여의대방로62길 23,206.0,(주) 태욱건설,서울특별시 동작구 대방동 505- 대방우정,2.0,(주) 우정건설,A15681103,2,028150052,20548.704,0.0,0.0,78.0,128.0,대방우정,26306.0,028150051,23, ,19990122.0,0.0,206.0,23.0,15500.22,6900.0,13380470,0,0,77608,0,0,0,0,0,0,202401,서울특별시 동작구 대방동 505-,37.5142802553226,126.929405629496
1159010800,아파트,혼합식,개별난방,위탁관리,분양,서울특별시 동작구 알마타길 58,278.0,주택조합,서울특별시 동작구 대방동 506- 대방2차현대,2.0,현대건설,A15681104,5,028136424,30146.96,38.0,22.0,134.0,84.0,대방2차현대,37875.62,028136424,19,hydae2.apti.co.kr,19991209.0,6.0,278.0,19.0,23133.7,6942.0,16658187,0,0,75304,0,0,4652,0,5447880,0,202401,서울특별시 동작구 대방동 506-,37.5108166521475,126.931146537859
1159010800,아파트,계단식,개별난방,위탁관리,분양,서울특별시 동작구 여의대방로44길 9,487.0,성원건설,서울특별시 동작구 대방동 500- 대방성원,0.0,성원건설,A15681105,3,028231320,41063.84,0.0,0.0,0.0,487.0,대방성원,54733.93,028231319,26, ,19940115.0,11.0,487.0,26.0,41063.84,6941.0,36978005,645810,0,148001,0,0,0,0,395600,0,202401,서울특별시 동작구 대방동 500-,37.5097308417301,126.925917819653
1159010800,아파트,혼합식,개별난방,위탁관리,분양,서울특별시 동작구 등용로 127,514.0,한일은행조합외5개 조합,서울특별시 동작구 대방동 502- 대방현대1차,3.0,현대건설(주),A15681106,5,028252191,60763.72,0.0,0.0,80.0,434.0,대방현대1차,60763.72,028252190,23,https://openapt.seoul.go.kr/manager/index.do,19940820.0,12.0,514.0,23.0,41659.84,6940.0,32136750,0,0,144325,0,0,0,0,348840,0,202401,서울특별시 동작구 대방동 502-,37.5125587415186,126.930988395318
1159010800,아파트,복도식,중앙난방,위탁관리,분양,서울특별시 동작구 여의대방로44길 47,798.0,대한주택공사,서울특별시 동작구 대방동 503- 대방주공2단지,1.0,유원건설,A15681108,10,028261262,62382.75,0.0,0.0,798.0,0.0,대방주공2단지,62382.75,028245436,15,http://,19950427.0,12.0,798.0,15.0,45292.77,6942.0,5174780,0,95545700,0,0,0,0,5858,1970000,29290000,202401,서울특별시 동작구 대방동 503-,37.5099235104732,126.930418625519
1159010800,아파트,혼합식,중앙난방,위탁관리,분양,서울특별시 동작구 여의대방로44길 10,1628.0,대림산업(주),서울특별시 동작구 대방동 501- 대방대림,1.0,대림산업(주),A15681110,14,028269999,200089.494,298.0,190.0,570.0,570.0,대방대림,241528.058,028262970,19, ,19931120.0,36.0,1628.0,19.0,153829.8,6943.0,56462946,247101200,232911527,747678,311617,1418,27855,8754,35315530,50773200,202401,서울특별시 동작구 대방동 501-,37.5073612178503,126.926090830361
1159010700,아파트,혼합식,중앙난방,위탁관리,분양,서울특별시 동작구 동작대로29길 115,855.0,우성건설(주),서울특별시 동작구 사당동 105- 사당우성(4-3)아파트,1.0,우성건설(주),A15681501,6,025946753,90542.4,330.0,0.0,375.0,150.0,사당우성(4-3)아파트,90542.4,025327430,15,https://openapt.seoul.go.kr/,19931221.0,16.0,855.0,15.0,69742.8,6990.0,45339030,0,133397300,195393,0,0,9389,4147,11600910,20735000,202401,서울특별시 동작구 사당동 105-,37.4904171794387,126.975825319818
1159010700,아파트,혼합식,중앙난방,위탁관리,분양,서울특별시 동작구 동작대로29길 91,1080.0,사당4-2공구 재개발 조합,서울특별시 동작구 사당동 105- 사당우성2단지,0.0,우성건설,A15681502,8,025965941,120922.3005,390.0,0.0,405.0,285.0,사당우성2단지,121345.404,025371786,15, ,19931221.0,21.0,1080.0,15.0,91614.75,6999.0,61198242,0,195993160,260213,0,10194,17842,4689,22226180,28134000,202401,서울특별시 동작구 사당동 105-,37.4880289275169,126.97651661753
1159010700,아파트,혼합식,중앙난방,위탁관리,분양,서울특별시 동작구 동작대로29길 119,1550.0,사당4-1구역 재개발조합,서울특별시 동작구 사당동 105- 사당극동,1.0,극동건설,A15681503,12,025999603,177940.987,714.0,0.0,476.0,360.0,사당극동,177942.0,025957010,20, ,19931221.0,35.0,1550.0,20.0,137745.46,6990.0,105182410,0,177464610,405525,0,82961,17111,7817,26159780,55266190,202401,서울특별시 동작구 사당동 105-,37.4908886337091,126.976056747281
1159010700,아파트,혼합식,개별난방,자치관리,분양,서울특별시 동작구 사당로17길 111,265.0,현대산업개발,서울특별시 동작구 사당동 169-32 사당현대아파트,1.0,현대산업개발,A15681802,2,025946925,27305.7775,90.0,0.0,175.0,0.0,사당현대아파트,28126.52,025946928,15, ,19910424.0,5.0,265.0,15.0,21088.2,7002.0,14688479,0,0,62857,0,0,0,0,0,0,202401,서울특별시 동작구 사당동 169-32,37.4877461448563,126.970665952811
1159010200,아파트,계단식,개별난방,위탁관리,분양,서울특별시 동작구 상도로 320,544.0,상도동연합주택조합,서울특별시 동작구 상도동 415- 상도동중앙하이츠빌아파트,3.0,(주)중앙건설,A15683402,10,0267466752,50277.1654,124.0,0.0,30.0,390.0,상도동중앙하이츠빌아파트,90284.74,028136752,25, ,20031030.0,17.0,544.0,25.0,50277.0244,7033.0,45632752,0,0,180165,0,0,10479,0,12198890,0,202401,서울특별시 동작구 상도동 415-,37.4998071623847,126.949902106763
1159010200,아파트,복도식,개별난방,위탁관리,분양,서울특별시 동작구 상도로60길 20,279.0,직장조합,서울특별시 동작구 상도동 411- 상도1동대림,6.0,대림산업(주),A15683601,3,028267279,22014.0,0.0,0.0,0.0,279.0,상도1동대림,40787.36,028177279,15, ,19951204.0,5.0,279.0,15.0,22403.31,7040.0,17053454,192410,0,75766,0,0,0,0,0,0,202401,서울특별시 동작구 상도동 411-,37.4931862305767,126.953260462544
1159010200,아파트,계단식,개별난방,위탁관리,분양,서울특별시 동작구 상도로 107,389.0,상도3구역주택재개발조합,서울특별시 동작구 상도동 418- 상도쌍용,2.0,쌍용건설,A15683901,6,028122473,40122.32,86.0,0.0,124.0,179.0,상도쌍용,40422.0,028122472,15, ,20031120.0,15.0,389.0,15.0,32290.381,6952.0,27079445,0,0,114071,0,0,12921,0,15043690,0,202401,서울특별시 동작구 상도동 418-,37.502402302074,126.931069219375
1159010900,아파트,복도식,개별난방,자치관리,분양,서울특별시 동작구 여의대방로 8,174.0,우성종합건설(주),서울특별시 동작구 신대방동 565-21 신대방우성2차,2.0,우성종합건설(주),A15685201,2,028488857,19638.3,0.0,38.0,65.0,71.0,신대방우성2차,24661.06,028488864,19, ,19950119.0,0.0,174.0,19.0,15269.11,7065.0,2727440,5530,0,0,0,0,0,0,0,0,202401,서울특별시 동작구 신대방동 565-21,37.493103626852,126.910601498561
1159010900,아파트,혼합식,개별난방,자치관리,분양,서울특별시 동작구 여의대방로 22,1335.0,우성건설,서울특별시 동작구 신대방동 565- 신대방우성1차,1.0,우성건설,A15685206,16,028463971,142320.75,520.0,180.0,0.0,635.0,신대방우성1차,178768.0,028484912,20, ,19880924.0,33.0,1335.0,20.0,142320.75,7065.0,88173610,0,0,417179,0,0,26512,0,31293260,0,202401,서울특별시 동작구 신대방동 565-,37.4910969139998,126.911813692107
1159010900,아파트,계단식,개별난방,위탁관리,분양,서울특별시 동작구 여의대방로10길 59,423.0,sh공사,서울특별시 동작구 신대방동 711- 보라매파크빌,2.0,한일건설,A15685503,6,028416418,35840.76,0.0,0.0,0.0,423.0,보라매파크빌,57603.24,028416417,15, ,20020227.0,11.0,423.0,15.0,35840.76,7063.0,29509780,0,0,128504,0,0,17430,0,19270500,0,202401,서울특별시 동작구 신대방동 711-,37.4951147341406,126.915079645129
1159010500,아파트,혼합식,중앙난방,위탁관리,분양,서울특별시 동작구 현충로 151,960.0,현대건설,서울특별시 동작구 흑석동 28- 흑석한강현대,0.0,현대건설,A15685702,13,028174201,114249.6,390.0,0.0,0.0,570.0,흑석한강현대,118020.26,028126812,15, ,19880907.0,26.0,960.0,15.0,90612.75,6904.0,66963129,0,185001670,255858,0,0,11229,4902,22278680,0,202401,서울특별시 동작구 흑석동 28-,37.5067786538055,126.968934187019
