bjdCode,codeAptNm,codeHallNm,codeHeatNm,codeMgrNm,codeSaleNm,address,hoCnt,kaptAcompany,kaptAddr,kaptBaseFloor,kaptBcompany,kaptCode,kaptDongCnt,kaptFax,kaptMarea,kaptMparea_135,kaptMparea_136,kaptMparea_60,kaptMparea_85,kaptName,kaptTarea,kaptTel,kaptTopFloor,kaptUrl,kaptUsedate,kaptdEcntp,kaptdaCnt,ktownFlrNo,privArea,zipcode,전기사용금액,가스사용금액,난방사용금액,전기사용량,가스사용량,난방사용량,냉수사용량,온수사용량,냉수사용금액,온수사용금액,집계날짜,cleaned_address,lat,lon
1144010500,아파트,계단식,지역난방,위탁관리,분양,서울 마포구 토정로32길 6,141.0,대요아파트재건축조함,서울특별시 마포구 용강동 501- 마포대림2차e-편한세상아파트,1.0,대림건설,A10021282,1,027023152,12400.08,36.0,0.0,31.0,74.0,마포대림2차e-편한세상아파트,20321.0,027023153,20, ,20040608.0,3.0,141.0,,,,0,0,0,0,0,0,0,0,0,0,202401,서울특별시 마포구 용강동 501-,37.5409223585767,126.940755626564
1144010800,아파트,혼합식,개별난방,자치관리,분양,서울 마포구 독막로 288,126.0,세양건설,서울특별시 마포구 대흥동 802- 대흥동 세양아파트,3.0,세양건설,A10021649,1, ,13878.04,75.0,17.0,0.0,34.0,대흥동 세양아파트,14524.0,027156928,1, ,20000318.0,,126.0,,,,0,0,0,0,0,0,0,0,0,0,202401,서울특별시 마포구 대흥동 802-,37.5445556054461,126.944969203076
1144012500,,계단식,개별난방,위탁관리,분양,서울 마포구 모래내로3길 2,127.0,(주)동성건설,서울특별시 마포구 성산동 597- 성산동성아파트,0.0,(주)동성 건설,A10022213,1, ,12640.02,86.0,0.0,0.0,41.0,성산동성아파트,17627.0,023724660,0, ,19990831.0,4.0,127.0,,,,0,0,0,0,0,0,0,0,0,0,202401,서울특별시 마포구 성산동 597-,37.5646458346416,126.905725991837
1144010500,,계단식,지역난방,위탁관리,분양,서울 마포구 마포대로1길 21,123.0,대림산업,서울특별시 마포구 용강동 500- 마포대림1차,1.0,대림산업,A10022303,3, ,20295.0,0.0,123.0,0.0,0.0,마포대림1차,20295.0,027025691,22, ,20021025.0,,123.0,,,,0,0,0,0,0,0,0,0,0,0,202401,서울특별시 마포구 용강동 500-,37.5398617976593,126.942222434291
1144012300,,복도식,개별난방,위탁관리,분양,서울 마포구 월드컵로29길 68,105.0,모름,서울특별시 마포구 망원동 433-9 망원미원2차아파트,1.0,(주)미원건설,A10022359,1, ,9297.67,47.0,0.0,2.0,56.0,망원미원2차아파트,11979.0,023241720,10,없슴,19970430.0,,105.0,,,,0,0,0,0,0,0,0,0,0,0,202401,서울특별시 마포구 망원동 433-9,37.5589063136463,126.902297801902
1144012600,,혼합식,개별난방,위탁관리,분양,서울 마포구 성암로5길 12,102.0,중동한우연립재건축사업조합,서울특별시 마포구 중동 395- 중동 동원월드타운아파트,2.0,(주)동원주택건설,A10022429,2,023050579,11329.0,45.0,26.0,0.0,31.0,중동 동원월드타운아파트,16518.0,023050509,16, ,20040922.0,,102.0,,,,0,0,0,0,0,0,0,0,0,0,202401,서울특별시 마포구 중동 395-,37.5702222818858,126.909533657773
1144010100,,타워형,개별난방,위탁관리,분양,서울 마포구 마포대로 201,120.0,삼성물산,서울특별시 마포구 아현동 738- 마포트라팰리스2,4.0,삼성물산,A10022480,2,023930134,25800.0,0.0,120.0,0.0,0.0,마포트라팰리스2,25895.0,023930132,22, ,20080718.0,,120.0,,,,0,0,0,0,0,0,0,0,0,0,202401,서울특별시 마포구 아현동 738-,37.5522161008194,126.95550374204
1144010100,,혼합식,개별난방,위탁관리,혼합,서울특별시 마포구 마포대로 231,239.0,(주)테라윈미래아현PFV,서울특별시 마포구 아현동 275-2 마포푸르지오더센트럴,6.0,대우건설,A10022941,1,023629665,13102.72,0.0,0.0,239.0,0.0,마포푸르지오더센트럴,27327.0,023629664,18, ,20231031.0,6.0,239.0,18.0,9394.69,4117.0,12683350,0,0,29846,0,0,1319,0,1677300,0,202401,서울특별시 마포구 아현동 275-2,37.5544939950533,126.956447146807
1144011000,아파트,복도식,개별난방+기타,위탁관리,임대,서울특별시 마포구 서강로 121,151.0,이지스개발투자회사,서울특별시 마포구 노고산동 56-74 맹그로브신촌,6.0,(주)한신공영,A10022963,1, ,3242.04,0.0,0.0,151.0,0.0,맹그로브신촌,13520.0,023389047,13, ,20230106.0,3.0,151.0,13.0,3242.04,4057.0,4977831,0,7763750,15178,0,7864,899,431,1010080,422440,202401,서울특별시 마포구 노고산동 56-74,37.5539463245275,126.934014355442
1144010200,아파트,복도식,개별난방,위탁관리,임대,서울특별시 마포구 백범로31길 19,350.0,서울시,서울특별시 마포구 공덕동 370-4 공덕동 크로시티 행복주택,2.0,대우조선해양,A10023118,2, ,12473.7,0.0,0.0,350.0,0.0,공덕동 크로시티 행복주택,23018.06,0232752305,20, ,20230710.0,4.0,350.0,20.0,7150.24,4147.0,11892800,0,0,41014,547,0,1783,0,1919080,0,202401,서울특별시 마포구 공덕동 370-4,37.5462767640651,126.949144880615
1144010100,아파트,혼합식,개별난방,위탁관리,혼합,서울특별시 마포구 신촌로28길 8,1419.0,아현2구역주택재건축정비사업조합,서울특별시 마포구 아현동 804- 마포더클래시,4.0,"HDC현대산업개발(주), SK에코플랜트",A10023508,17,023136662,123193.18,0.0,0.0,1027.0,392.0,마포더클래시,209770.23,023136661,25, ,20221129.0,42.0,1419.0,25.0,90160.42,4113.0,103368696,0,0,399358,5729,0,18540,0,20475830,0,202401,서울특별시 마포구 아현동 804-,37.5561679924783,126.948890081163
1144012300,아파트,계단식,개별난방,위탁관리,분양,서울 마포구 월드컵로31길 77,119.0,은행장미재건축조합,서울특별시 마포구 망원동 498- 우림 루미아트,1.0,우림건설,A10023665,1,023379872,11136.43,0.0,0.0,52.0,67.0,우림 루미아트,14264.0,023379872,15, ,20030321.0,5.0,119.0,15.0,8785.9226,,0,0,0,0,0,0,0,0,0,0,202401,서울특별시 마포구 망원동 498-,37.5597471018167,126.901081152787
1144012300,도시형 생활주택(아파트),혼합식,개별난방,위탁관리,분양,서울 마포구 방울내로 37,149.0,망원동 438재건축주택조합,서울특별시 마포구 망원동 522- 마포한강 J-SKY아파트,1.0,제이앤이건설(주),A10023755,2, ,9326.91,0.0,0.0,149.0,0.0,마포한강 J-SKY아파트,9435.885,0231447201,12, ,20190910.0,5.0,149.0,12.0,6679.909,,0,0,0,0,0,0,0,0,0,0,202401,서울특별시 마포구 망원동 522-,37.5589972238342,126.899189230648
1144012300,아파트,혼합식,개별난방,위탁관리,분양,서울 마포구 망원로4길 8,134.0,청와연립재건축조합,서울특별시 마포구 망원동 489- 망원성원2차아파트,0.0,성원건설,A10024150,1,023326479,13210.06,30.0,0.0,74.0,30.0,망원성원2차아파트,18354.28,023326479,15, ,19991229.0,3.0,134.0,15.0,10388.82,,0,0,0,0,0,0,0,0,0,0,202401,서울특별시 마포구 망원동 489-,37.556301773818,126.90161321405
1144010300,,타워형,개별난방,위탁관리,분양,서울특별시 마포구 백범로 202,122.0,KCC건설,서울특별시 마포구 신공덕동 171- 마포KCC웰츠타워,5.0,KCC건설,A10024334,2,027011587,26407.48,122.0,0.0,0.0,0.0,마포KCC웰츠타워,37138.42,027011588,31, ,20110526.0,0.0,122.0,31.0,13900.0,4196.0,0,0,0,0,0,0,0,0,0,0,202401,서울특별시 마포구 신공덕동 171-,37.5428481347733,126.952468627776
1144010900,아파트,계단식,개별난방,위탁관리,혼합,서울특별시 마포구 대흥로24길 24,1694.0,염리3구역주택재개발정비사업조합,서울특별시 마포구 염리동 507- 마포프레스티지자이아파트,5.0,GS건설,A10024347,18,0269535997,156603.1699,101.0,0.0,973.0,620.0,마포프레스티지자이아파트,256341.313,0269535996,27,mapop.aptner.com,20211230.0,52.0,1694.0,27.0,117649.87,4124.0,145662247,0,0,508655,0,0,24305,0,30371020,0,202401,서울특별시 마포구 염리동 507-,37.5539607082089,126.947610265434
1144010200,아파트,계단식,개별난방,위탁관리,혼합,서울특별시 마포구 백범로31길 7,306.0,마포로6 도시환경정비조합,서울특별시 마포구 공덕동 479- 공덕SK리더스뷰 1단지,4.0,sk건설,A10024408,3,027113851,36304.93,78.0,0.0,0.0,228.0,공덕SK리더스뷰 1단지,53469.09,027113850,28, ,20211118.0,9.0,306.0,28.0,27454.7,4147.0,32182419,0,0,110921,0,0,5181,0,6158980,0,202401,서울특별시 마포구 공덕동 479-,37.5452545904697,126.948750766953
1144011400,아파트,복도식,개별난방,위탁관리,임대,서울특별시 마포구 서강로 75-16,589.0,(주)이베데스다 제일호 위탁관리부동산 투자회사,서울특별시 마포구 창전동 19-8 이랜드PEER 신촌 청년주택,5.0,이랜드건설(주),A10024425,2,023257779,31596.4577,0.0,0.0,589.0,0.0,이랜드PEER 신촌 청년주택,35390.17,023257778,16,www.elandpeer.com,20210111.0,8.0,589.0,16.0,11581.71,4065.0,24461408,0,0,107565,0,0,4140,0,5098780,0,202401,서울특별시 마포구 창전동 19-8,37.5496213115505,126.931255709052
1144012400,아파트,혼합식,개별난방,자치관리,분양,서울특별시 마포구 동교로39길 11,128.0,대명건설,서울특별시 마포구 연남동 259-1 대명비발디아파트,2.0,대명건설,A10024587,1,023227022,12404.0,13.0,0.0,76.0,39.0,대명비발디아파트,15242.0,023227010,17, ,19951115.0,,128.0,17.0,9271.15,3984.0,0,0,0,0,0,0,0,0,0,0,202401,서울특별시 마포구 연남동 259-1,37.5617024149606,126.923614957999
1144010900,,혼합식,개별난방,위탁관리,분양,서울특별시 마포구 독막로42길 5,88.0,세양건설,서울특별시 마포구 염리동 522- 염리동세양청마루아파트,1.0,세양건설,A10024597,1,027110594,8359.92,0.0,0.0,30.0,58.0,염리동세양청마루아파트,10364.0,027110593,15, ,20050530.0,3.0,88.0,15.0,6374.36,4155.0,0,0,0,0,0,0,0,0,0,0,202401,서울특별시 마포구 염리동 522-,37.543021102042,126.946512967104
1144010200,아파트,복도식,,위탁관리,혼합,서울특별시 마포구 백범로31길 8,166.0,마포로6 도시환경정비사업조합,서울특별시 마포구 공덕동 480- 공덕SK리더스뷰 2단지,5.0,SK건설,A10024626,2,027183851,12886.57,9.0,0.0,130.0,27.0,공덕SK리더스뷰 2단지,34709.77,027183850,29, ,20211118.0,0.0,166.0,29.0,8731.47,4147.0,12478438,143170,0,37379,1105,0,1435,0,2319410,0,202401,서울특별시 마포구 공덕동 480-,37.5449942729365,126.949333367033
1144012000,아파트,계단식,,위탁관리,분양,서울특별시 마포구 홍익로 10,136.0,서교아파트 재건축조합,서울특별시 마포구 서교동 486- 서교푸르지오아파트,3.0,대우건설,A10024784,1, ,15640.0,136.0,0.0,0.0,0.0,서교푸르지오아파트,28825.0,0231415588,19, ,20041126.0,7.0,136.0,19.0,12574.9,4055.0,0,0,0,0,0,0,0,0,0,0,202401,서울특별시 마포구 서교동 486-,37.5537619785992,126.923693794834
1144012000,아파트,복도식,개별난방,위탁관리,임대,서울특별시 마포구 양화로 72,1121.0,SH/멀티에셋,서울특별시 마포구 서교동 494- 서교동 효성해링턴타워,5.0,효성중공업,A10024891,1,023352204,60482.6,0.0,0.0,913.0,0.0,서교동 효성해링턴타워,60483.0,023352203,24, ,20200423.0,8.0,913.0,24.0,27202.21,4044.0,36133579,0,0,143606,0,0,6644,0,7955010,0,202401,서울특별시 마포구 서교동 494-,37.5508138163956,126.916493990351
1144011100,아파트,혼합식,지역난방,위탁관리,혼합,서울특별시 마포구 광성로 17,1015.0,신수1주택재건축정비사업조합,서울특별시 마포구 신수동 93-102 신촌숲 아이파크 아파트,3.0,현대산업개발,A10024974,7,0232752339,108818.863,88.0,6.0,376.0,545.0,신촌숲 아이파크 아파트,167122.127,0232752337,35,https://신촌숲아이파크.apti.co.kr/aptHome/,20190829.0,24.0,1015.0,35.0,79270.86,4094.0,89737914,0,80234460,328222,0,708,16019,6674,19444380,55452850,202401,서울특별시 마포구 신수동 93-102,37.5503208717883,126.935286024774
1144010800,아파트,혼합식,개별난방,위탁관리,혼합,서울특별시 마포구 대흥로 175,1248.0,대흥2구역 주택재개발정비사업조합,서울특별시 마포구 대흥동 806- 마포그랑자이아파트,3.0,GS건설,A10025003,18,0232751906,118785.78,30.0,0.0,635.0,583.0,마포그랑자이아파트,177072.9,0232751905,23, ,20200221.0,43.0,1248.0,23.0,87304.82,4105.0,114858465,0,0,378890,0,0,16953,0,18418290,0,202401,서울특별시 마포구 대흥동 806-,37.5557712803285,126.943354906623
1144011400,아파트,타워형,,위탁관리,혼합,서울특별시 마포구 서강로3길 32,276.0,창전1구역 주택재건축정비사업조합,서울특별시 마포구 창전동 449- 마포 웨스트리버 태영데시앙아파트,3.0,태영건설,A10025633,4,023263301,29437.434,17.0,1.0,38.0,220.0,마포 웨스트리버 태영데시앙아파트,43400.0,023263300,21, ,20190524.0,4.0,276.0,21.0,22306.779,4065.0,24021940,0,0,92677,0,0,3882,0,4649950,0,202401,서울특별시 마포구 창전동 449-,37.5500177865994,126.930854061378
1144010700,아파트,혼합식,,위탁관리,분양,서울특별시 마포구 마포대로4길 90,133.0,(주) 보성,서울특별시 마포구 마포동 442- 마포 보성 아파트,2.0,(주) 보성,A10025672,2,0232740223,12579.5644,15.0,0.0,81.0,37.0,마포 보성 아파트,30549.0,0232740223,15, ,19961128.0,3.0,133.0,15.0,9670.7,4178.0,0,0,0,0,0,0,0,0,0,0,202401,서울특별시 마포구 마포동 442-,37.535962741687,126.946476371806
1144010900,아파트,혼합식,개별난방,위탁관리,혼합,서울특별시 마포구 숭문길 98,927.0,염리2구역 주택재개발정비사업 조합,서울특별시 마포구 염리동 45- 마포자이 더 센트리지 아파트,4.0,GS건설,A10026036,12,0232752128,88378.777,12.0,0.0,466.0,449.0,마포자이 더 센트리지 아파트,148606.0,0232752126,25, ,20180928.0,33.0,927.0,25.0,64520.55,4127.0,79019511,407010,0,265807,9850,0,14698,0,16906670,0,202401,서울특별시 마포구 염리동 45-,37.5502789649035,126.946615741024
1144012300,아파트,계단식,개별난방,위탁관리,분양,서울특별시 마포구 희우정로 77,385.0,망원1주택재건축정비사업조합,서울특별시 마포구 망원동 458-16 마포한강 아이파크,2.0,HDC현대산업개발,A10026053,6,023227514,40981.697,81.0,0.0,114.0,190.0,마포한강 아이파크,64221.51,023227510,18,https://마포한강아이파크.apti.co.kr,20190805.0,0.0,385.0,18.0,31845.35,4016.0,41043700,0,0,125993,0,0,5901,0,6951140,0,202401,서울특별시 마포구 망원동 458-16,37.5531729682225,126.902698099648
1144010100,아파트,계단식,개별난방,위탁관리,혼합,서울특별시 마포구 마포대로 246,497.0,아현1-3구역 재개발정비사업조합,서울특별시 마포구 아현동 802- 마포센트럴아이파크,4.0,현대산업개발,A10027090,6,023920228,51206.0,86.0,0.0,206.0,205.0,마포센트럴아이파크,78227.0319,023920226,29,ahyeonipark.com/,20171116.0,0.0,497.0,29.0,38231.36,4201.0,52722455,0,0,150083,0,0,7347,0,8810610,0,202401,서울특별시 마포구 아현동 802-,37.5553374570465,126.958555525058
1144012500,아파트,혼합식,개별난방,위탁관리,임대,서울특별시 마포구 성암로 28,362.0,한국토지주택공사,서울특별시 마포구 성산동 134-2 서울가좌행복주택,0.0,진흥개발(주),A10027157,1,023029473,21702.1791,0.0,0.0,362.0,0.0,서울가좌행복주택,24762.0,023029472,20, ,20161221.0,10.0,362.0,20.0,7020.05,3951.0,10222720,85850,0,39154,0,0,1748,0,1809220,0,202401,서울특별시 마포구 성산동 134-2,37.5691535548616,126.913300690329
1144012200,주상복합,계단식,개별난방,위탁관리,분양,서울특별시 마포구 월드컵로3길 14,198.0,주식회사 파나씨티,서울특별시 마포구 합정동 473- 마포한강2차푸르지오,6.0,(주)대우건설,A10027301,2,023232151,24569.7804,66.0,0.0,0.0,132.0,마포한강2차푸르지오,40497.56,023232107,36, ,20160714.0,4.0,198.0,36.0,18333.48,4024.0,30983875,0,0,79939,0,0,2619,0,3504200,0,202401,서울특별시 마포구 합정동 473-,37.5510079695241,126.91164899787
1144010300,아파트,타워형,개별난방,위탁관리,분양,서울특별시 마포구 백범로 212,132.0,국제신탁(주),서울특별시 마포구 신공덕동 173- 월드마크마포아파트,7.0,대우건설(주),A10027504,2,027072792,20065.16,78.0,54.0,0.0,0.0,월드마크마포아파트,31178.73,027072790,20, ,20111230.0,2.0,132.0,20.0,16257.94,4196.0,0,0,0,0,0,0,0,0,0,0,202401,서울특별시 마포구 신공덕동 173-,37.5424315097987,126.953365521963
1144012300,주상복합,계단식,개별난방,위탁관리,분양,경기도 고양시 덕양구 호국로 1000,130.0,"성산시장,교아건설",서울특별시 마포구 망원동 517- 마포영화블렌하임,2.0,영화건설,A10027572,3,023254802,18588.92,96.0,34.0,0.0,0.0,마포영화블렌하임,31841.11,023334801,13, ,20090918.0,6.0,130.0,13.0,14845.03,10292.0,0,0,0,0,0,0,0,0,0,0,202401,서울특별시 마포구 망원동 517-,37.6713004779435,126.851200601166
1144011200,아파트,계단식,지역난방,위탁관리,혼합,서울특별시 마포구 토정로 11,773.0,현석제2구역주택재개발정비사업조합,서울특별시 마포구 현석동 225- 래미안 웰스트림,3.0,삼성물산,A10027714,8, ,80967.52,96.0,0.0,300.0,377.0,래미안 웰스트림,125430.33,027025311,35, ,20160128.0,25.0,773.0,35.0,59293.12,4083.0,69847360,0,73345190,239161,0,624,12662,4764,14712530,30584880,202401,서울특별시 마포구 현석동 225-,37.5458984369327,126.912171711945
1144010200,주상복합,계단식,개별난방,위탁관리,분양,서울특별시 마포구 백범로 152,288.0,마포로1구역 제55지구 도시환경정비사업조합,서울특별시 마포구 공덕동 476- 공덕파크자이 아파트,3.0,GS건설(주),A10027748,4,027010857,34386.756,40.0,2.0,8.0,238.0,공덕파크자이 아파트,58168.0,027010855,23,없음,20150828.0,8.0,288.0,23.0,25694.2956,4148.0,32310395,83280,0,97213,0,0,5009,0,5366190,0,202401,서울특별시 마포구 공덕동 476-,37.5447477438441,126.948258201287
1144012200,주상복합,계단식,개별난방,위탁관리,분양,서울특별시 마포구 월드컵로1길 14,198.0,주)코리아신탁,서울특별시 마포구 합정동 472- 마포한강푸르지오,6.0,대우건설,A10027902,2,023232132,29555.14,66.0,66.0,0.0,66.0,마포한강푸르지오,49099.22,023232131,37, ,20150331.0,0.0,198.0,37.0,22550.22,4024.0,32338520,0,0,86033,0,0,3219,0,3775300,0,202401,서울특별시 마포구 합정동 472-,37.5500497954747,126.912061257921
1144010100,아파트,계단식,중앙난방,위탁관리,분양,서울특별시 마포구 마포대로24길 16,963.0,아현제4구역 주택 재개발 정비사업조합,서울특별시 마포구 아현동 800- 공덕자이 아파트,4.0,GS건설,A10027906,16,023133870,107990.52,201.0,0.0,285.0,477.0,공덕자이 아파트,167621.81,023137870,21,gongdeokxi.apti.co.kr,20150424.0,36.0,963.0,21.0,80750.37,4202.0,80019548,0,154309600,313025,0,903,16351,5572,19702330,27860000,202401,서울특별시 마포구 아현동 800-,37.5532221501231,126.959758222212
1144010100,아파트,복도식,개별난방,위탁관리,임대,서울특별시 마포구 마포대로26길 22,201.0,아현재4구역주택재개발정비사업조합,서울특별시 마포구 아현동 799- 공덕자이(임대),3.0,GS자이 건설,A10027951,2,023629400,19766.34,0.0,0.0,201.0,0.0,공덕자이(임대),19769.24,023628400,10, ,20150424.0,4.0,201.0,10.0,7316.4,4202.0,9253730,0,0,42860,0,0,2314,0,2281430,0,202401,서울특별시 마포구 아현동 799-,37.5546723572711,126.958860892411
1144010500,아파트,혼합식,지역난방,위탁관리,분양,서울특별시 마포구 토정로31길 24,547.0,용강제3구역주택재개발조합,서울특별시 마포구 용강동 508- e편한세상마포리버파크,2.0,대림산업(주),A10028006,9,027061121,53506.84,35.0,0.0,267.0,245.0,e편한세상마포리버파크,80034.38,027061120,21,마포리버파크.apti.co.kr,20161013.0,0.0,547.0,21.0,39754.91,4166.0,49739770,0,73879070,177949,0,440,8938,3796,9757500,-86810,202401,서울특별시 마포구 용강동 508-,37.5423425578858,126.943794032979
1144011500,아파트,계단식,지역난방,위탁관리,혼합,서울특별시 마포구 독막로20나길 22,429.0,상수제1구역주택재개발정비조합,서울특별시 마포구 상수동 402- 래미안밤섬리베뉴 Ⅰ,4.0,삼성물산주식회사,A10028177,6,023345559,46095.75,60.0,0.0,115.0,254.0,래미안밤섬리베뉴 Ⅰ,76200.54,023345601,25,raemianbsr6016,20141017.0,14.0,429.0,25.0,34443.54,4076.0,38433400,0,35502320,125149,0,295,7334,2846,8658030,29119220,202401,서울특별시 마포구 상수동 402-,37.5460936124582,126.924865001583
1144010100,아파트,혼합식,개별난방,위탁관리,분양,서울특별시 마포구 마포대로 262,208.0,재건축조합,서울특별시 마포구 아현동 692- 서서울삼성아파트,2.0,삼성중공업(주),A12101001,2,023649829,19778.684,0.0,0.0,84.0,124.0,서서울삼성아파트,23813.19,023631644,22, ,19981008.0,4.0,208.0,22.0,14635.64,4201.0,11640280,0,0,52717,0,0,2997,0,3674590,0,202401,서울특별시 마포구 아현동 692-,37.5565789226072,126.959278026157
1144010200,아파트,계단식,개별난방,위탁관리,분양,서울특별시 마포구 마포대로10길 22,192.0,한화건설,서울특별시 마포구 공덕동 460- 공덕한화꿈에그린,2.0,한화건설,A12102002,4,027147634,21708.0,26.0,0.0,0.0,166.0,공덕한화꿈에그린,31837.56,027147633,15, ,20040830.0,8.0,192.0,15.0,17055.253,4210.0,15075700,0,241750,58203,0,0,3313,0,4146330,0,202401,서울특별시 마포구 공덕동 460-,37.546858483674,126.955002118433
1144010200,아파트,혼합식,개별난방,위탁관리,분양,서울특별시 마포구 마포대로11길 84,480.0,한국통신공사노조주택조합,서울특별시 마포구 공덕동 188-108 마포현대아파트,0.0,현대건설,A12102005,5,027043917,44866.8,0.0,0.0,183.0,297.0,마포현대아파트,45084.2,027187788,16, ,19880509.0,12.0,480.0,16.0,35008.64,4133.0,26048597,0,0,117224,0,0,7063,0,8251150,0,202401,서울특별시 마포구 공덕동 188-108,37.5513941579218,126.950612577603
1144010200,아파트,계단식,개별난방,위탁관리,분양,서울특별시 마포구 마포대로20길 26,683.0,삼성물산,서울특별시 마포구 공덕동 43- 삼성래미안공덕2차,2.0,공덕2지구재개발주택조합,A12102008,9,0263544924,75762.27,151.0,0.0,160.0,372.0,삼성래미안공덕2차,106787.69,027194924,20, ,20040629.0,18.0,683.0,20.0,58538.25,4204.0,45222697,149680,0,209699,0,0,11844,0,13104280,0,202401,서울특별시 마포구 공덕동 43-,37.5515726540579,126.958860898711
1144010300,아파트,계단식,개별난방,위탁관리,분양,서울특별시 마포구 만리재로 60,366.0,삼성물산(주),서울특별시 마포구 신공덕동 161- 신공덕3차삼성래미안,3.0,삼성물산(주),A12103002,6,0264595478,36786.12,72.0,0.0,168.0,126.0,신공덕3차삼성래미안,47646.49,027015478,22, ,20030520.0,10.0,366.0,22.0,29006.94,4188.0,24356850,0,0,98461,0,0,5827,0,6962830,0,202401,서울특별시 마포구 신공덕동 161-,37.5459601213826,126.957000367525
1144010300,주상복합,복도식,개별난방,위탁관리,분양,서울특별시 마포구 백범로 199,242.0,마포 1-47 지구 재개발조합,서울특별시 마포구 신공덕동 167- 대우메트로디오빌,8.0,대우건설,A12103006,1,0232768205,18206.84,0.0,0.0,228.0,14.0,대우메트로디오빌,18206.84,0232768200,30, ,20051201.0,2.0,242.0,30.0,8696.92,4195.0,9808360,0,0,0,0,0,0,0,2626870,0,202401,서울특별시 마포구 신공덕동 167-,37.5434778780948,126.952779970695
1144010400,아파트,혼합식,개별난방,위탁관리,분양,서울특별시 마포구 새창로6다길 22,196.0,소양재건축조합,서울특별시 마포구 도화동 547- 도화현대,2.0,현대건설,A12104001,2,027192446,19730.242,46.0,0.0,98.0,52.0,도화현대,24728.78,02-719-2449,17, ,19980924.0,4.0,196.0,17.0,15449.06,4182.0,12277590,0,0,46347,0,0,5832,0,0,0,202401,서울특별시 마포구 도화동 547-,37.5403279174625,126.953522300928
1144010400,아파트,계단식,중앙난방,위탁관리,분양,서울특별시 마포구 도화길 28,982.0,삼성건설,서울특별시 마포구 도화동 550- 마포삼성,0.0,삼성건설,A12104005,14,027170792,118232.918,64.0,238.0,0.0,680.0,마포삼성,134786.924,027170791,17, ,19970516.0,29.0,982.0,17.0,94118.16,4170.0,59102330,0,180279810,277994,10772,0,0,6013,0,37846970,202401,서울특별시 마포구 도화동 550-,37.5396037190814,126.949629166527
1144010400,아파트,혼합식,중앙난방,자치관리,분양,서울특별시 마포구 삼개로 38,1222.0,도화3지구재개발지구,서울특별시 마포구 도화동 82- 마포도화우성아파트,0.0,우성건설,A12104007,15,027014725,159879.07,270.0,280.0,68.0,604.0,마포도화우성아파트,168743.0,027014623,15,마포도화우성.apti.co.kr,19910320.0,33.0,1222.0,15.0,121932.54,4179.0,77808762,0,249385880,437228,0,0,24755,6563,29453130,29533500,202401,서울특별시 마포구 도화동 82-,37.5366629254706,126.947112538012
1144010700,아파트,혼합식,개별난방,위탁관리,분양,서울특별시 마포구 마포대로4라길 30,339.0,쌍용,서울특별시 마포구 마포동 253- 마포쌍용황금,4.0,쌍용,A12105001,6,0263522563,35547.1054,83.0,0.0,158.0,98.0,마포쌍용황금,49578.33,027172563,21,cafe.daum.net/maposy,20000807.0,8.0,339.0,21.0,27316.12,4178.0,21060899,0,0,92830,0,0,5158,0,5870150,0,202401,서울특별시 마포구 마포동 253-,37.5367332775431,126.945492024807
1144010600,아파트,계단식,지역난방,위탁관리,분양,서울특별시 마포구 토정로32길 11,456.0,국민연금관리공단제3직장조합외 9개조합,서울특별시 마포구 토정동 138- 토정한강삼성,2.0,삼성물산(주)건설부분,A12106001,3,027199974,49938.59,0.0,0.0,237.0,219.0,토정한강삼성,52327.197,027119034,28, ,19971031.0,10.0,456.0,28.0,32767.32,4164.0,28043290,0,63882010,162953,0,22823,7126,2575,8581470,17690250,202401,서울특별시 마포구 토정동 138-,37.5398472210499,126.940986623851
1144010900,아파트,계단식,지역난방,위탁관리,분양,서울특별시 마포구 독막로42길 2,534.0,진주아파트 재건축조합,서울특별시 마포구 염리동 521- 마포자이,2.0,GS건설(주),A12109001,10,0232753926,71297.26,166.0,140.0,0.0,228.0,마포자이,105206.337,0232753925,25, ,20031205.0,13.0,534.0,25.0,58250.114,4154.0,49162599,0,94401900,180060,0,47821,10777,4145,12782900,15752450,202401,서울특별시 마포구 염리동 521-,37.5436032977766,126.94585387336
1144010900,아파트,혼합식,개별난방,위탁관리,분양,서울특별시 마포구 숭문길 58,574.0,염리동재개발조합,서울특별시 마포구 염리동 520- 염리삼성래미안,5.0,(주)삼성물산,A12109002,9,027116317,60012.9056,117.0,0.0,236.0,221.0,염리삼성래미안,82437.852,027116316,17, ,20010328.0,20.0,574.0,17.0,46238.46,4139.0,36733297,0,0,160871,0,0,10393,0,11891900,0,202401,서울특별시 마포구 염리동 520-,37.5491059448178,126.94580213806
1144011100,아파트,계단식,개별난방,위탁관리,분양,서울특별시 마포구 신수로 81,160.0,청옥산업개발(주),서울특별시 마포구 신수동 456- 마포경남아너스빌,1.0,경남기업(주),A12111001,2,027115419,16926.4,0.0,0.0,0.0,160.0,마포경남아너스빌,22217.95,027125412,12, ,20070517.0,8.0,160.0,12.0,13592.0,4098.0,13265834,0,0,68597,0,0,3016,0,3410810,0,202401,서울특별시 마포구 신수동 456-,37.5487455658413,126.934144664654
1144011200,아파트,복도식,개별난방,자치관리,분양,서울특별시 마포구 신수로3길 19,219.0,경남빌라 제건축조합,서울특별시 마포구 현석동 220- 밤섬현대,3.0,현대건설,A12112001,2,0232727340,22907.8888,44.0,0.0,127.0,48.0,밤섬현대,29368.13,027127285,25, ,19990726.0,4.0,219.0,25.0,16667.76,4092.0,13611220,11160,0,77944,11,0,3321,0,4095220,0,202401,서울특별시 마포구 현석동 220-,37.5427987045378,126.933027179721
1144011200,아파트,혼합식,개별난방,위탁관리,분양,서울특별시 마포구 신수로 15,510.0,현석구역재개발조합,서울특별시 마포구 현석동 222- 마포강변힐스테이트,2.0,현대건설(주),A12112002,10,0232734776,41150.9,100.0,0.0,204.0,206.0,마포강변힐스테이트,76408.7,0232734775,20, ,20040216.0,14.0,510.0,20.0,41150.9,4092.0,35060980,0,0,200819,0,0,0,0,0,0,202401,서울특별시 마포구 현석동 222-,37.5434218811795,126.932948545207
1144011700,아파트,혼합식,개별난방,위탁관리,분양,서울특별시 마포구 창전로 26,538.0,GS건설,서울특별시 마포구 신정동 30- 서강GS,1.0,GS건설,A12114001,6,027126887,70172.62,134.0,0.0,226.0,178.0,서강GS,70173.0,027126853,23, ,19990701.0,12.0,538.0,23.0,44020.28,4093.0,35751290,0,328170,154013,0,0,8850,0,10174170,0,202401,서울특별시 마포구 신정동 30-,37.5445686256453,126.931920958843
1144011600,아파트,계단식,지역난방,위탁관리,분양,서울특별시 마포구 토정로 158,488.0,서강주택재건축정비사업조합,서울특별시 마포구 하중동 101- 한강밤섬자이아파트,2.0,지에스건설주식회사,A12115001,7,0263269977,79642.55,184.0,229.0,0.0,75.0,한강밤섬자이아파트,120366.16,0263269660,25,https://한강밤섬자이.apti.co.kr,20100226.0,14.0,488.0,25.0,64926.31,4080.0,69675720,0,79653040,197031,0,69893,10592,3867,14529730,25908900,202401,서울특별시 마포구 하중동 101-,37.5451612622882,126.928053478918
1144011400,아파트,계단식,개별난방,위탁관리,분양,서울특별시 마포구 토정로 167,447.0,한진중공업,서울특별시 마포구 창전동 443- 서강해모로,1.0,한진중공업,A12119004,8,023388017,43464.651,0.0,0.0,103.0,344.0,서강해모로,59052.0,023388016,25,서강해모로.apti.co.kr/,20071212.0,8.0,447.0,25.0,35001.839,4079.0,31241920,0,0,122234,0,0,7543,0,8478140,0,202401,서울특별시 마포구 창전동 443-,37.5464775981715,126.928907135922
1144011400,아파트,계단식,개별난방,위탁관리,분양,서울특별시 마포구 독막로 145,635.0,쌍용건설,서울특별시 마포구 창전동 444- 서강쌍용예가,2.0,쌍용건설,A12119006,15,023335386,67662.623,72.0,0.0,155.0,408.0,서강쌍용예가,96890.453,023335007,15,www.ssya.co.kr,20071101.0,26.0,635.0,15.0,52559.165,4069.0,50325491,0,0,198775,0,0,11663,0,14764500,0,202401,서울특별시 마포구 창전동 444-,37.5490268728869,126.929490110223
1144011400,아파트,계단식,개별난방,위탁관리,분양,서울특별시 마포구 서강로 95,640.0,창전구역주택개량재개발조합,서울특별시 마포구 창전동 437- 창전삼성,0.0,삼성물산(주)건설부분,A12119007,9,0263835570,72460.88,188.0,0.0,176.0,276.0,창전삼성,91068.75,0231425570,20,cafe.daum.net/wawoojung(창전래미안아파트),19980624.0,6.0,640.0,20.0,55576.28,4064.0,39500310,408010,0,184869,0,0,0,0,0,0,202401,서울특별시 마포구 창전동 437-,37.5520441337502,126.932100095013
1144012300,아파트,계단식,개별난방,위탁관리,분양,서울특별시 마포구 방울내로 31,210.0,망원연립재건축주택조함일신건영(주),서울특별시 마포구 망원동 509- 망원휴먼빌아파트,1.0,일신건영(주),A12123001,2, ,18292.799,0.0,0.0,150.0,60.0,망원휴먼빌아파트,23719.68,0231436815,15, ,20040730.0,7.0,210.0,15.0,14090.31,3956.0,12442720,0,0,55996,0,0,0,0,0,0,202401,서울특별시 마포구 망원동 509-,37.558518671219,126.899044894416
1144012500,아파트,계단식,지역난방,위탁관리,분양,서울특별시 마포구 월드컵북로 216,189.0,대림산업,서울특별시 마포구 성산동 604- 성산2차e-편한세상,1.0,대림산업,A12125001,3,023030156,19705.0935,0.0,0.0,38.0,151.0,성산2차e-편한세상,26727.1,023721437,15,없음,20050726.0,8.0,189.0,15.0,15098.81,3941.0,16356990,0,23232400,52755,0,6181,0,1177,0,7827050,202401,서울특별시 마포구 성산동 604-,37.5698661269971,126.905069332883
1144012500,아파트,혼합식,지역난방,위탁관리,분양,서울특별시 마포구 월드컵북로30길 9-22,795.0,대림산업,서울특별시 마포구 성산동 601- 성산월드타운대림,2.0,대림산업,A12125202,10,023022054,96162.01,152.0,4.0,73.0,566.0,성산월드타운대림,96162.02,023022053,24, ,20040824.0,18.0,795.0,24.0,70691.534,3945.0,55935302,0,134043910,229968,0,1015,14945,5277,17404680,31925850,202401,서울특별시 마포구 성산동 601-,37.5691137013239,126.907907268917
1144012700,아파트,계단식,지역난방,자치관리,분양,서울특별시 마포구 상암산로1길 52,436.0,SH공사,서울특별시 마포구 상암동 1658- 상암월드컵파크5단지,2.0,대동건설,A12127001,8,023021913,50150.83,107.0,0.0,0.0,329.0,상암월드컵파크5단지,68193.3,023020912,21,상암월드컵파크5단지.apti.co.kr,20050920.0,10.0,436.0,21.0,39070.24,3904.0,39202960,0,67069640,133499,0,53076,7901,2777,9403420,16606460,202401,서울특별시 마포구 상암동 1658-,37.5808073691977,126.88539532769
1144012700,아파트,계단식,지역난방,위탁관리,분양,서울특별시 마포구 상암산로1길 57,484.0,서울특별시 SH공사,서울특별시 마포구 상암동 1689- 상암월드컵파크6단지,2.0,일성건설,A12127002,14,023020714,87961.5318,326.0,0.0,0.0,158.0,상암월드컵파크6단지,87961.55,023020718,15, ,20050715.0,22.0,484.0,15.0,47364.06,3905.0,39825510,0,75394840,151274,0,48907,9217,3717,10602680,17438630,202401,서울특별시 마포구 상암동 1689-,37.5802824750971,126.882306946973
1144012700,아파트,계단식,지역난방,위탁관리,분양,서울특별시 마포구 월드컵로 338,540.0,SH공사,서울특별시 마포구 상암동 1643- 상암월드컵파크3단지,2.0,두산건설,A12127003,9,023059758,58609.68,0.0,0.0,0.0,540.0,상암월드컵파크3단지,74716.56,023059757,20,월드컵파크3단지.apti.co.kr,20030930.0,18.0,540.0,20.0,45841.2,3911.0,39305810,0,70827220,155532,0,36415,10073,3733,11979640,22024700,202401,서울특별시 마포구 상암동 1643-,37.5727723522692,126.890087309482
1144012700,아파트,계단식,지역난방,위탁관리,분양,서울특별시 마포구 월드컵북로47길 46,657.0,SH공사,서울특별시 마포구 상암동 1637- 상암월드컵파크2단지,1.0,서광산업,A12127004,7,023024241,54360.81,0.0,0.0,657.0,0.0,상암월드컵파크2단지,71714.06,023024240,20,home.drapt.com/상암월드컵2단지,20031112.0,16.0,657.0,20.0,38606.78,3912.0,40857205,0,77591360,395611,0,88392,21547,8690,12753360,26083400,202401,서울특별시 마포구 상암동 1637-,37.57488208914,126.890732633876
1144012700,아파트,계단식,지역난방,위탁관리,분양,서울특별시 마포구 상암산로1길 92,733.0,SH공사,서울특별시 마포구 상암동 1660- 상암월드컵파크7단지,2.0,진흥기업,A12127005,17,0263718700,114425.33,162.0,0.0,0.0,571.0,상암월드컵파크7단지,114990.17,023749583,15,상암월드컵파크7.apti.co.kr,20050602.0,25.0,733.0,15.0,65367.24,3903.0,51132310,0,112949670,221635,0,84627,12862,5372,16562960,22627530,202401,서울특별시 마포구 상암동 1660-,37.5827563946262,126.882098813336
1144012700,아파트,계단식,지역난방,위탁관리,분양,서울특별시 마포구 상암산로1길 24,761.0,SH공사,서울특별시 마포구 상암동 1655- 상암월드컵파크4단지,2.0,태영건설,A12127006,12,023060104,87569.7,156.0,0.0,0.0,605.0,상암월드컵파크4단지,123554.89,023020104,26, ,20061011.0,21.0,761.0,26.0,67620.31,3907.0,68493400,0,114594520,236372,0,76607,13406,5242,17411420,30403600,202401,서울특별시 마포구 상암동 1655-,37.5776672075953,126.889341666118
1144012700,아파트,복도식,지역난방,위탁관리,임대,서울특별시 마포구 월드컵북로47길 8,820.0,SH공사,서울특별시 마포구 상암동 1634- 상암월드컵1단지,2.0,(주)삼호,A12127007,6, ,69994.2,0.0,0.0,820.0,0.0,상암월드컵1단지,70518.58,023076941,19,happy.i-sh.co.kr,20030929.0,12.0,820.0,19.0,37268.35,3913.0,34310843,0,74471770,187300,0,35034,11206,2980,11853960,25032000,202401,서울특별시 마포구 상암동 1634-,37.5747581541862,126.893339869101
1144012700,아파트,복도식,지역난방,위탁관리,임대,서울특별시 마포구 월드컵로42길 12,840.0,SH 공사(서울시),서울특별시 마포구 상암동 1674- 상암월드컵8단지,2.0,동아건설,A12127008,13,023090289,40185.1368,0.0,0.0,840.0,0.0,상암월드컵8단지,86161.0,023090288,18, ,20080201.0,15.0,840.0,18.0,39635.19,3906.0,41009250,0,90630190,185829,0,60934,12057,4475,10917910,-70000,202401,서울특별시 마포구 상암동 1674-,37.5780610839874,126.882677462253
1144010400,아파트,계단식,개별난방,위탁관리,분양,서울특별시 마포구 도화4길 41,167.0,동원,서울특별시 마포구 도화동 564- 마포동원베네스트,0.0,동원산업건설,A12170401,3,027131006,10379.42,0.0,0.0,143.0,24.0,마포동원베네스트,18939.0,027131123,12, ,20100429.0,7.0,167.0,12.0,10379.42,4181.0,9679270,0,0,42894,0,0,2305,0,2799920,0,202401,서울특별시 마포구 도화동 564-,37.5401330916507,126.952095371562
1144010400,주상복합,복도식,개별난방,위탁관리,분양,서울특별시 마포구 마포대로 33,662.0,군인공제회,서울특별시 마포구 도화동 555- 마포한화오벨리스크,6.0,한화,A12170402,1,027179353,68993.1,6.0,0.0,404.0,252.0,마포한화오벨리스크,69005.28,027179352,37, ,20041008.0,4.0,662.0,37.0,37932.76,4167.0,33785820,0,0,203280,0,0,7710,0,7700800,0,202401,서울특별시 마포구 도화동 555-,37.5399847863145,126.945447452979
1144010200,아파트,계단식,개별난방,위탁관리,분양,서울특별시 마포구 마포대로11길 50,597.0,공덕제3구역 주택재개발조합,서울특별시 마포구 공덕동 464- 삼성래미안공덕4차,2.0,삼성물산(주) 건설부분,A12170601,12,027175042,60293.01,108.0,0.0,315.0,174.0,삼성래미안공덕4차,85211.58,027175041,20,www.uasis.com/main/main.co,20051117.0,20.0,597.0,20.0,45556.26,4132.0,42574647,0,0,170563,0,0,10666,0,11785850,0,202401,서울특별시 마포구 공덕동 464-,37.5515880231161,126.951191414673
1144010200,아파트,복도식,개별난방,위탁관리,임대,서울특별시 마포구 마포대로20길 26,199.0,에스에이치공사,서울특별시 마포구 공덕동 43- 공덕2삼성임대,2.0,삼성물산,A12170602,1,027196431,9867.7732,0.0,0.0,199.0,0.0,공덕2삼성임대,14245.52,027196430,16,www.i-sh.co.kr,20040629.0,2.0,199.0,16.0,6712.27,4204.0,7235110,0,0,36351,0,0,2387,0,2435770,0,202401,서울특별시 마포구 공덕동 43-,37.5515726540579,126.958860898711
1144010200,아파트,혼합식,개별난방,위탁관리,혼합,서울특별시 마포구 마포대로 167,794.0,공덕제5구역주택재개발정비사업소조합,서울특별시 마포구 공덕동 469- 공덕래미안5차,0.0,삼성물산(주),A12170603,9,027060035,73996.27,62.0,0.0,449.0,283.0,공덕래미안5차,115939.0,027019116,17, ,20110825.0,23.0,794.0,17.0,55281.072,4131.0,66260425,0,425030,248944,0,0,11919,0,14430470,0,202401,서울특별시 마포구 공덕동 469-,37.5502187192036,126.953735814082
1144011500,아파트,혼합식,지역난방,위탁관리,혼합,서울특별시 마포구 독막로20나길 21,530.0,상수제2구역주택재개발정비사업조합,서울특별시 마포구 상수동 398- 래미안밤섬리베뉴 2,3.0,삼성물산,A12170702,8,023345669,55712.1,34.0,36.0,132.0,328.0,래미안밤섬리베뉴 2,83260.97,023345668,24, ,20141017.0,16.0,530.0,24.0,43366.64,4077.0,45146885,0,53358210,162837,0,497,11227,4215,13350240,33298500,202401,서울특별시 마포구 상수동 398-,37.5468678155672,126.926979191702
1144012500,아파트,계단식,개별난방,위탁관리,혼합,서울특별시 마포구 모래내로9길 6,320.0,현대산업개발,서울특별시 마포구 성산동 667- 월드컵아이파크1단지,2.0,현대산업개발,A12171101,5,023736101,31632.922,34.0,0.0,136.0,150.0,월드컵아이파크1단지,32354.727,023736100,25, ,20090305.0,7.0,320.0,25.0,24838.58,3952.0,25778092,0,0,98925,0,0,5215,0,6674110,0,202401,서울특별시 마포구 성산동 667-,37.5671322554713,126.914155248168
1144011100,아파트,계단식,개별난방,위탁관리,분양,서울특별시 마포구 독막로28길 10,313.0,신수지역주택조합,서울특별시 마포구 신수동 459- 밤섬경남아너스빌,2.0,경남기업(주),A12171201,5,027143347,33102.47,0.0,0.0,0.0,313.0,밤섬경남아너스빌,43991.0,027143342,25, ,20091229.0,6.0,313.0,25.0,26557.81,4089.0,25039860,0,0,101155,0,0,5551,0,7101780,0,202401,서울특별시 마포구 신수동 459-,37.5469550731394,126.936227261433
1144011000,주상복합,복도식,개별난방,위탁관리,분양,서울특별시 마포구 신촌로 150,350.0,주식회사한국토지신탁,서울특별시 마포구 노고산동 1-3 신촌포스빌,3.0,(주)포스코건설,A12172201,1,027067241,17181.475,0.0,0.0,349.0,1.0,신촌포스빌,20588.95,027067243,15, ,20040731.0,2.0,350.0,15.0,11179.61,4104.0,13106238,0,0,74671,0,0,2524,0,3434510,0,202401,서울특별시 마포구 노고산동 1-3,37.5562635278683,126.942121723333
1144010800,아파트,계단식,개별난방,위탁관리,혼합,서울특별시 마포구 서강대길 40,558.0,대흥3구역재개발조합,서울특별시 마포구 대흥동 804- 마포자이2차,2.0,GS건설(주),A12172401,6,027039992,46060.85,94.0,0.0,96.0,368.0,마포자이2차,85747.0,027039991,25,www.mapoxi2.com/,20140306.0,12.0,558.0,25.0,46060.85,4111.0,54012406,0,0,194458,0,0,9829,0,11566720,0,202401,서울특별시 마포구 대흥동 804-,37.5491900433435,126.941169713609
1144010800,도시형 생활주택(주상복합),복도식,개별난방,위탁관리,분양,서울특별시 마포구 신촌로 160,203.0,대선건설,서울특별시 마포구 대흥동 12-41 서희스타힐스,2.0,서희건설,A12172402,1,027179698,29593.3863,0.0,0.0,203.0,0.0,서희스타힐스,8353.44,027179697,20, ,20140729.0,2.0,203.0,20.0,2964.68,4104.0,13455080,0,0,40081,0,0,0,0,0,0,202401,서울특별시 마포구 대흥동 12-41,37.5563084215036,126.943285123977
1144012000,아파트,계단식,개별난방,위탁관리,혼합,서울특별시 마포구 양화로 45,617.0,메이저디벨로프먼트,서울특별시 마포구 서교동 490- 메세나폴리스,7.0,GS건설,A12174601,3,023348182,105839.7,178.0,362.0,77.0,0.0,메세나폴리스,161663.666,023348181,39, ,20120629.0,14.0,617.0,39.0,79353.254,4036.0,126776060,5701210,0,325021,0,0,11043,0,14439010,0,202401,서울특별시 마포구 서교동 490-,37.5515008030203,126.91395024016
1144010100,주상복합,계단식,개별난방,위탁관리,분양,서울특별시 마포구 마포대로 201,122.0,마포3-2지구 도시환경정비조합,서울특별시 마포구 아현동 738- 마포트라팰리스2차,4.0,삼성물산(주),A12175202,1,023930314,16730.67,116.0,0.0,0.0,4.0,마포트라팰리스2차,25895.0,023930312,22, ,20080718.0,4.0,120.0,22.0,12101.88,4130.0,0,0,0,0,0,0,0,0,0,0,202401,서울특별시 마포구 아현동 738-,37.5522161008194,126.95550374204
1144010100,아파트,혼합식,개별난방,위탁관리,혼합,서울특별시 마포구 마포대로 195,3885.0,아현제3구역주택재개발정비사업조합,서울특별시 마포구 아현동 767- 마포래미안푸르지오,4.0,"삼성물산,대우건설",A12175203,51,023629852,380436.5484,499.0,26.0,1902.0,1458.0,마포래미안푸르지오,588070.0381,023629804,30, ,20140926.0,118.0,3885.0,30.0,286155.61,4129.0,345030240,0,0,1264793,0,0,67510,0,79597790,0,202401,서울특별시 마포구 아현동 767-,37.5524339233654,126.95422378666
1144011400,주상복합,계단식,개별난방,위탁관리,분양,서울특별시 마포구 창전로 45,192.0,서미트캠프,서울특별시 마포구 창전동 442- 서강한화오벨리스크스위트,0.0,한화건설,A12177801,3,023225415,22280.39,28.0,0.0,0.0,164.0,서강한화오벨리스크스위트,32610.28,023225414,15, ,20070411.0,8.0,192.0,15.0,16860.64,4086.0,19137842,0,0,96992,0,0,3885,0,4489260,0,202401,서울특별시 마포구 창전동 442-,37.5468832250067,126.931961062749
1144011400,아파트,복도식,,위탁관리,임대,서울특별시 마포구 서강로 95,311.0,에스에이치공사,서울특별시 마포구 창전동 437- 창전삼성임대,2.0,삼성물산,A12177802,2,0231432289,15421.4948,0.0,0.0,311.0,0.0,창전삼성임대,17120.89,0231428913,15,www.i-sh.co.kr,19980624.0,5.0,311.0,20.0,10188.36,4064.0,9225310,0,0,52167,0,0,0,0,0,0,202401,서울특별시 마포구 창전동 437-,37.5520441337502,126.932100095013
1144010300,아파트,계단식,개별난방,위탁관리,분양,서울특별시 마포구 백범로 230,290.0,신공덕제5구역주택재개발조합,서울특별시 마포구 신공덕동 170- 브라운스톤공덕,2.0,이수건설(주),A12179001,3,027120384,28561.9768,48.0,0.0,146.0,96.0,브라운스톤공덕,40490.09,027011218,25,brownkd.apti.co.kr,20090219.0,6.0,290.0,25.0,22409.54,4197.0,21642800,0,0,121728,0,0,0,0,0,0,202401,서울특별시 마포구 신공덕동 170-,37.5418171558861,126.954618618641
1144010300,아파트,복도식,개별난방,위탁관리,임대,서울특별시 마포구 백범로37길 6,376.0,에스에이치공사,서울특별시 마포구 신공덕동 157- 신공덕삼성임대,4.0,삼성,A12179002,2,027038121,18644.6368,0.0,0.0,376.0,0.0,신공덕삼성임대,27228.16,027038120,19,www.i-sh.co.kr,20000814.0,4.0,376.0,19.0,12321.52,4193.0,12738140,450020,0,64200,0,0,4333,0,3571300,0,202401,서울특별시 마포구 신공덕동 157-,37.5423808802011,126.956206500829
1144010300,아파트,복도식,,자치관리(직영),임대,서울특별시 마포구 만리재로 74,103.0,삼성물산주식회사,서울특별시 마포구 신공덕동 159- 신공덕2삼성래미안제2,4.0,삼성물산주식회사,A12179003,1,027011505,4426.4456,0.0,0.0,103.0,0.0,신공덕2삼성래미안제2,9301.93,027189748,11,http://happy.i-sh.co.kr/aptCommunity/siteMap.do?mCode=Z010000&deptid=70165,20001028.0,1.0,103.0,11.0,3418.57,4187.0,0,0,0,0,0,0,0,0,0,0,202401,서울특별시 마포구 신공덕동 159-,37.5464519366705,126.958912258488
1144010300,아파트,계단식,개별난방,위탁관리,분양,서울특별시 마포구 백범로 205,476.0,LH,서울특별시 마포구 신공덕동 172- 마포펜트라우스,0.0,태영,A12179004,4,027118368,117847.846,284.0,80.0,0.0,112.0,마포펜트라우스,117848.0,027118366,21,www.펜트라우스.com,20110518.0,17.0,476.0,21.0,53130.42,4194.0,79215814,16383900,0,195287,0,0,5826,0,13710880,0,202401,서울특별시 마포구 신공덕동 172-,37.5440255735187,126.954094951539
1144010300,아파트,계단식,개별난방,위탁관리,분양,서울특별시 마포구 만리재로 36,195.0,신공덕제6구역정비조합,서울특별시 마포구 신공덕동 174- 공덕아이파크,4.0,현대산업개발,A12179005,4,027017832,20854.0,26.0,0.0,51.0,118.0,공덕아이파크,37640.0,027017833,18, ,20130326.0,9.0,195.0,18.0,16073.48,4189.0,17518320,0,0,65986,0,0,3455,0,4063950,0,202401,서울특별시 마포구 신공덕동 174-,37.5446068199193,126.956019734502
1144010300,아파트,혼합식,개별난방,위탁관리,분양,서울 마포구 백범로 239,128.0,마포신공덕4구역주택재개발조합,서울특별시 마포구 신공덕동 168- 신공덕e-편한세상,2.0,(주)삼호,A12179006,3,027012934,12976.414,25.0,0.0,56.0,47.0,신공덕e-편한세상,17043.0,027012933,13, ,20071018.0,5.0,128.0,13.0,10193.26,,0,0,0,0,0,0,0,0,0,0,202401,서울특별시 마포구 신공덕동 168-,37.5420008029659,126.957091240316
1144012700,아파트,혼합식,지역난방,위탁관리,분양,서울특별시 마포구 월드컵북로42가길 11,184.0,LH공사,서울특별시 마포구 상암동 1618- DMC상암센트럴파크2단지,0.0,양우건설사,A12179501,3,023074530,18859.924,0.0,0.0,164.0,20.0,DMC상암센트럴파크2단지,18957.0,023024530,12, ,20090622.0,6.0,184.0,12.0,9472.44,3930.0,10582570,0,14415186,39912,0,6640,2255,953,3150540,3907300,202401,서울특별시 마포구 상암동 1618-,37.5747374970897,126.897585784599
1144012700,아파트,계단식,지역난방,자치관리,분양,서울특별시 마포구 월드컵북로43길 11,213.0,LH공사,서울특별시 마포구 상암동 1630- DMC상암센트럴파크1단지,1.0,양우건설,A12179502,5,023072360,23879.105,20.0,0.0,0.0,193.0,DMC상암센트럴파크1단지,30321.0,023072365,13,sahapt.kr,20090622.0,10.0,213.0,13.0,18665.83,3914.0,17899570,0,23569040,64308,0,10232,3892,1443,4590450,10101000,202401,서울특별시 마포구 상암동 1630-,37.5746681863017,126.895705587776
1144012700,아파트,혼합식,지역난방,위탁관리,혼합,서울특별시 마포구 월드컵북로 502-37,588.0,한신,서울특별시 마포구 상암동 1741- 상암월드컵파크11단지,2.0,sh공사,A12179503,9,023025932,54962.26,78.0,0.0,384.0,126.0,상암월드컵파크11단지,77248.16,023025930,15, ,20100623.0,17.0,588.0,15.0,40523.5,3916.0,34508880,0,79504240,156862,0,41894,9914,3322,11838750,-71500,202401,서울특별시 마포구 상암동 1741-,37.5877570006889,126.882286460975
1144012700,아파트,혼합식,지역난방,위탁관리,혼합,서울특별시 마포구 월드컵북로 501,1036.0,SH공사,서울특별시 마포구 상암동 1752- 상암월드컵파크9단지,2.0,신창건설(주)->우방건설,A12179504,16,023023404,97982.24,133.0,0.0,523.0,380.0,상암월드컵파크9단지,143811.42,023023396,15, ,20101014.0,31.0,1036.0,15.0,72421.53,3902.0,53112830,0,135694630,271948,0,70622,0,5913,0,-117250,202401,서울특별시 마포구 상암동 1752-,37.584799731744,126.878170672181
1144012700,아파트,혼합식,지역난방,위탁관리,혼합,서울특별시 마포구 월드컵북로 502-7,380.0,SH공사,서울특별시 마포구 상암동 1743- 상암월드컵파크12단지,2.0,한신공영,A12179505,9,023023444,37347.04,62.0,0.0,232.0,86.0,상암월드컵파크12단지,53910.89,023023397,15,상암12단지. apti.co.kr,20101014.0,15.0,380.0,15.0,27728.09,3915.0,24363150,0,41152530,108128,0,33092,6796,2500,8982650,13167000,202401,서울특별시 마포구 상암동 1743-,37.5868307330562,126.88071335805
1144012700,아파트,혼합식,지역난방,위탁관리,혼합,서울특별시 마포구 월드컵북로 502-36,861.0,SH공사,서울특별시 마포구 상암동 1736- 상암월드컵파크10단지,2.0,중앙건설,A12179508,16,023025923,79864.17,108.0,0.0,583.0,170.0,상암월드컵파크10단지,115173.43,023025921,15, ,20100720.0,26.0,861.0,15.0,59606.31,3918.0,48734000,0,102791690,232746,0,66289,15179,5077,19598890,19546450,202401,서울특별시 마포구 상암동 1736-,37.5863328492209,126.881972706527
1144010200,아파트,혼합식,개별난방,위탁관리,분양,서울특별시 마포구 마포대로11길 73,183.0,대신증권주택조합,서울특별시 마포구 공덕동 370-9 공덕현대,0.0,(주)현대산업개발,A12180401,2,027178182,14229.91,0.0,0.0,26.0,157.0,공덕현대,18353.39,027178181,15, ,19890807.0,6.0,183.0,15.0,14232.83,4141.0,9620410,0,0,44414,0,0,2873,0,3937840,0,202401,서울특별시 마포구 공덕동 370-9,37.5482165514948,126.950052709628
1144010200,아파트,복도식,개별난방,자치관리,임대,서울특별시 마포구 마포대로 115-8,226.0,삼성건설,서울특별시 마포구 공덕동 371-1 공덕삼성임대,2.0,삼성건설,A12180404,1,0232752598,13388.24,0.0,0.0,226.0,0.0,공덕삼성임대,13392.45,0232752597,20,happy.i-sh.co.kr/main.do?deptid=70142,19991016.0,3.0,226.0,20.0,7406.02,4145.0,7091170,0,46340,0,0,0,2324,0,2350820,0,202401,서울특별시 마포구 공덕동 371-1,37.5459150093178,126.950622303108
1144010200,아파트,혼합식,개별난방,자치관리,분양,서울특별시 마포구 마포대로 115-8,651.0,공덕제1구역주택재개발조합,서울특별시 마포구 공덕동 371- 공덕삼성,2.0,삼성물산,A12180407,5,0263868679,71155.48,134.0,0.0,230.0,287.0,공덕삼성,89511.64,0232720290,25, ,19991016.0,0.0,651.0,25.0,53511.9,4145.0,35734760,0,523130,180952,0,0,10970,0,11367620,0,202401,서울특별시 마포구 공덕동 371-,37.5459150093178,126.950622303108
1144010200,아파트,계단식,개별난방,위탁관리,분양,서울특별시 마포구 마포대로7길 22,616.0,삼성물산,서울특별시 마포구 공덕동 457- 공덕삼성래미안3차,2.0,삼성물산,A12180506,10,027048076,48679.87,112.0,0.0,281.0,223.0,공덕삼성래미안3차,91330.0,027048270,20, ,20040830.0,15.0,616.0,20.0,48679.87,4142.0,39029402,0,0,175529,0,0,10356,0,12469790,0,202401,서울특별시 마포구 공덕동 457-,37.5491930367086,126.951525112421
1144010800,아파트,계단식,개별난방,위탁관리,분양,서울특별시 마포구 백범로 82,165.0,동양,서울특별시 마포구 대흥동 803- 동양엔파트,2.0,동양메이저(주),A12181101,3,027013262,17490.0,0.0,0.0,0.0,165.0,동양엔파트,23653.337,027013261,15, ,20070406.0,5.0,165.0,15.0,14009.655,4110.0,12007330,0,0,49689,0,0,5843,0,7376550,0,202401,서울특별시 마포구 대흥동 803-,37.5475755253717,126.940592727524
1144010800,아파트,복도식,지역난방,위탁관리,임대,서울특별시 마포구 독막로 266,566.0,sh공사,서울특별시 마포구 대흥동 660- 마포태영제2,3.0,태영건설(주),A12181102,2,027186943,34458.08,0.0,0.0,566.0,0.0,마포태영제2,34580.0,027186942,25,happy.i-sh.co.kr/main.do?deptid=70143,19991120.0,4.0,566.0,25.0,18338.4,4153.0,15586345,0,33197670,91592,0,311304,6626,2201,4691090,7263300,202401,서울특별시 마포구 대흥동 660-,37.5438675433938,126.942389642584
1144010800,아파트,혼합식,지역난방,위탁관리,분양,서울특별시 마포구 독막로 266,1424.0,(주)태영건설,서울특별시 마포구 대흥동 660- 마포태영아파트,3.0,(주) 태영건설,A12181103,14,0263577100,154934.44,374.0,0.0,464.0,586.0,마포태영아파트,211232.65,0232757100,25, ,19991120.0,27.0,1424.0,25.0,120220.64,4153.0,102353514,0,194076530,380310,0,1382,25242,9171,29691340,44937900,202401,서울특별시 마포구 대흥동 660-,37.5438675433938,126.942389642584
1144010400,아파트,복도식,개별난방,위탁관리,임대,서울특별시 마포구 새창로8길 72,793.0,현대건설(주),서울특별시 마포구 도화동 353-1 도화현대2차아파트(임대),0.0,현대건설(주),A12181403,2,027011973,36581.09,0.0,0.0,793.0,0.0,도화현대2차아파트(임대),36593.2,0232751972,20,happy.i-sh.co.kr/main.do?deptid=70129,20000311.0,6.0,793.0,20.0,21981.96,4180.0,16186830,0,0,116846,0,0,7589,0,6030680,0,202401,서울특별시 마포구 도화동 353-1,37.5386455029351,126.951342079019
1144010400,아파트,계단식,중앙난방,위탁관리,분양,서울특별시 마포구 새창로8길 72,914.0,도화제2지구 재개발조합,서울특별시 마포구 도화동 353- 도화현대홈타운,1.0,현대건설(주),A12181404,10,0232720502,84637.9,320.0,0.0,80.0,514.0,도화현대홈타운,106362.98,0232720501,20,마포도화현대홈타운201-210동.apti.co.kr,20000311.0,23.0,914.0,20.0,84637.9,4180.0,54059076,0,189813520,259674,0,0,16739,5277,19744560,26385000,202401,서울특별시 마포구 도화동 353-,37.5386455029351,126.951342079019
1144010400,아파트,혼합식,중앙난방,위탁관리,분양,서울특별시 마포구 새창로 52,1021.0,도화1지구 재개발조합,서울특별시 마포구 도화동 357- 도화현대1차아파트,0.0,현대건설(주),A12181406,11,027063488,133779.944,430.0,60.0,129.0,402.0,도화현대1차아파트,133779.944,027027559,16,www.dh1.kr,19960925.0,23.0,1021.0,16.0,98909.47,4182.0,62054410,0,183356890,355841,0,0,18784,5850,22600340,35100000,202401,서울특별시 마포구 도화동 357-,37.5399016047307,126.955738152741
1144012300,아파트,혼합식,개별난방,위탁관리,분양,서울특별시 마포구 망원로2길 103,181.0,대림산업(주),서울특별시 마포구 망원동 496- 망원1차대림,2.0,(주)삼호,A12182101,4,0231430632,19513.58,21.0,0.0,38.0,122.0,망원1차대림,27269.04,0231430631,18, ,20021002.0,6.0,181.0,18.0,15045.87,4017.0,12578140,0,0,65376,0,0,6018,0,7011960,0,202401,서울특별시 마포구 망원동 496-,37.553341492963,126.905069360686
1144012300,아파트,계단식,개별난방,위탁관리,분양,서울특별시 마포구 망원로1길 27,240.0,대림산업(주),서울특별시 마포구 망원동 497- 망원2차대림,2.0,(주)삼호,A12182401,3,023343420,25575.476,31.0,0.0,52.0,157.0,망원2차대림,34632.75,023341904,16, ,20021218.0,8.0,240.0,16.0,19735.62,3957.0,17404110,0,0,0,0,0,0,0,0,0,202401,서울특별시 마포구 망원동 497-,37.5570441854518,126.899039866792
1144011500,아파트,계단식,개별난방,위탁관리,분양,서울특별시 마포구 독막로18길 5,258.0,두산건설,서울특별시 마포구 상수동 396- 상수두산위브,2.0,두산건설,A12182901,4,023220685,24314.746,82.0,0.0,0.0,176.0,상수두산위브,40367.429,023220675,25, ,20041229.0,6.0,258.0,25.0,24314.746,4075.0,18785040,0,0,80525,0,0,4730,0,4555950,0,202401,서울특별시 마포구 상수동 396-,37.5470902804325,126.92413400158
1144012000,주상복합,복도식,개별난방,위탁관리,분양,서울특별시 마포구 월드컵북로5나길 18,366.0,유아이에치,서울특별시 마포구 서교동 487- 서교동대우미래사랑,4.0,(주)대우건설,A12184201,1,023224532,22764.4969,0.0,0.0,285.0,81.0,서교동대우미래사랑,43752.65,023224531,12,서교대우미래사랑.apti.co.kr,20050830.0,3.0,366.0,12.0,16779.93,4002.0,33895430,0,0,57411,0,0,0,0,0,0,202401,서울특별시 마포구 서교동 487-,37.5573352701834,126.916796137041
1144012500,아파트,혼합식,개별난방,위탁관리,분양,서울특별시 마포구 성암로1길 8,172.0,성사1차 재건축조합,서울특별시 마포구 성산동 600- 성사1차 풍림아파트,2.0,풍림산업,A12185001,1,023071066,17435.08,38.0,0.0,93.0,41.0,성사1차 풍림아파트,23674.72,023071062,19, ,20000401.0,4.0,172.0,19.0,13180.9,3951.0,11043351,0,0,45536,0,0,2926,0,3382310,0,202401,서울특별시 마포구 성산동 600-,37.568593763765,126.912078739289
1144012500,아파트,복도식,지역난방,위탁관리,임대,서울특별시 마포구 월드컵로 207,1807.0,서울도시개발공사,서울특별시 마포구 성산동 595- SH성산아파트,0.0,삼성건설(주),A12185003,7,023722695,84188.652,0.0,0.0,1807.0,0.0,SH성산아파트,84189.0,023750332,15,www.i-sh.co.kr/,19910720.0,14.0,1807.0,15.0,59074.88,3953.0,30319690,0,13448570,296282,0,100938,5128,5128,9197160,3001810,202401,서울특별시 마포구 성산동 595-,37.5646567389722,126.901750615571
1144012500,아파트,복도식,중앙난방,위탁관리,분양,서울특별시 마포구 월드컵북로 260,3710.0,서울시청,서울특별시 마포구 성산동 446- 성산시영아파트,1.0,"유원, 선경, 대우건설",A12185004,33,023727761,232099.231,0.0,0.0,3710.0,0.0,성산시영아파트,280399.0,023743863,14,성산시영.apt.co.kr,19860607.0,33.0,3710.0,14.0,198026.5,3935.0,169520809,0,501051500,760316,0,544379,9927,9927,29000000,43418000,202401,서울특별시 마포구 성산동 446-,37.5730620773526,126.90104792266
1144010300,아파트,복도식,중앙난방,위탁관리,분양,서울특별시 마포구 백범로37길 12,834.0,삼성물산(주)주택개발부문,서울특별시 마포구 신공덕동 155- 신공덕삼성1차,0.0,삼성물산(주)주택개발부문,A12185303,11,027147244,92634.7104,242.0,0.0,240.0,352.0,신공덕삼성1차,94416.52,027131449,23, ,20000814.0,24.0,834.0,23.0,71996.7,4193.0,57465310,765490,77077860,226005,0,81546,8913,5453,10858670,28355600,202401,서울특별시 마포구 신공덕동 155-,37.5426675523619,126.955654254637
1144010300,아파트,혼합식,개별난방,위탁관리,분양,서울특별시 마포구 만리재로 74,458.0,삼성물산(주)주택부분,서울특별시 마포구 신공덕동 159- 신공덕2차삼성래미안,2.0,삼성건설,A12185304,7,0232740514,47779.4,110.0,0.0,186.0,162.0,신공덕2차삼성래미안,68266.87,0232740513,22, ,20001028.0,9.0,458.0,22.0,37384.54,4187.0,30850240,0,0,123817,0,0,7939,0,9371430,0,202401,서울특별시 마포구 신공덕동 159-,37.5464519366705,126.958912258488
1144011100,아파트,혼합식,개별난방,위탁관리,분양,서울특별시 마포구 독막로28길 7,260.0,신수동 APT 재건축조합,서울특별시 마포구 신수동 190- 신수성원,3.0,성원산업개발(주),A12185504,2,027019522,27066.0,44.0,0.0,104.0,112.0,신수성원,32111.0,027128490,22, ,19981215.0,6.0,260.0,22.0,20780.88,4090.0,16234360,432710,0,75580,0,0,4393,0,5081500,0,202401,서울특별시 마포구 신수동 190-,37.5470388044009,126.937630042402
1144011100,아파트,혼합식,개별난방,위탁관리,분양,서울특별시 마포구 독막로 209,192.0,신수구역주택재개발조합,서울특별시 마포구 신수동 451- 신수세양청마루,2.0,아천세양건설,A12185602,4,027116503,15022.92,30.0,0.0,78.0,84.0,신수세양청마루,26304.0,027116502,15, ,20031215.0,5.0,192.0,15.0,14796.96,4097.0,12542555,0,0,51393,0,0,3529,0,4205170,0,202401,서울특별시 마포구 신수동 451-,37.5478165828286,126.93718862914
1144011100,아파트,계단식,개별난방,위탁관리,분양,서울특별시 마포구 토정로 242,210.0,현대,서울특별시 마포구 신수동 445-5 신수현대,1.0,현대,A12185603,2,027187267,23603.307,0.0,0.0,0.0,210.0,신수현대,23813.74,027187261,15,cafe.naver.com/sinsusuda,19960914.0,7.0,210.0,15.0,17750.1,4091.0,17516622,1940,0,66400,0,0,3763,0,4756790,0,202401,서울특별시 마포구 신수동 445-5,37.542847152241,126.936906291778
1144011100,아파트,계단식,개별난방,위탁관리,분양,서울특별시 마포구 창전로2길 10,279.0,대원칸타빌,서울특별시 마포구 신수동 453- 대원칸타빌,2.0,(주)우리창우,A12185605,3,0232737794,36185.716,106.0,38.0,0.0,135.0,대원칸타빌,36185.716,0232737615,19, ,20040730.0,7.0,279.0,19.0,29344.677,4098.0,23415513,0,0,90640,0,0,5727,0,6618130,0,202401,서울특별시 마포구 신수동 453-,37.5478317190815,126.934047923135
1144011100,아파트,계단식,개별난방,위탁관리,분양,서울특별시 마포구 신수로 105,391.0,(주)삼익주택,서울특별시 마포구 신수동 450- 마포신촌삼익아파트,3.0,(주)삼익주택,A12185606,4,027132977,40276.68,48.0,0.0,183.0,160.0,마포신촌삼익아파트,47624.76,027142976,24, ,19970408.0,9.0,391.0,24.0,30027.19,4095.0,23748310,0,0,143142,0,0,6438,0,5904580,0,202401,서울특별시 마포구 신수동 450-,37.5506326825996,126.9362343131
1144012400,아파트,계단식,개별난방,위탁관리,분양,서울특별시 마포구 연남로 52,466.0,연세맨션재건축조합,서울특별시 마포구 연남동 573- 코오롱하늘채,0.0,코오롱건설,A12186901,6,023379428,47429.78,135.0,15.0,112.0,204.0,코오롱하늘채,71856.0,023379425,15, ,20030628.0,16.0,466.0,15.0,41207.094,3976.0,35111861,302210,0,139030,0,0,8255,0,9502640,0,202401,서울특별시 마포구 연남동 573-,37.5648202770892,126.920157065443
1144010900,아파트,복도식,개별난방,자치관리,혼합,서울특별시 마포구 숭문길 106,678.0,SH공사,서울특별시 마포구 염리동 515-1 염리상록,0.0,신원건설,A12187403,6,0232728477,49105.191,0.0,0.0,678.0,0.0,염리상록,49874.96,0232728476,21, ,19970830.0,9.0,678.0,21.0,33259.81,4127.0,6305550,426520,0,36414,440,0,770,0,820480,0,202401,서울특별시 마포구 염리동 515-1,37.5509248817864,126.946795894081
1144010500,아파트,계단식,지역난방,위탁관리,혼합,서울특별시 마포구 토정로31길 23,563.0,용강2구역 재개발조합,서울특별시 마포구 용강동 502- 래미안마포리버웰,3.0,삼성물산,A12187501,9,027046113,90428.68,81.0,0.0,138.0,344.0,래미안마포리버웰,90428.68,027046112,23,raemianmaporiverwell.com,20150227.0,16.0,563.0,23.0,44905.51,4161.0,47950230,0,62111090,175474,0,570,10748,4200,10550840,29400000,202401,서울특별시 마포구 용강동 502-,37.5416401804529,126.941469163819
1144010500,아파트,계단식,개별난방,위탁관리,분양,서울특별시 마포구 큰우물로 28,430.0,용강1지구 재건축조합,서울특별시 마포구 용강동 380- 래미안용강아파트,2.0,삼성물산 건설부문,A12187602,9,0263943365,34722.96,82.0,0.0,174.0,174.0,래미안용강아파트,64231.78,0263943366,18,www.uasis.com,20030321.0,13.0,430.0,18.0,34722.96,4160.0,29112990,0,1253040,120253,0,0,8382,0,8388620,0,202401,서울특별시 마포구 용강동 380-,37.5438789550902,126.941592903435
1144012600,아파트,혼합식,개별난방,위탁관리,분양,서울특별시 마포구 성암로7길 3,282.0,현대,서울특별시 마포구 중동 40-12 성산2차현대,3.0,현대,A12187703,3,0263947635,31728.22,76.0,0.0,57.0,149.0,성산2차현대,43117.0,023067635,19, ,20001216.0,7.0,282.0,19.0,24788.7,3944.0,18195550,0,0,84651,0,0,5347,0,6417650,0,202401,서울특별시 마포구 중동 40-12,37.5703258450968,126.909115047523
1144012600,아파트,계단식,개별난방,위탁관리,분양,서울특별시 마포구 월드컵북로38가길 20,180.0,계룡건설,서울특별시 마포구 중동 391- 중동계룡,2.0,계룡건설,A12187901,2,023751329,19770.0,24.0,0.0,36.0,120.0,중동계룡,25671.87,023741329,19, ,20000930.0,7.0,180.0,19.0,15002.91,3941.0,14877490,0,0,51181,0,0,3448,0,3814050,0,202401,서울특별시 마포구 중동 391-,37.5707366081841,126.906120728644
1144012600,아파트,혼합식,개별난방,위탁관리,분양,서울특별시 마포구 성암로 41,206.0,성사2차 재건축조합,서울특별시 마포구 중동 393- 건영월드컵,2.0,(주) 건영,A12187902,2,0263526383,22589.0,51.0,0.0,57.0,98.0,건영월드컵,31108.0,023026383,19, ,20021101.0,5.0,206.0,19.0,16960.24,3951.0,16643152,0,0,61122,0,0,7689,0,8757400,0,202401,서울특별시 마포구 중동 393-,37.5683106029062,126.911745945758
1144012600,아파트,계단식,지역난방,위탁관리,분양,서울특별시 마포구 성암로11길 60,420.0,청구건설,서울특별시 마포구 중동 390- DMC마포청구아파트,1.0,청구건설,A12187904,4,023053111,47206.614,0.0,0.0,0.0,420.0,DMC마포청구아파트,48524.0,023739403,21,jdcg.apti.co.kr,19940929.0,11.0,420.0,21.0,35637.6,3933.0,24332111,0,63383630,121801,0,16220,0,2866,350500,13613500,202401,서울특별시 마포구 중동 390-,37.5744277597669,126.901749100281
1144012600,아파트,혼합식,개별난방,위탁관리,분양,서울특별시 마포구 성암로 91,477.0,현대건설,서울특별시 마포구 중동 392- 마포중동현대,2.0,현대건설,A12187905,6,023050739,50809.061,119.0,0.0,206.0,152.0,마포중동현대,62202.978,023750417,25,apt392.apti.co.kr/,20010727.0,9.0,477.0,25.0,38916.75,3943.0,34554800,222360,0,135850,0,0,8221,0,10573040,0,202401,서울특별시 마포구 중동 392-,37.5713163410379,126.906616371252
1144012600,아파트,계단식,개별난방,위탁관리,분양,서울특별시 마포구 월드컵북로38길 54,499.0,중동 월드컵참누리,서울특별시 마포구 중동 398- 월드컵참누리,2.0,울트라건설,A12187906,9,023755143,51955.51,0.0,0.0,42.0,457.0,월드컵참누리,73565.426,023755145,25,cafe.daum.net/ultraapt,20060504.0,9.0,499.0,25.0,41341.824,3942.0,39526913,0,0,0,0,0,9972,0,12013450,0,202401,서울특별시 마포구 중동 398-,37.5713897653285,126.905926907174
1144011400,아파트,계단식,개별난방,위탁관리,분양,서울특별시 마포구 서강로9길 19,239.0,금호건설,서울특별시 마포구 창전동 438- 신촌금호,3.0,금호건설,A12188201,3,023221438,24123.522,0.0,0.0,76.0,163.0,신촌금호,24123.522,023221437,19, ,20010330.0,7.0,239.0,19.0,18335.08,4062.0,20819900,68000,0,68772,0,0,7689,0,9108600,0,202401,서울특별시 마포구 창전동 438-,37.552897361267,126.932226410268
1144011400,아파트,계단식,개별난방,위탁관리,분양,서울특별시 마포구 서강로 83,243.0,창전동지역주택조합,서울특별시 마포구 창전동 440- 창전현대홈타운,2.0,현대건설(주),A12188202,5,023230955,23578.66,0.0,0.0,76.0,167.0,창전현대홈타운,31535.0,023230954,22,https://창전홈타운.apti.co.kr/aptHome/intro.asp,20050818.0,6.0,243.0,22.0,18724.802,4063.0,16893290,0,0,68296,0,0,4017,0,4768630,0,202401,서울특별시 마포구 창전동 440-,37.5509239825243,126.932047243944
1144011400,아파트,계단식,개별난방,위탁관리,분양,서울특별시 마포구 서강로9길 45,553.0,태영건설,서울특별시 마포구 창전동 439- 신촌태영데시앙,3.0,태영건설,A12188205,10,0263748977,58579.29,0.0,0.0,0.0,553.0,신촌태영데시앙,78095.16,023328977,24, ,20031128.0,14.0,553.0,24.0,46988.41,4060.0,46103218,59140,0,172999,0,0,10215,0,12282750,0,202401,서울특별시 마포구 창전동 439-,37.5526514342094,126.931369037449
