bjdCode,codeAptNm,codeHallNm,codeHeatNm,codeMgrNm,codeSaleNm,address,hoCnt,kaptAcompany,kaptAddr,kaptBaseFloor,kaptBcompany,kaptCode,kaptDongCnt,kaptFax,kaptMarea,kaptMparea_135,kaptMparea_136,kaptMparea_60,kaptMparea_85,kaptName,kaptTarea,kaptTel,kaptTopFloor,kaptUrl,kaptUsedate,kaptdEcntp,kaptdaCnt,ktownFlrNo,privArea,zipcode,전기사용금액,가스사용금액,난방사용금액,전기사용량,가스사용량,난방사용량,냉수사용량,온수사용량,냉수사용금액,온수사용금액,집계날짜,cleaned_address,lat,lon
1141011100,,계단식,개별난방,자치관리,분양,서울 서대문구 모래내로 453,136.0,광산기업주식회사,서울특별시 서대문구 홍제동 156-200 고은맨숀아파트,0.0,광산기업주식회사,A10021965,2, ,8892.5604,0.0,0.0,0.0,136.0,고은맨숀아파트,6202.0,023910875,0, ,19750617.0,0.0,136.0,,,,0,0,0,0,0,0,0,0,0,0,202401,서울특별시 서대문구 홍제동 156-200,37.5857462891939,126.945027997739
1141010200,,계단식,개별난방,위탁관리,분양,서울 서대문구 충정로4길 3,108.0,.,서울특별시 서대문구 충정로3가 466- 충정우리유앤미아파트,3.0,(주)우리건설,A10022194,1,07081170400,11806.257,108.0,0.0,0.0,0.0,충정우리유앤미아파트,17995.0,023130400,19,.,20080528.0,0.0,108.0,,,,0,0,0,0,0,0,0,0,0,0,202401,서울특별시 서대문구 충정로3,37.5612106600411,126.963932268454
1141011000,아파트,혼합식,개별난방,위탁관리,분양,서울특별시 서대문구 북아현로 40,106.0,북아현1동8통지구재건축조합,서울특별시 서대문구 북아현동 1006- 북아현경남아파트(101동),0.0,경남기업(주),A10023016,1, ,11308.308,10.0,0.0,47.0,49.0,북아현경남아파트(101동),14185.78,023636040,10, ,19960521.0,3.0,106.0,10.0,8118.98,3755.0,0,0,0,0,0,0,0,0,0,0,202401,서울특별시 서대문구 북아현동 1006-,37.561194879144,126.956170251417
1141010100,아파트,혼합식,개별난방,자치관리(직영),분양,서울특별시 서대문구 충정로7길 30,83.0,현대건설,서울특별시 서대문구 충정로2가 185-15 충정로현대아파트,1.0,현대건설,A10023116,1,023132712,8099.44,12.0,0.0,0.0,71.0,충정로현대아파트,10484.0,023132711,18, ,19921229.0,0.0,83.0,18.0,7170.3,3736.0,0,0,0,0,0,0,0,0,0,0,202401,서울특별시 서대문구 충정로2,37.5636879956614,126.963204308018
1141011100,아파트,계단식,개별난방,위탁관리,분양,서울특별시 서대문구 통일로 357,139.0,(주)한화건설,서울특별시 서대문구 홍제동 464- 무악재한화,2.0,(주)한화건설,A10023330,2, ,17561.64,52.0,0.0,0.0,87.0,무악재한화,17562.63,027375545,19, ,20010519.0,5.0,139.0,19.0,13244.58,3730.0,0,0,0,0,0,0,0,0,0,0,202401,서울특별시 서대문구 홍제동 464-,37.581985155662,126.949821166415
1141011800,아파트,계단식,개별난방,위탁관리,분양,서울특별시 서대문구 통일로 505,481.0,홍은제1주택재건축정비사업조합,서울특별시 서대문구 홍은동 104-5 e편한세상 서대문,4.0,DL이앤씨(주),A10023449,6,023795379,43112.431,8.0,0.0,321.0,152.0,e편한세상 서대문,72952.248,023795377,28, ,20230912.0,13.0,481.0,28.0,32446.93,3647.0,45727718,0,0,144842,0,0,7639,0,8405370,0,202401,서울특별시 서대문구 홍은동 104-5,37.5950487669108,126.939685376137
1141011800,아파트,계단식,,위탁관리,혼합,서울특별시 서대문구 가좌로4길 21,623.0,홍은동 제2주택 재건축 정비사업조합,서울특별시 서대문구 홍은동 338-5 힐스테이트 홍은포레스트 아파트,4.0,현대건설(주),A10023482,8, ,42282.0,0.0,0.0,294.0,329.0,힐스테이트 홍은포레스트 아파트,89957.0,023768823,14, ,20231229.0,27.0,623.0,14.0,42780.73,3655.0,58052620,0,0,194595,0,0,9700,0,9929200,0,202401,서울특별시 서대문구 홍은동 338-5,37.5860692560739,126.925704669864
1141011100,아파트,혼합식,개별난방,위탁관리,혼합,서울특별시 서대문구 통일로 339,832.0,홍제동 제1주택재건출 정비사업조합,서울특별시 서대문구 홍제동 57-5 서대문푸르지오센트럴파크,8.0,(주)대우건설,A10023560,10,027397252,73733.47,16.0,0.0,543.0,273.0,서대문푸르지오센트럴파크,73733.47,027397250,18, ,20221028.0,24.0,832.0,18.0,53830.69,3731.0,71497170,0,0,353553,0,0,11123,0,12472350,0,202401,서울특별시 서대문구 홍제동 57-5,37.5816007242803,126.950300428316
1141011800,아파트,혼합식,개별난방,위탁관리,분양,서울특별시 서대문구 홍은중앙로 81,101.0,홍은동일아파트,서울특별시 서대문구 홍은동 457- 홍은동일아파트,0.0,홍은동일아파트,A10023562,1,0232171600,10648.29,17.0,0.0,34.0,50.0,홍은동일아파트,14375.0,0232167911,20, ,19971008.0,1.0,101.0,20.0,7683.36,3604.0,0,0,0,0,0,0,0,0,0,0,202401,서울특별시 서대문구 홍은동 457-,37.5984516484115,126.94664554837
1141012000,주상복합,계단식,,위탁관리,분양,서울특별시 서대문구 수색로2길 39,450.0,모래내 서중양대시장 정비사업,서울특별시 서대문구 남가좌동 286-1 DMC금호리첸시아,4.0,금호건설,A10023709,5,023099746,47029.9,0.0,0.0,160.0,290.0,DMC금호리첸시아,72268.03,023099745,29, ,20240125.0,10.0,450.0,29.0,32941.15,3712.0,38277206,0,50124850,0,0,0,6730,0,7645670,0,202401,서울특별시 서대문구 남가좌동 286-1,37.5713138623931,126.915904667901
1141011100,아파트,계단식,개별난방,위탁관리,혼합,서울특별시 서대문구 세무서8길 30,1116.0,홍제 제3구역 주택재개발정비사업조합,서울특별시 서대문구 홍제동 270-1 홍제역 해링턴플레이스아파트,3.0,효성중공업(주),A10023959,18,023941106,108864.84,40.0,0.0,521.0,555.0,홍제역 해링턴플레이스아파트,183986.6,023941117,20, ,20240327.0,47.0,1116.0,20.0,80061.21,3626.0,115145380,0,0,340391,0,0,17491,0,42222900,0,202401,서울특별시 서대문구 홍제동 270-1,37.5906020621487,126.946917348053
1141011900,아파트,계단식,,자치관리,분양,서울특별시 서대문구 수색로 147-1,111.0,(주)신일,서울특별시 서대문구 북가좌동 455- 북가좌 신일해피트리아파트,3.0,(주)신일건설,A10024428,2,023763386,11617.38,0.0,0.0,15.0,96.0,북가좌 신일해피트리아파트,16005.0,023753381,13, ,20051031.0,5.0,111.0,13.0,9046.53,3715.0,0,0,0,0,0,0,0,0,0,0,202401,서울특별시 서대문구 북가좌동 455-,37.5752129149082,126.904417966743
1141011800,아파트,복도식,개별난방,위탁관리,분양,서울특별시 서대문구 홍은중앙로1길 100,296.0,홍은동 제6주택재건축정비사업조합,서울특별시 서대문구 홍은동 468- 북한산두산위브2차,3.0,두산건설(주),A10024532,4,023955114,36588.1496,0.0,0.0,296.0,0.0,북한산두산위브2차,36987.6793,023945114,14, ,20210913.0,14.0,296.0,14.0,17548.38,3609.0,20329380,0,0,81655,0,0,4197,0,4977740,0,202401,서울특별시 서대문구 홍은동 468-,37.5998657465139,126.944290266635
1141011100,,계단식,개별난방,위탁관리,분양,서울 서대문구 통일로26길 17,123.0,금호건설,서울특별시 서대문구 홍제동 467- 인왕산어울림 아파트,2.0,금호건설,A10024620,2,027381240,19300.678,109.0,14.0,0.0,0.0,인왕산어울림 아파트,26171.39,027341240,15, ,20060704.0,5.0,123.0,15.0,15679.27,,0,0,0,0,0,0,0,0,0,0,202401,서울특별시 서대문구 홍제동 467-,37.5833302140748,126.951025895957
1141011800,아파트,계단식,개별난방,위탁관리,분양,서울특별시 서대문구 통일로 555,121.0,세한종합건설,서울특별시 서대문구 홍은동 11-244 세한숲속마을아파트,5.0,건영,A10024692,1,023953600,12201.91,13.0,0.0,0.0,108.0,세한숲속마을아파트,19551.87,023953600,15, ,20020101.0,,121.0,15.0,10791.42,3647.0,0,0,0,0,0,0,0,0,0,0,202401,서울특별시 서대문구 홍은동 11-244,37.5963921702599,126.937143630813
1141011000,아파트,계단식,개별난방,위탁관리,혼합,서울특별시 서대문구 이화여대8길 123,1226.0,북아현1-1재개발주택조합,서울특별시 서대문구 북아현동 1017- 힐스테이트신촌,0.0,현대건설주식회사,A10024719,15,023134552,117387.7837,34.0,0.0,631.0,561.0,힐스테이트신촌,184229.03,023134551,20,shill.aptner.com,20200804.0,39.0,1226.0,20.0,84233.885,3763.0,109706460,0,0,366425,0,0,19730,0,21942660,0,202401,서울특별시 서대문구 북아현동 1017-,37.5632226783936,126.950297699069
1141012000,아파트,혼합식,지역난방,위탁관리,혼합,서울특별시 서대문구 거북골로 100,997.0,가재울뉴타운5구역 주택재개발 정비사업조합,서울특별시 서대문구 남가좌동 175- 래미안루센티아 아파트,3.0,삼성물산(주),A10024938,11,0231510670,98083.29,24.0,0.0,391.0,582.0,래미안루센티아 아파트,158125.5,0231510669,25,lucentia.aptner.com,20200423.0,31.0,997.0,25.0,72643.03,3689.0,88471306,0,74828690,305604,0,701,17426,6630,20155130,40462550,202401,서울특별시 서대문구 남가좌동 175-,37.5757256799627,126.918353630124
1141010200,주상복합,복도식,개별난방,위탁관리,임대,서울특별시 서대문구 경기대로 26-26,499.0,원석디엔씨,서울특별시 서대문구 충정로3가 480- 더스타일하우스디센트럴,6.0,대보건설,A10024966,2,0266774423,22806.9427,0.0,0.0,499.0,0.0,더스타일하우스디센트럴,40212.2753,0266774422,26, ,20200117.0,0.0,499.0,26.0,11826.2177,3737.0,24662130,0,0,67127,0,0,2848,0,3821370,0,202401,서울특별시 서대문구 충정로3,37.5610226183,126.962192415514
1141012000,아파트,혼합식,지역난방,위탁관리,혼합,서울특별시 서대문구 거북골로 84,1047.0,가재울뉴타운6구역주택재개발정비사업조합,서울특별시 서대문구 남가좌동 224- DMC에코자이,5.0,GS건설,A10025130,11,0269594998,96045.9,10.0,0.0,554.0,483.0,DMC에코자이,163482.755,0269594997,24,v2admin.aptmer.com,20191227.0,35.0,1047.0,24.0,70342.06,3687.0,68730304,0,82347540,288593,0,663,16402,7240,23194247,32580000,202401,서울특별시 서대문구 남가좌동 224-,37.5782296308468,126.918481311495
1141011800,아파트,혼합식,개별난방,위탁관리,혼합,서울특별시 서대문구 홍은중앙로3길 9,497.0,홍은 제 14구역 주택재개발정비사업조합,서울특별시 서대문구 홍은동 467- 북한산 두산 위브,3.0,두산건설,A10025166,11,023915116,69952.09,19.0,0.0,226.0,252.0,북한산 두산 위브,72972.0,023915114,21, ,20200721.0,15.0,497.0,21.0,35464.74,3610.0,41289156,273350,0,150303,0,0,7619,0,8776810,0,202401,서울특별시 서대문구 홍은동 467-,37.5990017774988,126.944654295681
1141011100,아파트,혼합식,개별난방,위탁관리,혼합,서울특별시 서대문구 통일로 395,906.0,홍제 제2구역주택재개발정비사업조합,서울특별시 서대문구 홍제동 473- 홍제센트럴아이파크,4.0,현대산업개발,A10025767,14,027209426,91359.6273,59.0,0.0,288.0,559.0,홍제센트럴아이파크,135059.7697,027209425,18, ,20181231.0,31.0,906.0,18.0,68259.93,3730.0,82293150,0,0,294787,0,0,13854,0,16196780,0,202401,서울특별시 서대문구 홍제동 473-,37.5846147512232,126.944491273195
1141011700,아파트,계단식,개별난방,위탁관리,혼합,서울특별시 서대문구 홍제천로 136,396.0,연희제1주택재건축정비조합,서울특별시 서대문구 연희동 747- 연희파크푸르지오 아파트,2.0,(주)대우건설,A10025822,5,023361186,41269.7206,35.0,0.0,136.0,225.0,연희파크푸르지오 아파트,64034.4057,023361185,19, ,20181221.0,13.0,396.0,19.0,31136.49,3695.0,38039327,0,0,127798,0,0,6614,0,7563000,0,202401,서울특별시 서대문구 연희동 747-,37.5751372720408,126.927510707223
1141012000,아파트,복도식,개별난방,위탁관리,혼합,서울특별시 서대문구 증가로 150,1061.0,남가좌1주택재건축정비사업 조합,서울특별시 서대문구 남가좌동 369-10 DMC센트럴아이파크,3.0,HDC현대산업개발,A10025976,13,023032297,111846.57,129.0,0.0,239.0,693.0,DMC센트럴아이파크,111933.59,023032296,22,https://DMC센트럴아이파크.apti.co.kr,20181231.0,34.0,1061.0,22.0,87034.07,3670.0,104195200,10825050,0,370311,0,0,17800,0,20094470,0,202401,서울특별시 서대문구 남가좌동 369-10,37.5780547612815,126.92101916232
1141011000,아파트,혼합식,개별난방,위탁관리,혼합,서울특별시 서대문구 북아현로1길 17,1910.0,북아현1-3 재개발 조합,서울특별시 서대문구 북아현동 136-21 e편한세상신촌아파트,5.0,대림산업,A10026370,22,023139075,186309.11,44.0,0.0,823.0,1043.0,e편한세상신촌아파트,306274.0,023139072,34, ,20180503.0,49.0,1910.0,34.0,136385.01,3773.0,124785993,0,0,551744,0,0,30167,0,34770440,0,202401,서울특별시 서대문구 북아현동 136-21,37.5586677131962,126.953450474616
1141011800,아파트,혼합식,개별난방,위탁관리,혼합,서울특별시 서대문구 통일로 510,552.0,홍은12구역주택재개발정비사업조합,서울특별시 서대문구 홍은동 464- 북한산 더샵,3.0,포스코건설,A10026604,8,023919905,54604.062,76.0,0.0,185.0,291.0,북한산 더샵,94686.296,023919903,20,www.bhsthesharp.com,20171218.0,18.0,552.0,20.0,42118.33,3615.0,50078409,0,0,172799,0,0,7646,0,8977850,0,202401,서울특별시 서대문구 홍은동 464-,37.594570187466,126.941167410528
1141012000,도시형 생활주택(주상복합),복도식,개별난방,위탁관리,분양,서울특별시 서대문구 모래내로 151,288.0,스카이원레져,서울특별시 서대문구 남가좌동 387- 상암DMC엘가,2.0,모아주택산업(주),A10027019,1,0260108782,12611.59,0.0,0.0,288.0,0.0,상암DMC엘가,13557.98,0260108781,15, ,20170208.0,2.0,288.0,15.0,5862.19,3712.0,11097080,0,0,0,0,0,2032,0,3110900,0,202401,서울특별시 서대문구 남가좌동 387-,37.5699012905386,126.917835668207
1141011100,아파트,계단식,개별난방,위탁관리,분양,서울특별시 서대문구 모래내로 411,296.0,무궁화재건축정비조합,서울특별시 서대문구 홍제동 451-13 홍제금호어울림아파트,2.0,금호건설,A10027681,10,023940843,30321.45,0.0,0.0,78.0,218.0,홍제금호어울림아파트,46677.53,023940842,13, ,20160203.0,0.0,296.0,13.0,23110.9741,3644.0,22314970,0,0,90647,0,0,5281,0,6376250,0,202401,서울특별시 서대문구 홍제동 451-13,37.5850572917686,126.940908608914
1141012000,아파트,혼합식,지역난방,위탁관리,혼합,서울특별시 서대문구 가재울미래로 2,4300.0,가재울4구역 재건축조합,서울특별시 서대문구 남가좌동 124-1 DMC파크뷰자이아파트,3.0,"현대산업개발, SK건설, GS건설",A10027817,61,029318356,340973.0,423.0,124.0,1231.0,2522.0,DMC파크뷰자이아파트,712875.0,029318360,33, ,20151026.0,113.0,4300.0,33.0,344842.81,3711.0,388534536,0,403772850,1376240,0,3931,75965,28055,80697580,209851350,202401,서울특별시 서대문구 남가좌동 124-1,37.5744019902031,126.917907814167
1141011000,아파트,혼합식,개별난방,위탁관리,혼합,서울특별시 서대문구 북아현로1길 50,940.0,주택조합,서울특별시 서대문구 북아현동 174- 신촌푸르지오 아파트,5.0,대우건설,A10027851,16,023628830,92.0,94.0,0.0,394.0,452.0,신촌푸르지오 아파트,148.0,023628828,20, ,20151023.0,36.0,940.0,20.0,68588.83,3770.0,28041760,0,0,150537,0,0,1359,0,1078690,0,202401,서울특별시 서대문구 북아현동 174-,37.559690000903,126.952811165218
1141010300,아파트,계단식,개별난방,위탁관리,분양,서울특별시 서대문구 서소문로 43-8,180.0,SK건설,서울특별시 서대문구 합동 118- 충정로 skview 아파트,2.0,SK건설,A12003001,3,023131323,19014.903,0.0,0.0,26.0,154.0,충정로 skview 아파트,29092.0,023131322,20, ,20081031.0,0.0,180.0,20.0,14639.315,3741.0,16073188,0,0,52284,0,0,3004,0,3627220,0,202401,서울특별시 서대문구 합동 118-,37.5620950342454,126.965595864592
1141010600,아파트,혼합식,개별난방,위탁관리,분양,서울특별시 서대문구 독립문로8길 54,1008.0,대한주택공사,서울특별시 서대문구 천연동 145- 서대문천연뜨란채아파트,2.0,"요진산업(주),제이알종합건설(주)",A12004001,15,0263822801,99586.793,0.0,0.0,868.0,140.0,서대문천연뜨란채아파트,100204.848,0263822800,18, ,20060313.0,26.0,1008.0,18.0,58486.51,3743.0,58085646,0,0,258853,0,0,15757,0,17802750,0,202401,서울특별시 서대문구 천연동 145-,37.5687909291458,126.958474382973
1141010500,아파트,혼합식,개별난방,위탁관리,분양,서울특별시 서대문구 독립문로14길 74,237.0,냉천동 재개발조합,서울특별시 서대문구 냉천동 260- 냉천동부센트레빌,2.0,동부건설,A12005001,3,023933027,25860.51,59.0,0.0,99.0,79.0,냉천동부센트레빌,34455.83,023933026,17, ,20020321.0,7.0,237.0,17.0,19415.89,3745.0,17355320,0,0,62935,0,0,3511,0,3943990,0,202401,서울특별시 서대문구 냉천동 260-,37.5664990415821,126.959702975189
1141010800,아파트,계단식,개별난방,위탁관리,분양,서울특별시 서대문구 독립문로 10,895.0,삼호건설,서울특별시 서대문구 영천동 100- 독립문삼호,0.0,삼호건설,A12007001,8,023620695,101828.99,240.0,0.0,0.0,655.0,독립문삼호,117342.6,023652461,18, ,19950623.0,27.0,895.0,18.0,80064.18,3743.0,55383679,0,0,260115,0,0,14405,0,17852670,0,202401,서울특별시 서대문구 영천동 100-,37.5693625124039,126.958195607419
1141010900,아파트,복도식,개별난방,위탁관리,분양,서울특별시 서대문구 통일로 279-75,290.0,SH공사,서울특별시 서대문구 현저동 1019- 독립문파크빌,2.0,우정건설,A12008001,4,023931478,23133.3,0.0,0.0,290.0,0.0,독립문파크빌,30146.26,023935258,15, ,20001213.0,5.0,290.0,15.0,17226.0,3732.0,13935680,0,0,61478,0,0,3262,0,4161750,0,202401,서울특별시 서대문구 현저동 1019-,37.5749854476653,126.951168789689
1141010900,아파트,계단식,개별난방,위탁관리,분양,서울특별시 서대문구 독립문공원길 17,1300.0,독립문 극동아파트 조합,서울특별시 서대문구 현저동 200- 독립문극동,3.0,극동건설(주),A12008003,12,0267496899,140733.08,368.0,0.0,350.0,582.0,독립문극동,172036.0,023930180,23, ,19981210.0,29.0,1300.0,23.0,110170.05,3733.0,86466426,0,0,483088,0,0,21561,7644,25419900,42653520,202401,서울특별시 서대문구 현저동 200-,37.5723811886189,126.955198449007
1141011100,아파트,복도식,개별난방,위탁관리,임대,서울특별시 서대문구 세검정로 134,150.0,유원건설,서울특별시 서대문구 홍제동 454- 홍제유원하나제2,0.0,유원건설,A12009001,1,023797219,5848.5,0.0,0.0,150.0,0.0,홍제유원하나제2,5849.1,023797218,15,http://happy.i-sh.co.kr/intro.do,19960807.0,1.0,150.0,18.0,4306.5,3620.0,3458720,232470,0,20368,0,0,1284,0,909370,0,202401,서울특별시 서대문구 홍제동 454-,37.5946784879132,126.951911979297
1141011100,주상복합,계단식,,위탁관리,분양,서울 서대문구 통일로 397,115.0,힌신공영,서울특별시 서대문구 홍제동 469- 인왕산한신휴플러스,5.0,한신공영,A12009002,1,027230097,20116.323,53.0,0.0,0.0,62.0,인왕산한신휴플러스,34557.216,027230096,15, ,20091202.0,,115.0,15.0,11566.588,,0,0,0,0,0,0,0,0,0,0,202401,서울특별시 서대문구 홍제동 469-,37.5851683009936,126.947398082336
1141011100,아파트,혼합식,개별난방,자치관리,분양,서울특별시 서대문구 홍제내길 168,192.0,백련연합 재건축 주택조합,서울특별시 서대문구 홍제동 457- 홍제남양,3.0,남양건설(주),A12009101,3,023956309,20596.6,44.0,0.0,72.0,76.0,홍제남양,28848.76,023956308,23, ,19990930.0,0.0,192.0,23.0,15760.72,3640.0,15033540,233810,0,51484,0,0,2876,0,3398520,0,202401,서울특별시 서대문구 홍제동 457-,37.5887177176409,126.937853657192
1141011100,아파트,계단식,개별난방,위탁관리,분양,서울특별시 서대문구 통일로39가길 57,704.0,홍제11구역 재개발조합,서울특별시 서대문구 홍제동 331- 홍제현대아파트,1.0,현대산업개발,A12009102,8,023962958,80523.5622,264.0,0.0,0.0,440.0,홍제현대아파트,86368.43,023950791,15, ,19920708.0,22.0,704.0,15.0,63142.32,3638.0,40266976,0,0,200591,6759,0,12433,0,13452420,0,202401,서울특별시 서대문구 홍제동 331-,37.5899000753645,126.940985283729
1141011100,아파트,혼합식,개별난방,위탁관리,분양,서울특별시 서대문구 모래내로 430,242.0,태진연립주택조합,서울특별시 서대문구 홍제동 456- 홍제성원아파트,3.0,성원산업개발(주),A12009201,3,027230959,22272.12,60.0,0.0,152.0,30.0,홍제성원아파트,32437.29,027200959,17, ,19980511.0,0.0,242.0,17.0,16636.44,3728.0,13722930,0,0,55894,0,0,2844,0,3733310,0,202401,서울특별시 서대문구 홍제동 456-,37.5836195224807,126.9422547512
1141011100,아파트,혼합식,개별난방,위탁관리,분양,서울특별시 서대문구 통일로 319,474.0,삼성래미안,서울특별시 서대문구 홍제동 461- 홍제삼성래미안,3.0,삼성래미안,A12009202,6,0263511248,42193.08,90.0,0.0,268.0,116.0,홍제삼성래미안,56189.0,027301248,15, ,20010613.0,11.0,474.0,15.0,32648.58,3731.0,27611870,0,0,109783,0,0,5815,0,7653850,0,202401,서울특별시 서대문구 홍제동 461-,37.5781824961904,126.951950212766
1141011100,아파트,계단식,개별난방,위탁관리,분양,서울특별시 서대문구 통일로 348,862.0,직장주택조합,서울특별시 서대문구 홍제동 453- 홍제무악청구1차,2.0,(주)청구,A12009203,14,023916975,102585.1546,0.0,0.0,0.0,862.0,홍제무악청구1차,104807.0,023790269,18,www.muakapt.com,19940630.0,31.0,862.0,18.0,73080.36,3635.0,50871044,0,0,265078,0,0,0,0,2963550,0,202401,서울특별시 서대문구 홍제동 453-,37.5812615487925,126.952834460777
1141011100,아파트,계단식,개별난방,위탁관리,분양,서울특별시 서대문구 세무서길 106-12,236.0,벽산건설,서울특별시 서대문구 홍제동 465- 인왕산벽산아파트,2.0,벽산건설,A12009302,2,0263837769,25005.19,28.0,0.0,64.0,144.0,인왕산벽산아파트,30535.22,023918905,18,없음,20030620.0,4.0,236.0,18.0,19274.95,3625.0,16300510,163820,0,68599,0,0,4312,0,4945830,0,202401,서울특별시 서대문구 홍제동 465-,37.5922065879183,126.948428268337
1141011100,아파트,계단식,개별난방,위탁관리,분양,서울특별시 서대문구 세무서2길 64,240.0,주택조합,서울특별시 서대문구 홍제동 455- 홍제현대그린,2.0,현대건설,A12009303,2,023951138,25977.6,0.0,0.0,0.0,240.0,홍제현대그린,28707.01,023951135,15, ,19960722.0,10.0,240.0,15.0,20390.4,3626.0,14482630,0,0,67285,0,0,4097,0,4730980,0,202401,서울특별시 서대문구 홍제동 455-,37.5887646352864,126.949934368215
1141011100,아파트,혼합식,개별난방,위탁관리,혼합,서울특별시 서대문구 세검정로 134,554.0,지역조합,서울특별시 서대문구 홍제동 454- 홍제유원하나,2.0,유원건설,A12009304,5,023965552,58619.18,153.0,0.0,132.0,269.0,홍제유원하나,61031.0,023953825,18, ,19960807.0,12.0,554.0,18.0,45054.5,3620.0,33718930,0,0,154951,0,0,8740,0,12264450,0,202401,서울특별시 서대문구 홍제동 454-,37.5946784879132,126.951911979297
1141011100,아파트,혼합식,개별난방,위탁관리,분양,서울특별시 서대문구 문화촌길 6-24,767.0,현대,서울특별시 서대문구 홍제동 463- 문화촌현대,3.0,고려개발,A12009305,4,023790333,76865.951,0.0,0.0,309.0,459.0,문화촌현대,90620.067,023962067,20, ,20021122.0,16.0,768.0,20.0,57471.93,3625.0,42936140,0,0,196110,0,0,13320,0,14111460,0,202401,서울특별시 서대문구 홍제동 463-,37.5914267755131,126.949460877903
1141011800,아파트,타워형,개별난방,위탁관리,혼합,서울특별시 서대문구 홍은중앙로1길 65,195.0,홍은동제3주택 재건축정비사업조합,서울특별시 서대문구 홍은동 463- 홍은동원베네스트,2.0,동원건설,A12010001,5,023790943,21458.155,35.0,0.0,42.0,118.0,홍은동원베네스트,30346.601,023790942,13, ,20120919.0,10.0,195.0,13.0,16236.102,3613.0,14072850,0,0,60704,0,0,3304,0,4160080,0,202401,서울특별시 서대문구 홍은동 463-,37.5984834346677,126.944456625497
1141011800,아파트,복도식,개별난방,자치관리,분양,서울특별시 서대문구 통일로48가길 37,181.0,.,서울특별시 서대문구 홍은동 440-3 홍은풍림1차,0.0,.,A12010101,1,0232168058,15910.4,0.0,0.0,109.0,72.0,홍은풍림1차,16197.56,0232168057,12, ,19880209.0,2.0,181.0,12.0,10816.65,3615.0,7274870,0,0,34565,0,0,2235,0,2700180,0,202401,서울특별시 서대문구 홍은동 440-3,37.5946836916886,126.942404162372
1141011800,아파트,혼합식,개별난방+기타,위탁관리,분양,서울특별시 서대문구 세검정로1길 35,390.0,풍림산업,서울특별시 서대문구 홍은동 453-2 홍은풍림2차,2.0,풍림산업,A12010103,3,0232164465,36141.97,30.0,0.0,203.0,157.0,홍은풍림2차,39447.02,0232179549,15, ,19901219.0,6.0,390.0,15.0,27166.95,3615.0,2814642,0,0,0,0,3012,0,0,0,0,202401,서울특별시 서대문구 홍은동 453-2,37.5936393558826,126.943908224087
1141011800,아파트,혼합식,개별난방,위탁관리,혼합,서울특별시 서대문구 세검정로1길 95,1509.0,홍은제5-3구역 주택개량 재개발  조합,서울특별시 서대문구 홍은동 455- 홍은벽산,3.0,벽산건설(주),A12010104,17,023969797,165104.1102,270.0,270.0,345.0,624.0,홍은벽산,165653.0,023799798,15,www.hbsapt.co.kr,19970930.0,43.0,1509.0,15.0,137695.92,3612.0,94643518,0,0,441383,0,0,0,0,1344815,0,202401,서울특별시 서대문구 홍은동 455-,37.5959199688468,126.94569176914
1141011800,아파트,계단식,개별난방,위탁관리,분양,서울특별시 서대문구 홍은중앙로 149,333.0,건양RND,서울특별시 서대문구 홍은동 460- 홍은풍림아이원,5.0,풍림산업(주),A12010202,7,023799766,44774.71,142.0,0.0,0.0,191.0,홍은풍림아이원,56668.175,023799765,20, ,20021122.0,10.0,333.0,20.0,33620.148,3600.0,24243737,0,0,100019,0,0,6155,0,6723660,0,202401,서울특별시 서대문구 홍은동 460-,37.6038942929286,126.947316045529
1141011800,아파트,계단식,개별난방,위탁관리,분양,서울특별시 서대문구 포방터10길 33,488.0,공익건설(주)외 9개 조합,서울특별시 서대문구 홍은동 454- 홍은극동,0.0,극동건설,A12010203,6,023951919,52867.87,0.0,15.0,0.0,473.0,홍은극동,60124.88,023911919,18, ,19951102.0,17.0,488.0,18.0,42398.86,3601.0,30286089,0,0,143276,0,0,0,0,950450,0,202401,서울특별시 서대문구 홍은동 454-,37.6024550886221,126.951392730744
1141011700,아파트,혼합식,개별난방,위탁관리,분양,서울특별시 서대문구 연희로 38-20,562.0,대우건설(주),서울특별시 서대문구 연희동 739- 연희대우,3.0,대우건설(주),A12011002,7,0231418602,59497.716,120.0,0.0,246.0,196.0,연희대우,81339.88,0231418600,22, ,20020730.0,12.0,562.0,22.0,45032.934,3781.0,35233663,0,0,163941,0,0,9237,0,10289170,0,202401,서울특별시 서대문구 연희동 739-,37.5620932194086,126.928576405497
1141012000,아파트,계단식,개별난방,위탁관리,분양,서울특별시 서대문구 거북골로 91-6,110.0,쌍용건설,서울특별시 서대문구 남가좌동 380- 쌍용스윗닷홈,1.0,쌍용건설,A12012001,1,023032531,12686.2,20.0,0.0,0.0,90.0,쌍용스윗닷홈,15107.09,023032530,20, ,20051209.0,3.0,110.0,20.0,10212.4,3710.0,0,0,0,0,0,0,0,0,0,0,202401,서울특별시 서대문구 남가좌동 380-,37.5754683653941,126.919548435684
1141012000,아파트,계단식,개별난방,위탁관리,분양,서울특별시 서대문구 수색로6길 43,503.0,삼성건설,서울특별시 서대문구 남가좌동 379- 래미안남가좌2차,2.0,삼성건설,A12012101,10,023763736,51203.298,81.0,0.0,214.0,208.0,래미안남가좌2차,80843.0,023763732,15, ,20051026.0,19.0,503.0,15.0,39732.513,3791.0,38146667,0,0,143981,0,0,7796,0,10149640,0,202401,서울특별시 서대문구 남가좌동 379-,37.5725656308396,126.912456683589
1141012000,아파트,계단식,개별난방,위탁관리,임대,서울특별시 서대문구 증가로 191,358.0,(주)삼성물산,서울특별시 서대문구 남가좌동 377-1 DMC래미안클라시스,2.0,(주)삼성물산,A12012201,2,023095743,10940.48,0.0,0.0,358.0,0.0,DMC래미안클라시스,22912.71,023095742,17, ,20001215.0,4.0,358.0,17.0,10940.48,3686.0,10121270,278720,0,60621,1741,0,3525,0,2964680,0,202401,서울특별시 서대문구 남가좌동 377-1,37.5784968293823,126.917392296871
1141012000,아파트,혼합식,개별난방,위탁관리,분양,서울특별시 서대문구 증가로 191,1114.0,남가좌 7재개발조합,서울특별시 서대문구 남가좌동 377- DMC래미안클라시스(분양),1.0,삼성물산(주),A12012202,14,023762745,120693.1904,265.0,0.0,425.0,424.0,DMC래미안클라시스(분양),158327.0,023762743,20,dmcclassis.aptner.com,20001215.0,36.0,1114.0,20.0,91868.31,3686.0,69063698,-3600,0,332270,11144,0,20403,0,25190360,0,202401,서울특별시 서대문구 남가좌동 377-,37.5784968293823,126.917392296871
1141012000,아파트,혼합식,개별난방,위탁관리,분양,서울특별시 서대문구 가재울로 45,1155.0,조합,서울특별시 서대문구 남가좌동 376- 남가좌동현대아파트,1.0,현대산업개발(주),A12012203,10,023024693,122576.53,296.0,0.0,532.0,327.0,남가좌동현대아파트,122576.63,023024697,20,www.apt376.net,19990527.0,25.0,1155.0,20.0,92778.04,3710.0,66916058,0,0,0,0,0,18486,0,21785020,0,202401,서울특별시 서대문구 남가좌동 376-,37.5756614284394,126.920851657864
1141011900,아파트,계단식,개별난방,위탁관리,분양,서울특별시 서대문구 거북골로18가길 23,197.0, ,서울특별시 서대문구 북가좌동 456- DMC휴먼빌,0.0,일신건영,A12013001,4,023030227,21656.1976,48.0,0.0,0.0,149.0,DMC휴먼빌,30955.07,023030232,15, ,20081223.0,7.0,197.0,15.0,18163.95,3691.0,15516146,0,0,60931,0,0,0,0,0,0,202401,서울특별시 서대문구 북가좌동 456-,37.5773418665934,126.911817022824
1141011900,아파트,계단식,지역난방,위탁관리,혼합,서울특별시 서대문구 거북골로14길 32,362.0,현대산업개발,서울특별시 서대문구 북가좌동 458- DMC아이파크,2.0,현대산업개발,A12013002,5,023762810,34712.7,71.0,0.0,151.0,140.0,DMC아이파크,57803.03,023090133,15, ,20090331.0,14.0,362.0,15.0,26666.85,3690.0,29586330,0,41842470,126602,0,21422,6136,2439,7349130,15154010,202401,서울특별시 서대문구 북가좌동 458-,37.576951075894,126.914595329134
1141011900,아파트,혼합식,지역난방,위탁관리,혼합,서울특별시 서대문구 수색로 100,3293.0,가재울뉴타운제3구역재재발조합,서울특별시 서대문구 북가좌동 481- DMC래미안e편한세상,0.0,"삼성물산, 대림산업",A12013003,51,023023107,363588.83,504.0,146.0,986.0,1657.0,DMC래미안e편한세상,575494.03,023023105,35,dmcre.co.kr,20121005.0,0.0,3293.0,35.0,271661.76,3709.0,270902370,0,330241530,1039408,0,3146,59983,21499,65891260,190557680,202401,서울특별시 서대문구 북가좌동 481-,37.5747334832097,126.907916083955
1141011900,아파트,혼합식,개별난방,자치관리,분양,서울특별시 서대문구 응암로 33,213.0,북가좌 제 2주택조합,서울특별시 서대문구 북가좌동 453- 디엠씨현대,2.0,현대건설(주),A12013101,3,023028589,16130.24,0.0,0.0,56.0,157.0,디엠씨현대,24672.48,023038589,15, ,20000929.0,7.0,213.0,15.0,16130.24,3714.0,3275820,0,0,0,0,0,0,0,0,0,202401,서울특별시 서대문구 북가좌동 453-,37.5767207624417,126.908206952284
1141011900,아파트,계단식,개별난방,위탁관리,분양,서울특별시 서대문구 증가로 200-8,235.0,포레빌,서울특별시 서대문구 북가좌동 459- DMC두산위브,2.0,두산중공업,A12013201,4,023767677,25364.5,0.0,0.0,0.0,235.0,DMC두산위브,34378.712,023767676,15, ,20070226.0,6.0,235.0,15.0,19968.255,3670.0,21873840,0,0,75630,0,0,4228,0,5095170,0,202401,서울특별시 서대문구 북가좌동 459-,37.5798834729778,126.917155400657
1141011900,아파트,계단식,지역난방,위탁관리,분양,서울특별시 서대문구 거북골로 154,616.0,삼호건설,서울특별시 서대문구 북가좌동 449- 북가좌삼호,0.0,삼호건설,A12013202,4,023757080,70627.38,196.0,0.0,0.0,420.0,북가좌삼호,81997.0,023727080,18,북가좌삼호.apti.co.kr,19960216.0,1.0,616.0,18.0,56969.64,3690.0,38449283,0,77766980,167847,0,664,10589,3830,12188220,24467200,202401,서울특별시 서대문구 북가좌동 449-,37.5765626078203,126.913783524957
1141011200,아파트,혼합식,개별난방,위탁관리,분양,서울특별시 서대문구 이화여대길 50-12,855.0,럭키건설,서울특별시 서대문구 대현동 144- 신촌럭키,0.0,럭키건설,A12017001,10,023650358,86844.3,75.0,0.0,315.0,465.0,신촌럭키,97520.84,023124426,15, ,19990226.0,18.0,855.0,15.0,66697.2,3764.0,45775686,0,0,205578,0,0,0,0,400000,0,202401,서울특별시 서대문구 대현동 144-,37.5594539604684,126.946519557644
1141010500,아파트,계단식,개별난방,위탁관리,분양,서울특별시 서대문구 독립문로14길 33,561.0,충정로 냉천구역 주택 재개발 조합,서울특별시 서대문구 냉천동 261- 돈의문센트레빌,0.0,동부건설,A12070101,14,023648523,60127.771,133.0,0.0,164.0,264.0,돈의문센트레빌,94117.0,023648522,15,https://cent.apti.co.kr,20110407.0,0.0,561.0,15.0,47566.42,3746.0,50101258,0,0,265611,0,0,9945,0,11551250,0,202401,서울특별시 서대문구 냉천동 261-,37.5659199197267,126.959289467461
1141010200,주상복합,복도식,개별난방,위탁관리,분양,서울특별시 서대문구 서소문로 27,258.0,마포로 제5구역 6-1지구 도심 재개발주택조합,서울특별시 서대문구 충정로3가 465- 충정리시온,5.0,대림,A12070201,1,023926132,20375.8,0.0,0.0,258.0,0.0,충정리시온,20416.42,023926112,21,cafe.daum.net/rezion465,20040923.0,2.0,258.0,21.0,10871.28,3741.0,3198810,0,0,20864,0,0,0,0,192890,0,202401,서울특별시 서대문구 충정로3,37.5602447709958,126.964759518411
1141011800,아파트,계단식,개별난방,위탁관리,분양,서울특별시 서대문구 모래내로 309,294.0,신성주택(주),서울특별시 서대문구 홍은동 456- 홍은두산,0.0,두산건설(주),A12071001,3,023951473,28118.94,0.0,0.0,90.0,204.0,홍은두산,33403.81,023951472,15, ,19971013.0,11.0,294.0,15.0,22682.91,3657.0,19351660,0,0,76902,0,0,4239,0,5472770,0,202401,서울특별시 서대문구 홍은동 456-,37.578896435345,126.931492692669
1141011800,아파트,계단식,개별난방,위탁관리,분양,서울특별시 서대문구 통일로 553,201.0,동부건설(주),서울특별시 서대문구 홍은동 461- 홍은동부센트레빌,4.0,홍은 제10구역 주택재개발 정비사업조함,A12071002,4,023919887,23024.794,49.0,0.0,54.0,98.0,홍은동부센트레빌,37008.47,023919888,20, ,20090831.0,8.0,201.0,20.0,17178.83,3647.0,19547152,0,0,62348,0,0,3132,0,4058470,0,202401,서울특별시 서대문구 홍은동 461-,37.5972184006335,126.938208039041
1141011800,아파트,혼합식,개별난방,자치관리,분양,서울특별시 서대문구 연희로41길 102,300.0,라이프주택,서울특별시 서대문구 홍은동 186-1 홍은미성아파트,0.0,라이프주택,A12071003,4,0232175387,35649.564,96.0,0.0,0.0,204.0,홍은미성아파트,36310.86,0232175385,12, ,19850320.0,11.0,300.0,12.0,28423.68,3648.0,18142020,0,0,82728,0,0,4523,0,5585140,0,202401,서울특별시 서대문구 홍은동 186-1,37.5931079822992,126.934684199248
1141011800,아파트,계단식,개별난방,자치관리,분양,서울 서대문구 모래내로 319,90.0,산업은행.홍은2주택조합,서울특별시 서대문구 홍은동 459- 진흥,2.0,진흥,A12071004,1,023967435,11863.22,14.0,0.0,15.0,61.0,진흥,11863.22,023967434,15,hejhapt.co.kr,20180801.0,,90.0,15.0,7117.67,,0,0,0,0,0,0,0,0,0,0,202401,서울특별시 서대문구 홍은동 459-,37.5799383125545,126.93253214162
1141011700,아파트,혼합식,개별난방,위탁관리,분양,서울특별시 서대문구 연희로32길 48,581.0,연희3동B지구재건축조합,서울특별시 서대문구 연희동 740- 연희성원,0.0,성원건설,A12071101,8,0231426578,64387.243,95.0,38.0,128.0,320.0,연희성원,89550.0,023263500,22,연희성원.apti.co.kr,20010531.0,17.0,581.0,22.0,50980.04,3719.0,39910346,0,0,169484,0,0,10059,0,12064660,0,202401,서울특별시 서대문구 연희동 740-,37.5758600491846,126.937263003322
1141011700,아파트,혼합식,개별난방,자치관리,분양,서울특별시 서대문구 동교로 291,212.0,임광토건,서울특별시 서대문구 연희동 738- 연희임광아파트,3.0,임광토건,A12071102,2,023321242,20375.92,36.0,0.0,140.0,36.0,연희임광아파트,30573.39,023321272,18, ,19990224.0,4.0,212.0,18.0,15580.72,3716.0,13257820,0,0,50197,0,0,2876,0,3367190,0,202401,서울특별시 서대문구 연희동 738-,37.5653469694737,126.927366258949
1141011700,아파트,계단식,개별난방,위탁관리,분양,서울특별시 서대문구 연희로32길 20,220.0,대림,서울특별시 서대문구 연희동 700- 연희대림아파트,0.0,대림,A12071103,3,0231417397,27330.8,80.0,0.0,0.0,140.0,연희대림아파트,27331.0,023257396,10, ,19930903.0,11.0,220.0,10.0,21422.8,3719.0,15035530,0,0,67235,0,0,4403,0,4680400,0,202401,서울특별시 서대문구 연희동 700-,37.5752089728931,126.93605453892
1141011700,도시형 생활주택(주상복합),복도식,개별난방+기타,위탁관리,분양,서울특별시 서대문구 연희로5길 14,186.0,무궁화신탁(서강냉동),서울특별시 서대문구 연희동 745- 연희자이엘라,1.0,GS건설,A12071104,1,023323182,4545.246,0.0,0.0,186.0,0.0,연희자이엘라,5817.0,023223181,13, ,20140129.0,0.0,186.0,13.0,2565.952,3716.0,4764558,0,0,19274,0,0,935,0,1075250,0,202401,서울특별시 서대문구 연희동 745-,37.5640636580947,126.928064959316
1141012000,아파트,계단식,지역난방,위탁관리,혼합,서울특별시 서대문구 거북골로 120,473.0,주택조합,서울특별시 서대문구 남가좌동 381- DMC센트레빌,2.0,동부건설,A12072801,7,023091489,46536.413,93.0,0.0,205.0,175.0,DMC센트레빌,76631.0,023041489,15,가재울센트레빌.apti.co.kr,20090602.0,21.0,473.0,15.0,35124.81,3690.0,31926000,0,44734050,133662,0,436,7572,2842,9506860,26730920,202401,서울특별시 서대문구 남가좌동 381-,37.5754832622486,126.916097519773
1141012000,아파트,복도식,개별난방,위탁관리,임대,서울특별시 서대문구 가재울로 45,330.0,현대사업개발,서울특별시 서대문구 남가좌동 376-2 남가좌현대제2,2.0,현대사업개발,A12072802,1,023073218,18087.3,0.0,0.0,330.0,0.0,남가좌현대제2,22115.27,023073217,18,happy.i-sh.co.kr,19990527.0,4.0,330.0,18.0,10810.8,3710.0,9944750,0,0,58159,0,0,3346,0,2459250,0,202401,서울특별시 서대문구 남가좌동 376-2,37.5756614284394,126.920851657864
1141011100,아파트,혼합식,개별난방,위탁관리,분양,서울특별시 서대문구 세무서8길 49,119.0,공보처주택조합 외,서울특별시 서대문구 홍제동 468- 홍제비콘드림힐,3.0,비콘건설.청일건설,A12076401,1,023795509,12537.244,15.0,0.0,0.0,104.0,홍제비콘드림힐,17453.0,023795500,15, ,20060526.0,0.0,119.0,15.0,10013.259,3625.0,0,0,0,0,0,0,0,0,0,0,202401,서울특별시 서대문구 홍제동 468-,37.59038541882,126.949064950584
1141011900,아파트,복도식,개별난방,위탁관리,임대,서울특별시 서대문구 거북골로 154,267.0,Sh공사,서울특별시 서대문구 북가좌동 449-1 북가좌삼호제2,1.0,대림건설,A12076601,1, ,14252.46,0.0,0.0,267.0,0.0,북가좌삼호제2,14253.15,023023751,18,www.i-sh.co.kr/happy/intro.do,19960216.0,3.0,267.0,18.0,8410.5,3690.0,3652230,0,0,0,0,0,2523,0,2229980,0,202401,서울특별시 서대문구 북가좌동 449-1,37.5765626078203,126.913783524957
1141011100,아파트,복도식,개별난방,위탁관리,임대,서울특별시 서대문구 통일로34길 46,246.0, ,서울특별시 서대문구 홍제동 460-1 인왕산현대,0.0, ,A12078201,1,023941264,11566.92,0.0,0.0,246.0,0.0,인왕산현대,13529.94,023944236,18, ,20000705.0,3.0,246.0,18.0,8036.82,3633.0,7756130,14780,0,39533,0,0,2742,0,2005230,0,202401,서울특별시 서대문구 홍제동 460-1,37.5858575994513,126.949974583404
1141011100,아파트,혼합식,개별난방,위탁관리,분양,서울특별시 서대문구 통일로34길 43,939.0,현대건설,서울특별시 서대문구 홍제동 459- 홍제원 현대,2.0,현대건설,A12078704,15,023950181,102766.07,283.0,0.0,298.0,358.0,홍제원 현대,128749.57,023950179,18, ,20000614.0,0.0,939.0,18.0,80719.1,3631.0,57777122,0,0,267976,0,0,18202,0,23250400,0,202401,서울특별시 서대문구 홍제동 459-,37.5883336578387,126.948807747156
1141011100,아파트,혼합식,개별난방,위탁관리,분양,서울특별시 서대문구 통일로34길 46,700.0,현대건설,서울특별시 서대문구 홍제동 460- 홍제인왕산현대,3.0,현대건설,A12078705,10,023947173,75353.3722,189.0,0.0,255.0,256.0,홍제인왕산현대,94222.0,023959392,18, ,20000705.0,18.0,700.0,18.0,58698.63,3633.0,41992330,0,0,195060,0,0,12179,0,15446970,0,202401,서울특별시 서대문구 홍제동 460-,37.5858575994513,126.949974583404
1141011100,아파트,혼합식,개별난방,위탁관리,분양,서울특별시 서대문구 통일로 332,228.0,청구건설,서울특별시 서대문구 홍제동 462- 홍제청구3차,5.0,청구건설,A12078706,2,023912959,22254.92,0.0,0.0,134.0,94.0,홍제청구3차,31032.84,023912958,17, ,20010530.0,6.0,228.0,17.0,15945.84,3634.0,24706517,0,0,60186,0,0,3345,0,8022750,0,202401,서울특별시 서대문구 홍제동 462-,37.5804716231915,126.952548647922
1141011100,아파트,복도식,개별난방,위탁관리,임대,서울특별시 서대문구 통일로34길 43,482.0, ,서울특별시 서대문구 홍제동 459-1 홍제원현대임대,2.0, ,A12078707,2,0232161734,22307.442,0.0,0.0,482.0,0.0,홍제원현대임대,24740.14,023799324,18, ,20000614.0,6.0,482.0,18.0,15746.94,3631.0,14006606,229140,0,84142,0,0,4903,0,4553160,0,202401,서울특별시 서대문구 홍제동 459-1,37.5883336578387,126.948807747156
1141011000,아파트,복도식,개별난방,위탁관리,분양,서울특별시 서대문구 이화여대8길 62,956.0,북아현시민아파트재건축주택조합,서울특별시 서대문구 북아현동 1009- 북아현두산,2.0,두산건설(주),A12079501,6,023122146,75847.8928,0.0,0.0,956.0,0.0,북아현두산,87371.0,023123547,18, ,19990303.0,11.0,956.0,18.0,57321.76,3769.0,44356814,0,0,276506,0,0,14628,0,16779210,0,202401,서울특별시 서대문구 북아현동 1009-,37.5597234797417,126.950732370424
1141010900,아파트,복도식,개별난방,위탁관리,임대,서울특별시 서대문구 독립문공원길 17,600.0,SH공사,서울특별시 서대문구 현저동 201- 독립문극동임대,3.0,극동건설,A12079601,2,023127404,16200.0,0.0,0.0,600.0,0.0,독립문극동임대,30818.62,023137404,15,happy.i-sh.co.kr/main.do?deptid=70125,19981210.0,6.0,600.0,15.0,16200.0,3733.0,11241710,0,0,89493,0,0,0,0,0,0,202401,서울특별시 서대문구 현저동 201-,37.5723811886189,126.955198449007
1141011900,아파트,혼합식,개별난방,위탁관리,분양,서울특별시 서대문구 수색로 154,254.0,명성문화연립,서울특별시 서대문구 북가좌동 371-1 월드컵현대,2.0,현대건설,A12081602,2, ,27788.81,61.0,0.0,103.0,90.0,월드컵현대,38156.602,023730602,18, ,19981121.0,7.0,254.0,18.0,20574.31,3714.0,15192262,0,0,66409,0,0,3923,0,4726190,0,202401,서울특별시 서대문구 북가좌동 371-1,37.5755770995711,126.9049794448
1141011900,아파트,혼합식,지역난방,위탁관리,분양,서울특별시 서대문구 응암로 28,660.0,한양,서울특별시 서대문구 북가좌동 431- 디엠씨한양,0.0,한양건설,A12081703,6,023065847,75623.1479,232.0,0.0,1.0,427.0,디엠씨한양,79165.0,023062018,15, ,19870804.0,15.0,660.0,15.0,58508.8,3790.0,37807750,0,86019990,223536,0,721,12493,3998,14312000,23108440,202401,서울특별시 서대문구 북가좌동 431-,37.5762716171408,126.909844105861
1141011800,아파트,혼합식,개별난방,위탁관리,분양,서울특별시 서대문구 홍은중앙로1길 33,299.0,유원건설,서울특별시 서대문구 홍은동 22- 유원홍은,0.0,유원건설,A12084302,4,0232172210,26619.71,0.0,0.0,91.0,208.0,유원홍은,27283.0,023791913,13, ,19871026.0,6.0,299.0,13.0,19915.74,3613.0,15228980,0,0,69702,0,0,4603,0,5370350,0,202401,서울특별시 서대문구 홍은동 22-,37.5971942301707,126.945084687797
1141011800,아파트,계단식,개별난방,위탁관리,분양,서울특별시 서대문구 연희로 377,610.0,외환은행직장주택조합외 13개조합,서울특별시 서대문구 홍은동 202-5 홍은현대,1.0,현대산업개발(주),A12084504,6,0232177912,57861.424,0.0,0.0,166.0,444.0,홍은현대,57861.424,0232161278,15, ,19880729.0,21.0,610.0,15.0,45783.95,3648.0,33462469,0,0,154981,0,0,9146,0,11295540,0,202401,서울특별시 서대문구 홍은동 202-5,37.5910066406383,126.939320310319
1141011100,아파트,혼합식,개별난방,위탁관리,분양,서울특별시 서대문구 통일로25길 30,998.0,한양건설,서울특별시 서대문구 홍제동 82- 홍제한양,1.0,햔양건설,A12085303,10,027361205,100004.16,150.0,0.0,0.0,848.0,홍제한양,100004.16,027221205,15,홍제한양.apti.co.kr,19930504.0,22.0,998.0,15.0,76611.98,3730.0,47706170,0,0,241277,0,0,15753,0,18181910,0,202401,서울특별시 서대문구 홍제동 82-,37.5832772226944,126.947232533354
1141011100,아파트,복도식,개별난방,위탁관리,분양,서울특별시 서대문구 세검정로3길 63,214.0,홍제3동 27통 재건축조합,서울특별시 서대문구 홍제동 373- 홍제태영으뜸,3.0,태영(주),A12086001,1,023956549,17721.258,36.0,0.0,131.0,47.0,홍제태영으뜸,26524.93,023956548,18, ,19980731.0,3.0,214.0,18.0,12650.8,3623.0,9668936,0,0,60963,0,0,2713,0,3086600,0,202401,서울특별시 서대문구 홍제동 373-,37.5937451325901,126.946828720085
