bjdCode,codeAptNm,codeHallNm,codeHeatNm,codeMgrNm,codeSaleNm,address,hoCnt,kaptAcompany,kaptAddr,kaptBaseFloor,kaptBcompany,kaptCode,kaptDongCnt,kaptFax,kaptMarea,kaptMparea_135,kaptMparea_136,kaptMparea_60,kaptMparea_85,kaptName,kaptTarea,kaptTel,kaptTopFloor,kaptUrl,kaptUsedate,kaptdEcntp,kaptdaCnt,ktownFlrNo,privArea,zipcode,전기사용금액,가스사용금액,난방사용금액,전기사용량,가스사용량,난방사용량,냉수사용량,온수사용량,냉수사용금액,온수사용금액,집계날짜,cleaned_address,lat,lon
1165010600,아파트,혼합식,개별난방,위탁관리,분양,서울 서초구 신반포로 261,, ,서울특별시 서초구 잠원동 59-3 잠원현대훼밀리아파트,0.0,현대건설,A10020999,1, ,0.0,,,,,잠원현대훼밀리아파트,13916.72,025952818,1, ,19970827.0,,,,,,0,0,0,0,0,0,0,0,0,0,202401,서울특별시 서초구 잠원동 59-3,37.5087788699122,127.012637661592
1165010600,아파트,,,,혼합,서울 서초구 잠원로8길 35,, ,서울특별시 서초구 잠원동 158- 래미안신반포팰리스,, ,A10021005,1, ,0.0,,,,,래미안신반포팰리스,0.0,025321016,1, ,20160607.0,,,,,,0,0,0,0,0,0,0,0,0,0,202401,서울특별시 서초구 잠원동 158-,37.5150996956316,127.011661662443
1165010800,도시형 생활주택(주상복합),타워형,중앙난방,자치관리,분양,서울 서초구 효령로77길 20,122.0,현대건설,서울특별시 서초구 서초동 1338- 현대ESA아파트,3.0,현대건설,A10021305,1, ,23165.18,4.0,118.0,0.0,0.0,현대ESA아파트,,025823630,18, ,20020107.0,,122.0,,,,0,0,0,0,0,0,0,0,0,0,202401,서울특별시 서초구 서초동 1338-,37.4908753967204,127.029487018686
1165010100,아파트,계단식,개별난방,위탁관리,분양,서울 서초구 동광로3길 18,138.0,현대개발,서울특별시 서초구 방배동 3277- 방배아이파크아파트,2.0,현대I'PARK,A10021518,2, ,35073.24,0.0,138.0,0.0,0.0,방배아이파크아파트,2932690.0,025320127,15, ,20060605.0,7.0,138.0,,,,0,0,0,0,0,0,0,0,0,0,202401,서울특별시 서초구 방배동 3277-,37.4915062575633,126.984617934843
1165010600,아파트,계단식,개별난방,위탁관리,분양,서울 서초구 잠원로 85,125.0,청구2차주택조합,서울특별시 서초구 잠원동 71-1 블루힐하우스,3.0,청구건설,A10021612,1,0262842757,14826.91,125.0,0.0,0.0,0.0,블루힐하우스,,025916617,19, ,19991106.0,1.0,125.0,,,,0,0,0,0,0,0,0,0,0,0,202401,서울특별시 서초구 잠원동 71-1,37.5118200914235,127.006237310492
1165010700,아파트,,,,혼합,서울 서초구 사평대로 310-4,, ,서울특별시 서초구 반포동 1344- 반포센트레빌아스테리움,, ,A10021765,1, ,0.0,,,,,반포센트레빌아스테리움,0.0,0234762288,1, ,20210730.0,,,,,,0,0,0,0,0,0,0,0,0,0,202401,서울특별시 서초구 반포동 1344-,37.5034570396737,127.015970121674
1165010800,아파트,계단식,개별난방,위탁관리,분양,서울 서초구 서초대로38길 12,116.0,마제스타시티피에프브이(주),서울특별시 서초구 서초동 1498-5 힐스테이트서리풀,7.0,현대엔지니어링(주),A10021789,2,0269523810,15840.89,0.0,116.0,0.0,0.0,힐스테이트서리풀,15840.89,0269523660,22, ,20170629.0,4.0,116.0,,,,0,0,0,0,0,0,0,0,0,0,202401,서울특별시 서초구 서초동 1498-5,37.4904950346372,127.005381592272
1165010800,아파트,계단식,개별난방,위탁관리,분양,서울 서초구 서운로6길 15-13,110.0,서초맨션 재건축조합,서울특별시 서초구 서초동 1359-50 롯데캐슬주피터,2.0,롯데건설,A10021828,2,025218033,16730.07,18.0,92.0,0.0,0.0,롯데캐슬주피터,31350.0,025988033,12, ,20031129.0,,110.0,,,,0,0,0,0,0,0,0,0,0,0,202401,서울특별시 서초구 서초동 1359-50,37.486288852851,127.030057118635
1165010100,아파트,계단식,,위탁관리,분양,서울 서초구 방배로 278,122.0,-,서울특별시 서초구 방배동 3275- 방배동부센트레빌아파트,2.0,동부건설(주),A10021884,3,025919749,21.0,0.0,122.0,0.0,0.0,방배동부센트레빌아파트,0.0,025919748,22, ,20041112.0,3.0,122.0,,,,0,0,0,0,0,0,0,0,0,0,202401,서울특별시 서초구 방배동 3275-,37.4973445558695,126.988117641915
1165010800,아파트,복도식,지역난방,자치관리,분양,서울 서초구 서운로 122,141.0,삼성전자,서울특별시 서초구 서초동 1326- 삼성서초가든스위트아파트,4.0,삼성물산,A10022209,3,0234863919,39517.046,0.0,141.0,0.0,0.0,삼성서초가든스위트아파트,80126.0,025984090,23,삼성서초가든스위트.apti.co.kr/aptHome/,20000624.0,0.0,141.0,,,,0,0,0,0,0,0,0,0,0,0,202401,서울특별시 서초구 서초동 1326-,37.494550443815,127.025950372638
1165010800,,계단식,개별난방,위탁관리,분양,서울 서초구 사임당로20길 5,55.0,남양연립가로주택정비조합,서울특별시 서초구 서초동 1756- 서초프라임헤센 아파트,2.0,신한종합건설,A10022390,2, ,4547.2289,28.0,0.0,0.0,27.0,서초프라임헤센 아파트,8384.0,0234874165,7, ,20210112.0,4.0,55.0,,,,0,0,0,0,0,0,0,0,0,0,202401,서울특별시 서초구 서초동 1756-,37.4896779869717,127.020898799633
1165010600,아파트,계단식,,위탁관리,분양,서울 서초구 나루터로 46,117.0,금호,서울특별시 서초구 잠원동 58- 잠원금호베스트빌,2.0,금호,A10022466,2, ,11295.7286,76.0,0.0,41.0,0.0,잠원금호베스트빌,23043.0,025920194,17, ,20021104.0,4.0,117.0,,,,0,0,0,0,0,0,0,0,0,0,202401,서울특별시 서초구 잠원동 58-,37.5144437686073,127.014105106207
1165010800,,계단식,개별난방,위탁관리,분양,서울 서초구 사임당로10길 39,132.0,서초연합 재건축조합,서울특별시 서초구 서초동 1620-20 서초동롯데캐슬리버티,2.0,롯데건설,A10022474,3,025868730,18516.97,29.0,101.0,0.0,2.0,서초동롯데캐슬리버티,27432.0,025868732,0, ,20050323.0,,132.0,,,,0,0,0,0,0,0,0,0,0,0,202401,서울특별시 서초구 서초동 1620-20,37.4871945812088,127.016665659827
1165010800,아파트,계단식,개별난방,위탁관리,분양,서울 서초구 효령로67길 32,86.0,서초 경님아너스빌 201동,서울특별시 서초구 서초동 1608-8 경남아너스빌 201동,2.0,서초 경님아너스빌 201동,A10022539,1, ,9124.63,85.0,1.0,0.0,0.0,경남아너스빌 201동,13180.0,0234744216,15, ,20060124.0,,86.0,,,,0,0,0,0,0,0,0,0,0,0,202401,서울특별시 서초구 서초동 1608-8,37.4885510718203,127.023431871854
1165010700,아파트,혼합식,지역난방,위탁관리,혼합,서울특별시 서초구 신반포로15길 1,641.0,신반포15차아파트주택재건축정비사업조합,서울특별시 서초구 반포동 12- 래미안 원펜타스,4.0,삼성건설,A10022556,6, ,82688.6538,219.0,219.0,0.0,203.0,래미안 원펜타스,158701.0,0259688440,35, ,20240607.0,0.0,641.0,,0.0,6503.0,0,0,0,0,0,0,0,0,0,0,202401,서울특별시 서초구 반포동 12-,37.5042606636081,126.993824616507
1165010800,,혼합식,개별난방,위탁관리,분양,서울특별시 서초구 강남대로 321,112.0,(주)리얼앤 인베스트,서울특별시 서초구 서초동 1337-22 대우디오빌프라임,5.0,(주)대우건설,A10022623,1,025884999,14853.8,0.0,0.0,16.0,96.0,대우디오빌프라임,29811.69,025882254,15, ,20051021.0,0.0,112.0,15.0,8687.6,6627.0,0,0,0,0,0,0,0,0,0,0,202401,서울특별시 서초구 서초동 1337-22,37.4915573375838,127.029970916611
1165010800,,계단식,개별난방,위탁관리,분양,서울특별시 서초구 효령로74길 56,60.0,양지빌라재건축조합/(주)토다건설,서울특별시 서초구 서초동 1347-20 서초벽산블루밍아파트,2.0,벽산건설(주),A10022656,2,025876625,7206.644,18.0,0.0,0.0,42.0,서초벽산블루밍아파트,11098.73,025876621,12, ,20060608.0,0.0,60.0,12.0,5776.41,6726.0,0,0,0,0,0,0,0,0,0,0,202401,서울특별시 서초구 서초동 1347-20,37.4856391048424,127.026010608049
1165010700,,계단식,지역난방,위탁관리,혼합,서울특별시 서초구 반포대로 333,2990.0,신반포3차경남주택제정지조합,서울특별시 서초구 반포동 1-1 래미안원베일리,4.0,삼성물산,A10023043,23,0234829894,395735.903,941.0,51.0,746.0,1252.0,래미안원베일리,673552.93,0234829892,35, ,20230830.0,106.0,2990.0,35.0,270686.4,6506.0,374923600,0,269779040,1013688,0,2371,38829,16197,49238710,89083500,202401,서울특별시 서초구 반포동 1-1,37.5077735030051,126.995904034712
1165010800,주상복합,복도식,기타,위탁관리,임대,서울특별시 서초구 남부순환로 2567,379.0,당당,서울특별시 서초구 서초동 1365-8 코네스트,5.0,KCC건설,A10023049,1,025835256,17307.2932,0.0,0.0,379.0,0.0,코네스트,29179.3004,025835255,21, ,20230612.0,0.0,379.0,21.0,10470.0532,6734.0,25512025,0,12850460,140613,0,156,2701,1800,3138680,10114940,202401,서울특별시 서초구 서초동 1365-8,37.4846187815841,127.031299728023
1165010600,아파트,계단식,지역난방,위탁관리,혼합,서울특별시 서초구 잠원로14길 42,330.0,신반포13차아파트재개발조합,서울특별시 서초구 잠원동 52-2 신반포르엘,3.0,롯데건설,A10023143,3,025329534,35919.0875,65.0,0.0,101.0,164.0,신반포르엘,61415.52,025329533,35, ,20230627.0,13.0,330.0,35.0,27085.34,6516.0,41376440,0,38677660,0,0,0,0,0,4772000,0,202401,서울특별시 서초구 잠원동 52-2,37.5171626156481,127.013520471373
1165010800,,계단식,개별난방,위탁관리,분양,서울특별시 서초구 남부순환로337가길 52,88.0,(주)위클리인터내셔날,서울특별시 서초구 서초동 1420-18 서초신원아침도시2차아파트,0.0,신원종합개발(주),A10023191,2,025839297,819160.32,0.0,0.0,0.0,88.0,서초신원아침도시2차아파트,13660.56,025839297,15, ,20051227.0,0.0,88.0,15.0,7421.92,6724.0,0,0,0,0,0,0,0,0,0,0,202401,서울특별시 서초구 서초동 1420-18,37.4844551479495,127.024472836692
1165010100,,타워형,개별난방,자치관리,분양,서울특별시 서초구 방배로26길 41,130.0,한국자산신탁(주),서울특별시 서초구 방배동 849-30 방배롯데캐슬로제,0.0,롯데건설(주),A10023272,4, ,29459.84,0.0,130.0,0.0,0.0,방배롯데캐슬로제,48452.09,025340974,12, ,20090701.0,7.0,130.0,12.0,24996.44,6586.0,0,0,0,0,0,0,0,0,0,0,202401,서울특별시 서초구 방배동 849-30,37.490333916315,126.994233398753
1165010600,아파트,계단식,지역난방,위탁관리,혼합,서울특별시 서초구 신반포로23길 33,280.0,신반포4차아파트 주택재건축정비사업조합,서울특별시 서초구 잠원동 74- 반포르엘2차,3.0,롯데건설(주),A10023462,3,025952156,30144.4974,56.0,0.0,66.0,158.0,반포르엘2차,53173.3631,025952155,34, ,20221228.0,11.0,280.0,34.0,22744.09,6509.0,39376690,0,35767560,15678,0,147,995,456,4495300,0,202401,서울특별시 서초구 잠원동 74-,37.5086676226463,127.002090816442
1165010100,,계단식,개별난방,위탁관리,분양,서울특별시 서초구 방배로 63,90.0,삼도물산주식회사,서울특별시 서초구 방배동 982-1 방배 현대멤피스 2차 아파트,3.0,현대산업개발 주식회사,A10023620,2, ,16935.3,0.0,90.0,0.0,0.0,방배 현대멤피스 2차 아파트,2621438.0,025813972,15, ,20020727.0,0.0,90.0,15.0,14652.0,6695.0,0,0,0,0,0,0,0,0,0,0,202401,서울특별시 서초구 방배동 982-1,37.4802341835571,126.997820432668
1165010800,아파트,계단식,개별난방,위탁관리,분양,서울 서초구 반포대로4길 24,47.0,월드건설(주),서울특별시 서초구 서초동 1450-1 월드메르디앙오페라하우스,2.0,월드건설(주),A10023644,1,025827431,9179.226,0.0,47.0,0.0,0.0,월드메르디앙오페라하우스,13770.1,025827430,13, ,20040921.0,2.0,47.0,13.0,8047.902,,0,0,0,0,0,0,0,0,0,0,202401,서울특별시 서초구 서초동 1450-1,37.4815311010141,127.013970818047
1165010600,아파트,계단식,지역난방,위탁관리,혼합,서울특별시 서초구 신반포로23길 23,596.0,반포우성아파트재건축조합,서울특별시 서초구 잠원동 74-1 반포 르엘 아파트,3.0,롯데건설,A10023673,7,025959256,71010.8284,288.0,0.0,66.0,242.0,반포 르엘 아파트,114189.9028,025959255,35, ,20220830.0,23.0,596.0,35.0,54606.46,6509.0,70540020,0,86363790,210048,0,450,9538,3905,11452850,-118780,202401,서울특별시 서초구 잠원동 74-1,37.5067799778705,127.003699156737
1165010800,아파트,계단식,개별난방,위탁관리,분양,서울 서초구 명달로 10,84.0,"그린훼미리연합,그린재건축조합",서울특별시 서초구 서초동 1467-97 서초금호어울림아파트,2.0,금호건설,A10023688,1,025811789,13991.6,56.0,28.0,0.0,0.0,서초금호어울림아파트,17306.43,025814847,15, ,20011210.0,3.0,84.0,15.0,11055.24,,0,0,0,0,0,0,0,0,0,0,202401,서울특별시 서초구 서초동 1467-97,37.4785399301061,127.006804125903
1165010800,주상복합,복도식,개별난방,위탁관리,분양,서울 서초구 강남대로61길 17,125.0,광명산업,서울특별시 서초구 서초동 1316-31 엠쉐르빌,7.0,삼성중공업,A10023694,1,0234779788,10979.75,1.0,0.0,81.0,43.0,엠쉐르빌,16746.08,0234779733,1, ,20010731.0,3.0,125.0,23.0,6331.99,,0,0,0,0,0,0,0,0,0,0,202401,서울특별시 서초구 서초동 1316-31,37.4986788720135,127.025041898185
1165010600,아파트,계단식,지역난방,자치관리,분양,서울 서초구 나루터로4길 60,112.0,한신공영,서울특별시 서초구 잠원동 60-78 신반포20차아파트,1.0,한신공영,A10023971,1,0262431859,17740.8,0.0,112.0,0.0,0.0,신반포20차아파트,17740.8,0262431859,14, ,19831223.0,4.0,112.0,14.0,16122.4,,8044084,0,33199221,44828,0,316,1423,838,1720940,3938600,202401,서울특별시 서초구 잠원동 60-78,37.5102235230909,127.011014621571
1165010800,아파트,복도식,개별난방,위탁관리,임대,서울특별시 서초구 반포대로27길 13,280.0,서초꽃마을1502,서울특별시 서초구 서초동 1502-12 서초꽃마을주얼리,4.0,한양산업개발,A10024156,1,025848002,13253.45,0.0,0.0,280.0,0.0,서초꽃마을주얼리,18495.13,025848001,12, ,20210323.0,0.0,280.0,12.0,5399.8,6656.0,6695740,0,0,0,0,0,0,0,3976900,0,202401,서울특별시 서초구 서초동 1502-12,37.4896931057588,127.007604684245
1165010100,아파트,계단식,지역난방,위탁관리,혼합,서울특별시 서초구 방배로 21,758.0,GS건설주식회사,서울특별시 서초구 방배동 1028-1 방배그랑자이아파트,5.0,GS건설주식회사,A10024171,8,0269561663,85597.5396,153.0,6.0,134.0,465.0,방배그랑자이아파트,157182.2423,0269561662,20,bbgran.xisad.co.kr,20210723.0,30.0,758.0,20.0,65873.3409,6703.0,78352488,0,75252890,256287,0,716,10992,4695,12548460,32395500,202401,서울특별시 서초구 방배동 1028-1,37.4755723803846,126.999846135135
1165010800,아파트,혼합식,지역난방,위탁관리,혼합,서울특별시 서초구 효령로 391,1446.0,서초무지개아파트재건축조합,서울특별시 서초구 서초동 1335- 서초그랑자이,3.0,지에스건설(주),A10024240,9,025229924,161283.605,487.0,3.0,436.0,520.0,서초그랑자이,286624.748,025229934,35, ,20210629.0,47.0,1446.0,35.0,121757.7,6630.0,166045321,0,150627080,455763,0,1148,22069,9650,28532930,41495000,202401,서울특별시 서초구 서초동 1335-,37.4893225494193,127.024591003338
1165010700,아파트,계단식,지역난방,위탁관리,혼합,서울특별시 서초구 서초중앙로 206,848.0,현대건설,서울특별시 서초구 반포동 1343- 디에이치반포라클라스,4.0,현대건설,A10024254,6,025920849,92739.2736,171.0,0.0,274.0,403.0,디에이치반포라클라스,160162.0,025920848,35, ,20210604.0,32.0,848.0,35.0,70039.754,6599.0,86118618,5305190,67400460,450527,3691,617,14473,5128,16195040,39844560,202401,서울특별시 서초구 반포동 1343-,37.4997791676203,127.012723336537
1165010100,,혼합식,개별난방,위탁관리,분양,서울특별시 서초구 방배로3길 10-3,116.0,(주)삼호,서울특별시 서초구 방배동 1030-1 삼호한숲아파트,2.0,(주)삼호,A10024322,1,025859670,12015.94,25.0,0.0,47.0,44.0,삼호한숲아파트,16923.72,025859670,15, ,19981017.0,0.0,116.0,15.0,9415.79,6703.0,0,0,0,0,0,0,0,0,0,0,202401,서울특별시 서초구 방배동 1030-1,37.4777093902816,126.998912627175
1165010800,아파트,계단식,지역난방,위탁관리,혼합,서울특별시 서초구 서운로 62,1317.0,서초우성1차 아파트 주택재건축정비사업조합,서울특별시 서초구 서초동 1336- 래미안리더스원,0.0,삼성물산,A10024552,12,025237805,161889.22,286.0,85.0,302.0,644.0,래미안리더스원,267015.92,025237803,35, ,20200925.0,37.0,1317.0,35.0,117457.03,6629.0,146603911,0,144596410,449550,0,1147,23204,8890,30255800,48006000,202401,서울특별시 서초구 서초동 1336-,37.4894385509969,127.028420395094
1165010800,주상복합,계단식,개별난방,위탁관리,분양,서울특별시 서초구 반포대로18길 36,318.0,마스턴제12호서초,서울특별시 서초구 서초동 1582-3 서초센트럴아이파크,6.0,현대산업개발,A10024574,2,025250979,33815.9056,0.0,0.0,0.0,318.0,서초센트럴아이파크,48712.0,025250978,33, ,20200907.0,4.0,318.0,33.0,25607.581,6652.0,35377992,0,0,112162,0,0,5030,0,5833360,0,202401,서울특별시 서초구 서초동 1582-3,37.4872095260345,127.011468498188
1165010700,아파트,계단식,지역난방,자치관리,분양,서울특별시 서초구 사평대로 142,108.0,한신공영(주),서울특별시 서초구 반포동 65-1 궁전아파트,0.0,한신공영(주),A10024646,2,025990048,17193.0,39.0,69.0,0.0,0.0,궁전아파트,17211.47,025994413,10, ,19840215.0,6.0,108.0,10.0,15278.65,6578.0,0,0,0,0,0,0,0,0,0,0,202401,서울특별시 서초구 반포동 65-1,37.5003729803604,127.001060333564
1165010800,아파트,계단식,개별난방,위탁관리,분양,서울특별시 서초구 반포대로23길 71,68.0,서초그린빌라재건축조합,서울특별시 서초구 서초동 1506-88 서초현대홈타운,2.0,현대건설,A10024687,2,025253943,9679.2,48.0,0.0,0.0,20.0,서초현대홈타운,14241.0,025856018,12, ,20050511.0,,68.0,12.0,8140.52,6658.0,0,0,0,0,0,0,0,0,0,0,202401,서울특별시 서초구 서초동 1506-88,37.4885112810148,127.005488190209
1165010100,주상복합,복도식,개별난방,자치관리,분양,서울특별시 서초구 방배로13길 18,116.0,대림산업,서울특별시 서초구 방배동 923-6 방배아크로타워아파트,4.0,대림산업,A10024857,1,025811432,10089.12,0.0,0.0,46.0,70.0,방배아크로타워아파트,23556.8,025812322,10, ,20070419.0,1.0,116.0,10.0,7364.48,6683.0,0,0,0,0,0,0,0,0,0,0,202401,서울특별시 서초구 방배동 923-6,37.4831366198927,126.995288953995
1165010600,아파트,계단식,지역난방,위탁관리,혼합,서울특별시 서초구 반포대로 310-6,757.0,신반포6차 재건축조합,서울특별시 서초구 잠원동 162- 반포센트럴자이아파트,2.0,GS건설,A10024913,7,0234829418,91467.0792,290.0,0.0,127.0,340.0,반포센트럴자이아파트,142558.24,0234829417,35, ,20200428.0,26.0,757.0,35.0,67193.45,6509.0,81314028,0,83782420,249658,0,709,10959,4706,15443860,24007400,202401,서울특별시 서초구 잠원동 162-,37.5064734003222,127.002352693423
1165010100,아파트,계단식,개별난방,위탁관리,분양,서울특별시 서초구 서초대로34가길 52,99.0,서해종합건설(주),서울특별시 서초구 방배동 903-17 방배서리풀그랑블아파트,2.0,서해종합건설(주),A10024942,3,0234870196,9793.2846,0.0,0.0,20.0,79.0,방배서리풀그랑블아파트,17194.1457,0234870195,7, ,20191226.0,,99.0,7.0,7709.579,6663.0,0,0,0,0,0,0,0,0,0,0,202401,서울특별시 서초구 방배동 903-17,37.4863329317817,126.997856550654
1165010800,아파트,계단식,개별난방,자치관리(직영),분양,서울특별시 서초구 효령로74길 57,126.0,동원enc,서울특별시 서초구 서초동 1350-13 서초동원베네스트아파트,2.0,동원enc,A10024987,2,0234742010,14415.54,30.0,0.0,0.0,96.0,서초동원베네스트아파트,20404.83,025252010,15,서초동원베네스트.apti.co.kr,20021130.0,5.0,126.0,15.0,11774.7,6726.0,0,0,0,0,0,0,0,0,0,0,202401,서울특별시 서초구 서초동 1350-13,37.4853309513845,127.026455195706
1165010800,도시형 생활주택(아파트),복도식,중앙난방,위탁관리,임대,서울특별시 서초구 반포대로28길 94,154.0,(주)에이알에이신영제2호위탁관리부동산투자회사,서울특별시 서초구 서초동 1575-1 지웰홈스 서초,5.0,신영건설(주),A10025375,1,025251572,4774.4366,0.0,0.0,154.0,0.0,지웰홈스 서초,8138.2,025251575,19, ,20190521.0,3.0,154.0,19.0,2477.95,6644.0,6369480,0,7042570,0,0,0,0,0,1311560,2518300,202401,서울특별시 서초구 서초동 1575-1,37.4919412408099,127.01334924762
1165010600,아파트,복도식,개별난방,위탁관리,분양,서울특별시 서초구 잠원로3길 20,126.0,중앙건설,서울특별시 서초구 잠원동 71-17 잠원중앙하이츠B아파트,2.0,중앙건설,A10025381,1,0234817305,11871.78,0.0,0.0,62.0,64.0,잠원중앙하이츠B아파트,15219.53,0234817305,16,없음,19981218.0,2.0,126.0,16.0,8543.82,6510.0,0,0,0,0,0,0,0,0,0,0,202401,서울특별시 서초구 잠원동 71-17,37.5101763671853,127.004772464321
1165010600,아파트,계단식,지역난방,위탁관리,혼합,서울특별시 서초구 잠원로14길 32,475.0,신반포18차24차주택재건축정비사업조합,서울특별시 서초구 잠원동 161- 래미안 신반포 리오센트,3.0,삼성물산,A10025418,6,0234828652,64846.61,258.0,0.0,99.0,118.0,래미안 신반포 리오센트,106931.0,0234828650,32, ,20190621.0,17.0,475.0,32.0,48942.62,6516.0,70039705,1327110,58306859,180459,710,491,9541,3583,11247870,20064800,202401,서울특별시 서초구 잠원동 161-,37.5179454350578,127.014055654587
1165010100,아파트,복도식,개별난방,위탁관리,분양,서울특별시 서초구 방배로1길 9,55.0,신동아건설,서울특별시 서초구 방배동 1026-14 신동아럭스빌아파트,0.0,신동아건설,A10025472,1,025848355,3440.0,0.0,55.0,0.0,0.0,신동아럭스빌아파트,16188.0,025888355,14,www.seoildc.com,20030930.0,2.0,55.0,14.0,9705.77,6703.0,0,0,0,0,0,0,0,0,0,0,202401,서울특별시 서초구 방배동 1026-14,37.4754745286716,127.000711440364
1165010700,아파트,복도식,개별난방,위탁관리,분양,서울특별시 서초구 고무래로10길 16,76.0,두산건설,서울특별시 서초구 반포동 54-5 두산힐스빌아파트,3.0,두산건설,A10025550,1,0262541616,4005.09,0.0,0.0,76.0,0.0,두산힐스빌아파트,9126.0,025991616,12, ,20010803.0,1.0,76.0,12.0,4005.09,6593.0,0,0,0,0,0,0,0,0,0,0,202401,서울특별시 서초구 반포동 54-5,37.5013533989068,127.009977285735
1165010800,,계단식,개별난방,위탁관리,분양,서울특별시 서초구 남부순환로323길 56-18,55.0,재건축,서울특별시 서초구 서초동 1455-9 경남아너스빌 101동 아파트,2.0,경남기업,A10025615,1,025217405,8872.45,9.0,46.0,0.0,0.0,경남아너스빌 101동 아파트,12967.938,025217406,15, ,20051014.0,2.0,55.0,15.0,7558.278,6717.0,0,0,0,0,0,0,0,0,0,0,202401,서울특별시 서초구 서초동 1455-9,37.4833675051244,127.014239122954
1165010100,아파트,계단식,지역난방,위탁관리,혼합,서울특별시 서초구 명달로9길 57,357.0,방배3구역주택재건축정비사업조합,서울특별시 서초구 방배동 3278- 방배아트자이,4.0,GS건설,A10025927,5,0234873742,37790.2178,42.0,0.0,133.0,178.0,방배아트자이,68442.8265,0234873741,15,bbaxi.xisnd.co.kr,20181029.0,16.0,353.0,15.0,28413.2211,,35694526,0,33546492,116271,0,300,5918,2526,7154150,14608010,202401,서울특별시 서초구 방배동 3278-,37.4793436199376,127.00248886948
1165010600,아파트,계단식,지역난방,위탁관리,혼합,서울특별시 서초구 잠원로 60,607.0,반포한양아파트 주택재건축정비사업조합,서울특별시 서초구 잠원동 160- 신반포자이아파트,3.0,GS건설,A10026004,7,025348082,69776.9,148.0,6.0,162.0,291.0,신반포자이아파트,111291.44,025348081,28,v2admin.aptner.com/,20180727.0,0.0,607.0,28.0,51475.31,6521.0,56371060,0,59381850,181089,0,555,10354,3660,12295970,28914000,202401,서울특별시 서초구 잠원동 160-,37.510175638207,127.008202372531
1165010700,아파트,계단식,지역난방,위탁관리,혼합,서울특별시 서초구 고무래로 89,764.0,삼호가든4차아파트 주택재건축정비사업조합,서울특별시 서초구 반포동 1342- 반포써밋,3.0,(주)대우건설,A10026015,8,0234780879,79790.3705,146.0,0.0,275.0,343.0,반포써밋,132136.0,0234780878,35, ,20180921.0,25.0,764.0,35.0,61343.5766,6598.0,80874129,0,62108800,258655,0,545,13193,5005,14561080,38871620,202401,서울특별시 서초구 반포동 1342-,37.5009525951681,127.01850090538
1165010700,아파트,계단식,지역난방,위탁관리,혼합,서울특별시 서초구 서초중앙로 220,829.0,한양재건축조합,서울특별시 서초구 반포동 1341- 반포래미안아이파크,2.0,"삼성물산, 현대산업개발",A10026051,11,025338035,108161.12,415.0,33.0,144.0,237.0,반포래미안아이파크,159761.42,025948033,34, ,20180831.0,30.0,829.0,34.0,80426.3,6599.0,120930712,0,124319740,361464,0,749,12835,5379,16645380,-248200,202401,서울특별시 서초구 반포동 1341-,37.5015109280322,127.012471661634
1165010100,주상복합,타워형,개별난방,위탁관리,분양,서울특별시 서초구 서초대로 3-4,80.0,(주)델코디자인,서울특별시 서초구 방배동 3001-2 디오슈페리움1차,7.0,(주)대우건설,A10026154,2,0234832110,18369.59,23.0,0.0,0.0,57.0,디오슈페리움1차,40658.68,0234832100,25, ,20061130.0,3.0,80.0,25.0,7737.53,6568.0,0,0,0,0,0,0,0,0,0,0,202401,서울특별시 서초구 방배동 3001-2,37.4860317945544,126.983083699338
1165010600,아파트,계단식,지역난방,위탁관리,분양,서울특별시 서초구 잠원로 117,595.0,아크로리버뷰신반포입주자대표회의,서울특별시 서초구 잠원동 159- 아크로리버뷰 신반포,2.0,아크로리버뷰신반포,A10026227,5,025375196,67034.67,0.0,0.0,0.0,595.0,아크로리버뷰 신반포,109026.0,025375194,35,https://cafe.naver.com/acroriverview117,20180604.0,11.0,595.0,35.0,48090.86,6508.0,63208147,0,75570210,201278,0,572,10655,3426,14363770,22487350,202401,서울특별시 서초구 잠원동 159-,37.5145189166529,127.006995721647
1165010800,아파트,계단식,개별난방,위탁관리,분양,서울특별시 서초구 서초대로64길 31,86.0,한일건설(주),서울특별시 서초구 서초동 1636-1 서초한일아파트,2.0,한일건설(주),A10026317,1,025987017,8341.58,0.0,0.0,32.0,54.0,서초한일아파트,11959.89,025987017,11, ,19971015.0,4.0,86.0,11.0,6507.64,6631.0,0,0,0,0,0,0,0,0,0,0,202401,서울특별시 서초구 서초동 1636-1,37.4947383845939,127.021010351189
1165010800,아파트,계단식,개별난방,위탁관리,분양,서울특별시 서초구 사임당로17길 80,79.0,삼성물산건설,서울특별시 서초구 서초동 1642-34 래미안서초7차아파트,2.0,삼성물산건설,A10026337,2,025222594,2400160.0,24.0,55.0,0.0,0.0,래미안서초7차아파트,21450.0,025222592,12, ,20060127.0,4.0,79.0,12.0,10899.82,6635.0,0,0,0,0,0,0,0,0,0,0,202401,서울특별시 서초구 서초동 1642-34,37.4921497478129,127.017396903983
1165010800,아파트,계단식,개별난방,자치관리,분양,서울특별시 서초구 사임당로17길 90,84.0,롯데건설주식회사,서울특별시 서초구 서초동 1642-14 서초롯데캐슬84아파트,2.0,롯데건설주식회사,A10026340,2,0234719413,20648.23,1.0,83.0,0.0,0.0,서초롯데캐슬84아파트,29554.0,0234719412,16, ,20010228.0,2.0,84.0,16.0,17244.13,6635.0,0,0,0,0,0,0,0,0,0,0,202401,서울특별시 서초구 서초동 1642-14,37.4926044223954,127.018412341007
1165010700,아파트,혼합식,개별난방,위탁관리,분양,서울특별시 서초구 서래로10길 26,85.0,반포연립재건축주택조합,서울특별시 서초구 반포동 70- 라인아파트,1.0,라인건설,A10026342,1,025932225,8565.0,7.0,0.0,37.0,41.0,라인아파트,10793.38,025932274,10, ,19951102.0,4.0,85.0,10.0,6406.24,6577.0,0,0,0,0,0,0,0,0,0,0,202401,서울특별시 서초구 반포동 70-,37.4991879814895,126.99972135019
1165010800,아파트,혼합식,지역난방,위탁관리,혼합,서울특별시 서초구 서운로 104,593.0,서초우성2차아파트 주택재건축조합,서울특별시 서초구 서초동 1331- 래미안서초에스티지에스아파트,2.0,삼성물산,A10026411,5,025978702,70432.23,156.0,0.0,91.0,346.0,래미안서초에스티지에스아파트,108546.49,025978701,32, ,20180124.0,17.0,593.0,32.0,53298.55,6625.0,64173789,0,71303415,210952,0,496,10428,4216,11961880,17236400,202401,서울특별시 서초구 서초동 1331-,37.4934155954909,127.026491405544
1165010800,아파트,계단식,지역난방,위탁관리,혼합,서울특별시 서초구 서운로 201,907.0,서초삼호1차아파트주택재건축정비조합,서울특별시 서초구 서초동 1310- 서초푸르지오써밋,2.0,대우건설,A10026941,7,0234820939,105109.4,327.0,0.0,192.0,388.0,서초푸르지오써밋,162715.0,0234820907,35, ,20170622.0,22.0,907.0,35.0,78715.01,6608.0,106275503,0,90221990,324700,0,728,14973,5981,18067270,38457830,202401,서울특별시 서초구 서초동 1310-,37.5013246250352,127.020126576083
1165010800,아파트,계단식,지역난방,위탁관리,분양,서울특별시 서초구 효령로68길 38,115.0,현대맨션 재건축조합,서울특별시 서초구 서초동 1436-14 서초동 아이파크,2.0,현대산업개발,A10026972,3,025841350,23154.04,4.0,111.0,0.0,0.0,서초동 아이파크,34195.128,025841398,18, ,20030904.0,4.0,115.0,18.0,19263.58,6722.0,0,0,0,0,0,0,0,0,0,0,202401,서울특별시 서초구 서초동 1436-14,37.485932751231,127.022458552663
1165010600,아파트,계단식,,위탁관리,분양,서울특별시 서초구 신반포로45길 71,107.0,"동반포아파트,뉴영동연합 재건축조합",서울특별시 서초구 잠원동 33-11 월드메르디앙아파트,1.0,월드건설,A10026977,1,025464380,11.0,15.0,0.0,0.0,92.0,월드메르디앙아파트,15.0,0234430855,15, ,20020221.0,5.0,107.0,15.0,9546.06,6528.0,0,0,0,0,0,0,0,0,0,0,202401,서울특별시 서초구 잠원동 33-11,37.5126145175183,127.016447694547
1165010100,아파트,계단식,개별난방,위탁관리,분양,서울특별시 서초구 방배로18길 67,136.0,한국토지신탁,서울특별시 서초구 방배동 888-53 방배자이아파트,2.0,LG건설,A10027016,3,025875634,27368.68,0.0,136.0,0.0,0.0,방배자이아파트,39125.0,025875633,13, ,20031101.0,6.0,136.0,13.0,24381.96,6663.0,0,0,0,0,0,0,0,0,0,0,202401,서울특별시 서초구 방배동 888-53,37.4859662363174,126.998962822981
1165010700,아파트,혼합식,지역난방,위탁관리,혼합,서울특별시 서초구 신반포로15길 19,1612.0,신반포1차재건축주택조합,서울특별시 서초구 반포동 2-12 아크로리버파크,3.0,(주)대림산업,A10027205,15,0234782905,206182.8557,495.0,107.0,323.0,687.0,아크로리버파크,346883.14,0234782904,38,www.acroriverpark.net/,20160830.0,43.0,1612.0,38.0,155508.55,6503.0,224594081,0,185534680,643314,0,1646,30624,12001,36842346,82806900,202401,서울특별시 서초구 반포동 2-12,37.5062519997568,126.992673104135
1165010800,아파트,혼합식,지역난방,위탁관리,혼합,서울특별시 서초구 서운로 107,421.0,우성3차아파트주택재건축조합,서울특별시 서초구 서초동 1332-13 래미안 서초에스티지,2.0,삼성물산,A10027221,4,025257609,49460.5,93.0,32.0,85.0,211.0,래미안 서초에스티지,75765.75,025257607,33, ,20161223.0,13.0,421.0,33.0,37482.26,6624.0,43166690,0,41403870,143957,0,370,8021,3240,9065380,22362000,202401,서울특별시 서초구 서초동 1332-13,37.4930293673782,127.025519919597
1165010600,아파트,계단식,지역난방,위탁관리,혼합,서울특별시 서초구 잠원로8길 35,843.0,잠원대림아파트주택재건축정비사업조합,서울특별시 서초구 잠원동 158- 래미안 신반포팰리스,2.0,삼성물산,A10027439,7,025321013,104383.54,338.0,0.0,81.0,424.0,래미안 신반포팰리스,153551.2,025321016,35, ,20160608.0,27.0,843.0,35.0,78859.18,6518.0,101464830,6667930,87565255,310081,5114,859,15954,6521,19774112,58401720,202401,서울특별시 서초구 잠원동 158-,37.5150996956316,127.011661662443
1165010100,아파트,계단식,개별난방,위탁관리,분양,서울특별시 서초구 방배중앙로21길 55,123.0,현대건설(주),서울특별시 서초구 방배동 2233- 방배3차 현대 홈 타운 아파트,2.0,현대건설(주),A10027585,3,0234825821,15934.0,97.0,0.0,0.0,26.0,방배3차 현대 홈 타운 아파트,27598.0,0234825826,15, ,20040701.0,5.0,123.0,15.0,14030.797,6560.0,0,0,0,0,0,0,0,0,0,0,202401,서울특별시 서초구 방배동 2233-,37.4918229812702,126.984085728162
1165010900,아파트,복도식,개별난방,위탁관리,혼합,서울특별시 서초구 헌릉로8길 45,1077.0,에스에치공사,서울특별시 서초구 내곡동 143- 서초포레스타2단지아파트,3.0,고려개발,A10028021,13,0220579562,135327.54,0.0,0.0,930.0,147.0,서초포레스타2단지아파트,134430.77,0220579560,21, ,20150618.0,27.0,1077.0,21.0,59280.75,6800.0,60542171,0,0,0,0,0,0,0,17272520,0,202401,서울특별시 서초구 내곡동 143-,37.4546898457894,127.06254658465
1165011100,아파트,계단식,개별난방,위탁관리,분양,서울특별시 서초구 헌릉로8길 10-12,256.0,현대엔지니어링,서울특별시 서초구 신원동 412-5 힐스테이트서초젠트리스,1.0,현대엔지니어링,A10028046,9,025783354,33135.5,129.0,0.0,0.0,127.0,힐스테이트서초젠트리스,48527.44,025783332,9, ,20141219.0,15.0,256.0,9.0,24753.83,6798.0,24317124,0,0,96379,0,0,4052,0,4907050,0,202401,서울특별시 서초구 신원동 412-5,37.4559517216276,127.0581198368
1165011100,아파트,혼합식,개별난방,위탁관리,혼합,서울특별시 서초구 청계산로9길 1-12,585.0,에스에치공사,서울특별시 서초구 신원동 285- 서초포레스타6단지,1.0,계룡건설,A10028105,11,0220570539,70339.43,0.0,0.0,532.0,53.0,서초포레스타6단지,70339.43,0220570537,7,서초포레스타6단지.apti.co.kr,20150407.0,26.0,585.0,7.0,30995.31,6802.0,28785757,0,0,151083,0,0,7580,0,7154590,0,202401,서울특별시 서초구 신원동 285-,37.4496826596411,127.056241443278
1165010800,아파트,타워형,지역난방,위탁관리,혼합,서울특별시 서초구 서초중앙로24길 57,280.0,삼익건설아파트재건축조합,서울특별시 서초구 서초동 1681- 서초롯데캐슬프레지던트,3.0,롯데건설,A10028146,3,025327787,37539.24,52.0,56.0,0.0,172.0,서초롯데캐슬프레지던트,55021.0,025327786,31,openapt.seoul.go.kr,20141114.0,4.0,280.0,31.0,29178.8,6603.0,33829728,0,36650680,109945,0,295,4985,1984,5885740,15620940,202401,서울특별시 서초구 서초동 1681-,37.4969727934088,127.019417834917
1165010600,아파트,계단식,지역난방,위탁관리,분양,서울특별시 서초구 잠원로14길 3,256.0,(주)롯데건설,서울특별시 서초구 잠원동 50- 잠원롯데캐슬갤럭시1차,2.0,(주)롯데건설,A13703011,5,025324954,39593.38,250.0,6.0,0.0,0.0,잠원롯데캐슬갤럭시1차,53085.29,0234770042,25,lotte.aptstory.kr,20020727.0,6.0,256.0,25.0,30274.86,6515.0,30273194,0,55408720,93657,0,363,5723,2062,6671930,9279000,202401,서울특별시 서초구 잠원동 50-,37.5203900630374,127.015976218592
1165010600,아파트,계단식,지역난방,위탁관리,분양,서울특별시 서초구 잠원로14길 23,428.0,롯데건설(주),서울특별시 서초구 잠원동 50-1 롯데캐슬갤럭시아파트,2.0,롯데건설(주),A13703019,8,025954771,55057.66,343.0,85.0,0.0,0.0,롯데캐슬갤럭시아파트,92723.72,025954770,28, ,20040428.0,12.0,428.0,28.0,55106.96,6515.0,50606010,0,87621140,158870,0,799740,9824,3625,11318710,12288750,202401,서울특별시 서초구 잠원동 50-1,37.5185371274161,127.015469622326
1165010600,아파트,혼합식,개별난방,위탁관리,분양,서울특별시 서초구 신반포로33길 15,991.0,잠원연립주택조합,서울특별시 서초구 잠원동 157- 잠원동아,2.0,동아건설,A13703027,8,025334464,100775.32,0.0,0.0,301.0,690.0,잠원동아,121293.36,025334413,20,www.jamwondonga.kr,20020704.0,26.0,991.0,20.0,76609.9,6521.0,59795865,0,0,289821,0,0,19301,0,19600440,0,202401,서울특별시 서초구 잠원동 157-,37.5090443276541,127.009524539003
1165010700,아파트,계단식,개별난방,위탁관리,분양,서울특별시 서초구 사평대로14길 12,63.0,만울 종합건설(주),서울특별시 서초구 반포동 112-15 반포SKVIEW,2.0,SK건설,A13704004,2,0234775432,15446.54,0.0,63.0,0.0,0.0,반포SKVIEW,24958.75,0234771192,15, ,20061205.0,3.0,63.0,15.0,13375.24,6575.0,0,0,0,0,0,0,0,0,0,0,202401,서울특별시 서초구 반포동 112-15,37.4975375149368,126.993413650559
1165010700,아파트,혼합식,지역난방,자치관리,분양,서울특별시 서초구 서초중앙로 242,168.0,삼호,서울특별시 서초구 반포동 30-1 반포삼호가든맨션5차,0.0,삼호,A13704101,3,025915143,27653.094,42.0,126.0,0.0,0.0,반포삼호가든맨션5차,27653.094,025915141,14, ,19860221.0,6.0,168.0,14.0,23008.86,6597.0,14677700,0,35245700,70125,0,11423,3447,1041,3459770,3643500,202401,서울특별시 서초구 반포동 30-1,37.5039797873252,127.011447652144
1165010700,아파트,계단식,지역난방,위탁관리,혼합,서울특별시 서초구 신반포로 270,3410.0,반포주공3단지재건축주택정비사업조합,서울특별시 서초구 반포동 20-43 반포자이,3.0,GS건설,A13704104,44,025334075,520772.95,340.0,1024.0,683.0,1363.0,반포자이,814368.0,025334010,29,bpxi.aptner.com/,20090313.0,81.0,3410.0,29.0,405926.358,6544.0,426081234,0,621859890,1365817,0,4225578,68112,25328,77581670,172230400,202401,서울특별시 서초구 반포동 20-43,37.5078602234885,127.011582043737
1165010700,아파트,복도식,지역난방,위탁관리,분양,서울특별시 서초구 서초중앙로29길 28,1260.0,한국상업은행 주택조합,서울특별시 서초구 반포동 60-4 반포미도아파트,0.0,한보건설,A13704404,8,025953238,141619.842,0.0,0.0,0.0,1260.0,반포미도아파트,148621.0,025343058,15, ,19870617.0,13.0,1260.0,15.0,107049.6,6592.0,79474050,8039330,252988580,462137,0,0,23676,8884,28751750,39978000,202401,서울특별시 서초구 반포동 60-4,37.4999733384409,127.008705635951
1165010100,주상복합,계단식,개별난방,자치관리,분양,서울특별시 서초구 방배중앙로 207-10,222.0,CIT산업개발(주),서울특별시 서초구 방배동 752-36 방배아크로리버,4.0,대림산업(주),A13706001,4,025937326,52754.499,56.0,142.0,0.0,24.0,방배아크로리버,59600.92,025937324,25, ,20041124.0,7.0,222.0,25.0,30197.802,6551.0,30407360,0,214910,128428,0,0,0,0,0,92100,202401,서울특별시 서초구 방배동 752-36,37.4980673858774,126.984586960421
1165010100,아파트,복도식,개별난방,위탁관리,임대,서울특별시 서초구 과천대로 908,81.0,울트라건설,서울특별시 서초구 방배동 2626-3 방배SH-VILLE,0.0,울트라건설,A13706002,1,025252284,6292.83,0.0,0.0,81.0,0.0,방배SH-VILLE,6292.97,025252048,9, ,20050811.0,1.0,81.0,9.0,2688.19,6760.0,2755580,0,0,15222,0,0,903,0,965280,0,202401,서울특별시 서초구 방배동 2626-3,37.4720476451992,126.983478787028
1165010100,아파트,혼합식,개별난방,위탁관리,분양,서울특별시 서초구 남부순환로 2183,344.0,개나리아파트 주택조합,서울특별시 서초구 방배동 485-3 방배래미안타워,2.0,삼성물산,A13706302,4,025880287,48696.48,344.0,0.0,0.0,0.0,방배래미안타워,67266.55,025880286,22, ,20050107.0,4.0,344.0,22.0,40902.76,6701.0,35517515,0,0,123674,0,0,6798,0,7548290,0,202401,서울특별시 서초구 방배동 485-3,37.4751167643372,126.991091154027
1165010100,아파트,계단식,개별난방,위탁관리,분양,서울특별시 서초구 효령로 84,364.0,대우건설,서울특별시 서초구 방배동 1038- 방배대우효령,0.0,대우종합건설,A13706303,6,025873940,38503.92,0.0,0.0,0.0,364.0,방배대우효령,38506.0,025251280,13, ,19921125.0,15.0,364.0,13.0,30908.23,6696.0,22801141,0,0,107304,0,0,0,0,146600,0,202401,서울특별시 서초구 방배동 1038-,37.4798204536316,126.993355736762
1165010800,아파트,혼합식,지역난방,위탁관리,분양,서울특별시 서초구 사임당로23길 53,166.0,아남건설주식회사,서울특별시 서초구 서초동 1641-13 아남,1.0,아남건설주식회사,A13707002,2,025886065,16868.1655,0.0,0.0,0.0,166.0,아남,17316.86,025886061,13, ,19891130.0,5.0,166.0,13.0,13208.78,6635.0,11586660,0,23715660,43883,0,11251,1010,1010,1068210,3060300,202401,서울특별시 서초구 서초동 1641-13,37.4932377224281,127.021206010533
1165010800,주상복합,복도식,개별난방,자치관리,분양,서울특별시 서초구 서초대로58길 10,215.0,(주)리얼티투자개발,서울특별시 서초구 서초동 1675-11 서초대우아이빌,2.0,대우건설,A13707003,1,025816598,13647.15,0.0,0.0,203.0,12.0,서초대우아이빌,17899.87,025816597,15, ,20030313.0,4.0,215.0,15.0,8543.82,6633.0,1227840,0,0,12930,0,0,270,0,500690,0,202401,서울특별시 서초구 서초동 1675-11,37.4942224982177,127.017508995609
1165010800,아파트,복도식,개별난방,위탁관리,분양,서울특별시 서초구 서초중앙로22길 25,293.0,주식회사 루튼,서울특별시 서초구 서초동 1671-5 대림서초리시온,4.0,대림산업주식회사,A13707006,1,0234876307,24578.8,0.0,0.0,286.0,7.0,대림서초리시온,29483.0,0234876308,14, ,20030422.0,2.0,293.0,14.0,13588.9,6634.0,11194690,0,0,72449,0,0,2248,0,2738350,0,202401,서울특별시 서초구 서초동 1671-5,37.4934680144084,127.015430187136
1165010800,아파트,계단식,지역난방,위탁관리,혼합,서울특별시 서초구 서운로 221,392.0,삼호2차재건축조합,서울특별시 서초구 서초동 1301-6 래미안 서초스위트 아파트,1.0,(주)삼성물산,A13707009,3,0234773406,43456.81,149.0,0.0,84.0,159.0,래미안 서초스위트 아파트,57709.957,0234773405,31, ,20090430.0,8.0,392.0,31.0,32815.7143,6608.0,34377816,0,49041280,119790,0,405,6911,2625,8779070,20291250,202401,서울특별시 서초구 서초동 1301-6,37.5020971910471,127.019869045005
1165010800,주상복합,복도식,개별난방,위탁관리,분양,서울특별시 서초구 서초중앙로 26,440.0,서린상사(주),서울특별시 서초구 서초동 1445-4 래미안서초유니빌,6.0,삼성물산(주),A13707010,1,0234860988,36406.905,0.0,0.0,418.0,22.0,래미안서초유니빌,36407.0,0234710988,24,래미안서초유니빌.apti.co.kr,20030822.0,3.0,440.0,24.0,20329.37,6720.0,22478656,0,0,81233,0,0,3429,0,5180190,0,202401,서울특별시 서초구 서초동 1445-4,37.4846872089607,127.016991752076
1165010800,아파트,계단식,지역난방,자치관리,혼합,서울특별시 서초구 서초중앙로24길 33,435.0,금호아파트재건축조합,서울특별시 서초구 서초동 1686-9 서초교대e편한세상,3.0,대림산업 (주),A13707016,6,025341974,54086.56,120.0,48.0,90.0,177.0,서초교대e편한세상,85723.25,025341965,20,211.38.138.217,20100506.0,19.0,435.0,20.0,41190.12,6603.0,45322700,0,51179540,153332,0,492,8298,3599,11483020,30447540,202401,서울특별시 서초구 서초동 1686-9,37.4957534654582,127.017054758494
1165010800,아파트,복도식,개별난방,위탁관리,분양,서울특별시 서초구 서운로 138,64.0,박영갑,서울특별시 서초구 서초동 1321-6 서초동아타워,6.0,동아건설산업(주),A13707017,1,025213295,14267.7677,0.0,64.0,0.0,0.0,서초동아타워,38566.83,025210410,19, ,19961029.0,,64.0,19.0,10068.67,6619.0,0,0,0,0,0,0,0,0,0,0,202401,서울특별시 서초구 서초동 1321-6,37.495994185,127.025267395048
1165010800,아파트,계단식,개별난방,위탁관리,분양,서울특별시 서초구 효령로 237,104.0,한국부동산신탁(주),서울특별시 서초구 서초동 1533- 서초한신리빙타워,2.0,한신공영(주),A13707019,1,0234719716,10521.28,26.0,0.0,47.0,30.0,서초한신리빙타워,19522.0,0234719712,19, ,19990421.0,,103.0,19.0,7919.63,6671.0,0,0,0,0,0,0,0,0,0,0,202401,서울특별시 서초구 서초동 1533-,37.4841930844235,127.00999071947
1165010800,주상복합,복도식,개별난방,위탁관리,분양,서울특별시 서초구 효령로77길 14,200.0,메트로,서울특별시 서초구 서초동 1338-1 풍림아이원플러스,4.0,풍림산업,A13707203,1,025828864,9792.5096,0.0,0.0,200.0,0.0,풍림아이원플러스,14609.6,025828824,15, ,20040423.0,2.0,200.0,15.0,6910.2544,6628.0,7555390,0,0,37709,0,0,1424,0,1807000,0,202401,서울특별시 서초구 서초동 1338-1,37.4903376051273,127.029767346477
1165010200,아파트,복도식,개별난방,위탁관리,임대,서울특별시 서초구 바우뫼로18길 20,231.0,서울특별시 SH공사,서울특별시 서초구 양재동 102- 양재리본타워1단지,2.0,금호건설,A13713001,2,025293359,16384.62,21.0,0.0,154.0,56.0,양재리본타워1단지,33844.89,025293349,29,cafe.naver.com/livontower,20140626.0,0.0,231.0,29.0,16384.62,6755.0,15529220,0,0,64713,0,0,4656,0,5000150,0,202401,서울특별시 서초구 양재동 102-,37.4728897547784,127.032148354517
1165010200,아파트,복도식,개별난방,위탁관리,임대,서울특별시 서초구 매헌로 16,390.0,sh공사,서울특별시 서초구 양재동 212- 양재리본타워2단지,1.0,금호건설,A13713002,3,025292207,28843.26,48.0,0.0,228.0,114.0,양재리본타워2단지,55503.55,025292206,34,www.yjlivon2.com,20140626.0,0.0,390.0,34.0,28843.26,6771.0,26306080,0,0,119214,0,0,6686,0,7685850,0,202401,서울특별시 서초구 양재동 212-,37.462467348157,127.036947909974
1165011100,아파트,혼합식,개별난방,위탁관리,혼합,서울특별시 서초구 청계산로11길 7-12,310.0,SH공사,서울특별시 서초구 신원동 271-9 서초포레스타7단지,0.0,한신공영,A13716001,10,0220580592,41430.76,0.0,0.0,261.0,49.0,서초포레스타7단지,41430.76,0220580591,7, ,20130930.0,16.0,310.0,7.0,17835.75,6802.0,17151510,2240,0,74074,0,0,3682,0,4486650,0,202401,서울특별시 서초구 신원동 271-9,37.4485514741169,127.055973096756
1165011100,아파트,계단식,개별난방,위탁관리,혼합,서울특별시 서초구 청계산로7길 43,547.0,에스에이치공사,서울특별시 서초구 신원동 690- 서초포레스타5단지,3.0,한신공영,A13716002,11,0220582808,88337.95,112.0,0.0,206.0,229.0,서초포레스타5단지,88337.95,0220582806,17, ,20140508.0,19.0,547.0,17.0,43252.24,6798.0,37774160,687510,0,0,0,0,0,0,9341270,0,202401,서울특별시 서초구 신원동 690-,37.45114196704,127.057683489981
1165011100,아파트,계단식,개별난방,위탁관리,혼합,서울특별시 서초구 헌릉로8길 22,482.0,SH공사,서울특별시 서초구 신원동 408- 서초포레스타3단지,3.0,한신공영(주),A13716003,8,0234612811,75689.73,87.0,0.0,249.0,146.0,서초포레스타3단지,76114.0,0234612809,19, ,20140624.0,16.0,482.0,19.0,37219.4,6798.0,38107199,0,289650,153372,5103,0,7977,0,9651960,0,202401,서울특별시 서초구 신원동 408-,37.4552690388771,127.05917968299
1165010900,아파트,계단식,개별난방,위탁관리,혼합,서울특별시 서초구 헌릉로8길 58,1264.0,에스에치,서울특별시 서초구 내곡동 77- 서초더샵포레,2.0,포스코,A13718001,26,0234612817,231171.37,545.0,0.0,264.0,455.0,서초더샵포레,232130.0,0234612812,20,https://www.scthesharpfore.com,20140811.0,0.0,1264.0,20.0,113848.87,6800.0,107728687,0,0,449720,0,0,21399,0,21440250,0,202401,서울특별시 서초구 내곡동 77-,37.4532443872226,127.06247734346
1165010700,아파트,복도식,지역난방,위탁관리,분양,서울특별시 서초구 사평대로 240,435.0,한보건설,서울특별시 서초구 반포동 60-5 반포미도2차,0.0,한보건설,A13770105,3,025337605,40711.6,0.0,0.0,60.0,375.0,반포미도2차,41174.0,025357604,15, ,19890513.0,5.0,435.0,15.0,30352.95,6592.0,20411120,0,74089980,95121,0,0,0,2115,2967210,7402500,202401,서울특별시 서초구 반포동 60-5,37.5028890876125,127.007318763743
1165010800,아파트,계단식,개별난방,자치관리,분양,서울특별시 서초구 명달로 91,67.0,대교D&S,서울특별시 서초구 서초동 1494-4 더미캘란,2.0,대교D&S,A13770606,1,0234746265,29195.957,0.0,67.0,0.0,0.0,더미캘란,29195.957,0234746263,14, ,20050623.0,6.0,67.0,14.0,16074.2,6667.0,0,0,0,0,0,0,0,0,0,0,202401,서울특별시 서초구 서초동 1494-4,37.4854397306457,127.003473778036
1165010800,아파트,계단식,개별난방,위탁관리,분양,서울특별시 서초구 명달로4길 30,161.0,디케이건설,서울특별시 서초구 서초동 1467-62 서초5차e편한세상,2.0,대림건설,A13770607,2,025216120,30637.978,0.0,161.0,0.0,0.0,서초5차e편한세상,46330.44,025216109,15,cafe.daum.net/seocho5cha,20051223.0,6.0,161.0,15.0,25476.64,6713.0,23911256,0,0,74820,0,0,3369,0,3743630,0,202401,서울특별시 서초구 서초동 1467-62,37.4799540435626,127.007153494622
1165010800,주상복합,계단식,중앙난방,위탁관리,분양,서울특별시 서초구 반포대로 122,174.0,SR건설,서울특별시 서초구 서초동 1542-6 서초현대ESA2차,6.0,현대건설,A13770608,2,025237382,33719.16,0.0,174.0,0.0,0.0,서초현대ESA2차,43252.38,025237383,25, ,20030129.0,1.0,174.0,25.0,23707.5,6647.0,24918270,0,30161690,18408,0,30054,0,7374,0,9111420,202401,서울특별시 서초구 서초동 1542-6,37.4910908636013,127.008559754356
1165010800,아파트,계단식,지역난방,위탁관리,분양,서울특별시 서초구 서초중앙로 15,645.0,군인공제회,서울특별시 서초구 서초동 1446-11 현대슈퍼빌,3.0,현대건설(주),A13770609,4,025854155,202346.32,0.0,645.0,0.0,0.0,현대슈퍼빌,226180.0,025851100,46,https://superville.aptner.com,20031013.0,20.0,645.0,46.0,118181.34,6718.0,124932994,0,165258420,303310,0,87615,11751,3831,14036120,27927990,202401,서울특별시 서초구 서초동 1446-11,37.4830108887405,127.015641614311
1165010800,아파트,계단식,개별난방,위탁관리,분양,서울특별시 서초구 반포대로 58,164.0,(주)삼종지위드건설,서울특별시 서초구 서초동 1583-10 서초아트자이,4.0,GS건설(주),A13770610,4, ,33067.4,0.0,164.0,0.0,0.0,서초아트자이,68992.92,025839105,25,http://www.seochoartxi.net,20090626.0,6.0,164.0,25.0,26369.5332,6652.0,36121927,0,0,87113,0,0,2914,0,3598280,0,202401,서울특별시 서초구 서초동 1583-10,37.4859515294058,127.011561022005
1165010800,주상복합,혼합식,기타,자치관리,분양,서울특별시 서초구 효령로53길 45,462.0,서현개발,서울특별시 서초구 서초동 1593-7 서초이오빌,6.0,경남기업,A13770611,1,025861218,40044.71,0.0,0.0,462.0,0.0,서초이오빌,40043.8,025862750,24, ,20030813.0,2.0,462.0,24.0,19386.62,6652.0,20977750,0,0,76666,0,0,4034,0,4717540,0,202401,서울특별시 서초구 서초동 1593-7,37.4865276721133,127.012932415371
1165010100,주상복합,혼합식,개별난방,위탁관리,분양,서울특별시 서초구 방배로33길 29,163.0,한신공영,서울특별시 서초구 방배동 816-1 방배한신트리플,4.0,한신공영,A13770801,1,025371055,9278.95,0.0,0.0,144.0,19.0,방배한신트리플,21498.34,025371057,12, ,20040227.0,1.0,163.0,12.0,7271.55,6562.0,6560001,0,0,25656,0,0,1352,0,1606670,0,202401,서울특별시 서초구 방배동 816-1,37.4912422359315,126.989270518102
1165010100,아파트,계단식,개별난방,위탁관리,혼합,서울특별시 서초구 방배천로18길 11,744.0,방배2-6구역 주택재건축 정비사업조합,서울특별시 서초구 방배동 424-28 방배롯데캐슬아르떼,3.0,롯데건설,A13771001,11,0234861800,93818.0,103.0,148.0,164.0,329.0,방배롯데캐슬아르떼,143730.0,0234864967,18,arte.aptnet.co.kr,20131120.0,0.0,744.0,18.0,74227.8998,6676.0,87591850,0,0,303051,0,0,12799,0,17231020,0,202401,서울특별시 서초구 방배동 424-28,37.4835761837235,126.983066727938
1165010100,아파트,혼합식,개별난방,위탁관리,분양,서울특별시 서초구 효령로33길 50,496.0,방배서리풀 재건축조합,서울특별시 서초구 방배동 906-13 방배서리풀e편한세상,4.0,대림산업(주),A13771601,9,025210719,48431.54,110.0,70.0,101.0,215.0,방배서리풀e편한세상,99415.03,025210709,15,방배서리풀.한국/,20100203.0,26.0,496.0,15.0,48431.54,6666.0,53486002,0,0,178116,0,0,9311,0,11382710,0,202401,서울특별시 서초구 방배동 906-13,37.4837245104701,126.997751587709
1165010800,아파트,혼합식,지역난방,위탁관리,분양,서울특별시 서초구 사임당로19길 10,299.0,고려산업개발(주),서울특별시 서초구 서초동 1648-2 서초현대아파트,3.0,고려산업개발(주),A13772801,2,0234872330,30367.0081,74.0,0.0,120.0,105.0,서초현대아파트,44202.45,0234872288,16,없음,19991130.0,8.0,299.0,16.0,23750.52,6637.0,18757400,0,39579190,74074,0,17363,3272,1805,5028710,8122500,202401,서울특별시 서초구 서초동 1648-2,37.4909812977515,127.019834325854
1165010800,주상복합,복도식,개별난방,자치관리,분양,서울특별시 서초구 강남대로53길 11,365.0,삼성중공업(주),서울특별시 서초구 서초동 1330- 서초삼성쉐르빌2,0.0,국민자산신탁(주),A13775102,1,025845628,26867.53,0.0,0.0,313.0,52.0,서초삼성쉐르빌2,32854.17,025845626,21, ,20020325.0,4.0,365.0,21.0,15257.38,6626.0,51652360,0,267780,199399,0,0,3372,0,4841160,0,202401,서울특별시 서초구 서초동 1330-,37.4939616380396,127.02791641287
1165010700,아파트,계단식,지역난방,위탁관리,혼합,서울특별시 서초구 고무래로 35,1119.0,"삼호가든1,2차아파트재건축조합",서울특별시 서초구 반포동 30-26 반포리체,2.0,(주)대림/ (주)삼성,A13776301,9,025960306,123128.936,192.0,72.0,405.0,450.0,반포리체,180700.164,025960346,35, ,20101029.0,17.0,1119.0,35.0,92869.532,6597.0,130595655,0,135190430,396315,0,1293,20969,8699,29210900,85881400,202401,서울특별시 서초구 반포동 30-26,37.504467489825,127.012454510399
1165010700,아파트,계단식,개별난방,위탁관리,분양,서울특별시 서초구 신반포로15길 4,237.0,반포 대우 직장조합 외 6개 조합,서울특별시 서초구 반포동 10- 반포푸르지오,2.0,(주)대우,A13776508,3,0234780624,23544.88,0.0,0.0,65.0,172.0,반포푸르지오,32930.47,0234780625,12, ,20001030.0,10.0,237.0,12.0,18354.09,6504.0,14356070,0,0,71853,0,0,4727,0,4945510,0,202401,서울특별시 서초구 반포동 10-,37.50414348667,126.997453872656
1165010700,아파트,계단식,지역난방,위탁관리,혼합,서울특별시 서초구 반포대로 275,2444.0,반포주공2단지재건축조합,서울특별시 서초구 반포동 18-1 래미안퍼스티지,3.0,삼성물산,A13776509,28,025999935,279425.58,130.0,847.0,512.0,955.0,래미안퍼스티지,540103.11,025999960,32,bpfirstige.aptner.com/,20090714.0,4.0,2444.0,32.0,279425.58,6547.0,321302130,0,380345570,1005873,0,3548,48151,17594,56835590,171583240,202401,서울특별시 서초구 반포동 18-1,37.5023902684594,126.995965286053
1165010700,아파트,계단식,지역난방,위탁관리,분양,서울특별시 서초구 신반포로16길 15-20,397.0,미주아파트재건축,서울특별시 서초구 반포동 16-6 반포힐스테이트,2.0,(주)현대건설,A13776510,5,025329287,42872.6711,0.0,158.0,80.0,159.0,반포힐스테이트,77917.07,025329277,29, ,20120402.0,10.0,397.0,29.0,42872.65,6549.0,49788270,0,55411670,159264,0,515,8045,3553,9268730,31408520,202401,서울특별시 서초구 반포동 16-6,37.5016224434628,126.996338644287
1165010300,아파트,혼합식,개별난방,위탁관리,혼합,서울특별시 서초구 태봉로2길 65,409.0,진흥기업,서울특별시 서초구 우면동 720- 서초네이처힐4단지,0.0,SH,A13778201,7,025775587,37609.54,3.0,0.0,232.0,174.0,서초네이처힐4단지,37609.54,025775586,15, ,20111212.0,11.0,409.0,15.0,27233.25,6764.0,26572770,0,0,125132,0,0,7345,0,8314020,0,202401,서울특별시 서초구 우면동 720-,37.4641257392669,127.0257879338
1165010300,아파트,계단식,개별난방,위탁관리,임대,서울특별시 서초구 태봉로2길 5,509.0,sh공사,서울특별시 서초구 우면동 730- 서초네이처힐5단지,3.0,태영건설(주),A13778202,8,025776618,75368.614,175.0,0.0,256.0,78.0,서초네이처힐5단지,75858.08,025776617,17, ,20111212.0,13.0,509.0,17.0,40963.8,6764.0,34332080,0,0,155940,0,0,9313,0,11002830,0,202401,서울특별시 서초구 우면동 730-,37.4629803452747,127.024216596126
1165010300,아파트,혼합식,개별난방,위탁관리,혼합,서울특별시 서초구 태봉로2길 10,275.0,태영건설,서울특별시 서초구 우면동 735- 서초네이처힐7단지,2.0,SH공사,A13778203,5,025779931,33126.93,0.0,0.0,243.0,32.0,서초네이처힐7단지,33126.93,025779930,17, ,20111212.0,7.0,275.0,17.0,15383.0,6764.0,16806070,0,0,72670,0,0,3755,0,4430590,0,202401,서울특별시 서초구 우면동 735-,37.4620460968245,127.023266257226
1165010300,아파트,계단식,개별난방,위탁관리,분양,서울특별시 서초구 양재대로2길 90,1082.0,한국토지주택공사(LH),서울특별시 서초구 우면동 773- 서초힐스,2.0,서희건설,A13778204,12,025756220,97990.068,0.0,0.0,332.0,750.0,서초힐스,148779.26,025756204,25, ,20121203.0,30.0,1082.0,25.0,81337.69,6767.0,87654160,0,0,462783,0,0,19525,0,24261140,0,202401,서울특별시 서초구 우면동 773-,37.4576052707213,127.017570531118
1165010300,아파트,혼합식,개별난방,위탁관리,혼합,서울특별시 서초구 태봉로2길 60,1251.0,SH공사,서울특별시 서초구 우면동 717- 서초네이처힐3단지,2.0,진흥건설,A13778205,17,025760087,90865.52,152.0,0.0,657.0,442.0,서초네이처힐3단지,176524.97,025760086,19, ,20130118.0,32.0,1251.0,19.0,90865.52,6764.0,97458430,0,0,395072,0,0,21199,0,22757600,0,202401,서울특별시 서초구 우면동 717-,37.4656521008404,127.027181197541
1165010300,아파트,혼합식,개별난방+기타,위탁관리,혼합,서울특별시 서초구 태봉로2길 30,382.0,SH공사,서울특별시 서초구 우면동 737- 서초네이처힐6단지,2.0,(주)태영건설,A13778207,7,025774554,49785.46,47.0,0.0,305.0,30.0,서초네이처힐6단지,50308.58,025774455,17, ,20130215.0,11.0,382.0,17.0,24386.75,6764.0,22720863,0,-8300,122966,0,0,6586,0,7454450,0,202401,서울특별시 서초구 우면동 737-,37.4611528806282,127.025650823399
1165010300,아파트,혼합식,,위탁관리,혼합,서울특별시 서초구 형촌길 35,178.0,SH공사,서울특별시 서초구 우면동 707- 서초네이처힐1단지,2.0,태영건설,A13778208,10,025772057,18678.6,28.0,0.0,50.0,100.0,서초네이처힐1단지,31670.64,025772056,7, ,20121128.0,11.0,178.0,7.0,14184.12,6765.0,13346640,0,0,54444,0,0,2499,0,2687650,0,202401,서울특별시 서초구 우면동 707-,37.4641127596984,127.019185184101
1165010300,아파트,계단식,개별난방,위탁관리,분양,서울특별시 서초구 양재대로2길 33,424.0,한국토지주택공사,서울특별시 서초구 우면동 788- 호반써밋서초파크,2.0,울트라건설(주) 외,A13778209,4,0220580379,56637.3224,0.0,0.0,202.0,222.0,호반써밋서초파크,56984.64,0220580377,25, ,20131204.0,0.0,424.0,25.0,29708.18,6768.0,35991140,0,0,0,0,0,0,0,8015110,0,202401,서울특별시 서초구 우면동 788-,37.4582049982978,127.024131981599
1165010300,아파트,계단식,개별난방,위탁관리,분양,서울특별시 서초구 양재대로2길 11,358.0,한국토지주택공사,서울특별시 서초구 우면동 789- 호반써밋서초파크뷰,2.0,(주)울트라건설,A13778210,3, ,38824.6518,0.0,0.0,108.0,250.0,호반써밋서초파크뷰,53557.0,0220580322,25, ,20131204.0,9.0,358.0,25.0,27716.46,6768.0,31084300,0,0,122484,0,0,6491,0,7167720,0,202401,서울특별시 서초구 우면동 789-,37.45912484198,127.025420796786
1165010300,아파트,계단식,개별난방,위탁관리,분양,서울특별시 서초구 양재대로2길 109,550.0,울트라건설,서울특별시 서초구 우면동 753- 서초호반써밋,2.0,울트라건설,A13778211,6,0220581821,76940.397,539.0,11.0,0.0,0.0,서초호반써밋,117486.0,0220581820,25, ,20131031.0,12.0,550.0,25.0,60504.5462,6767.0,60214155,0,0,202017,0,0,9829,0,12138180,0,202401,서울특별시 서초구 우면동 753-,37.456115498066,127.01378344297
1165010300,아파트,혼합식,개별난방,위탁관리,임대,서울특별시 서초구 양재대로2길 34,790.0,lh,서울특별시 서초구 우면동 784- LH서초3단지,1.0,동아건설,A13778212,5,025719931,34363.6302,0.0,0.0,790.0,0.0,LH서초3단지,68033.3604,025719930,25, ,20131119.0,12.0,790.0,25.0,34839.65,6768.0,40709380,0,0,243299,0,0,10688,0,10371700,0,202401,서울특별시 서초구 우면동 784-,37.4575822429655,127.02216682945
1165010300,아파트,혼합식,,위탁관리,혼합,서울특별시 서초구 형촌길 15,133.0,SH공사,서울특별시 서초구 우면동 712- 서초네이처힐2단지,1.0,SH공사,A13778213,8,025791558,12668.83,21.0,0.0,68.0,44.0,서초네이처힐2단지,12669.0,025791557,7, ,20120426.0,9.0,133.0,7.0,9677.61,6765.0,0,0,0,0,0,0,0,0,0,0,202401,서울특별시 서초구 우면동 712-,37.4632989346877,127.021462617695
1165010300,연립주택,계단식,개별난방,위탁관리,임대,서울특별시 서초구 형촌길 60,115.0,SH,서울특별시 서초구 우면동 701- 서초네이처힐가든,1.0,동화이앤씨,A13778214,16,025298872,6849.5846,0.0,0.0,92.0,23.0,서초네이처힐가든,14988.19,025298871,5, ,20110930.0,16.0,115.0,5.0,6894.73,6765.0,0,0,0,0,0,0,0,0,0,0,202401,서울특별시 서초구 우면동 701-,37.4645305807291,127.020136264192
1165010300,아파트,복도식,중앙난방,위탁관리,임대,서울특별시 서초구 바우뫼로7길 11,984.0,한국토지주택공사,서울특별시 서초구 우면동 63- 서울우면,1.0,남광토건,A13778306,6,025733433,42228.56,0.0,0.0,984.0,0.0,서울우면,43895.11,025780503,15,www.kohom.or.kr,19940718.0,13.0,984.0,15.0,28606.23,6762.0,0,0,67827926,0,0,81901,3159,3159,0,7897500,202401,서울특별시 서초구 우면동 63-,37.469861799836,127.023866004927
1165010600,아파트,계단식,지역난방,자치관리,분양,서울특별시 서초구 나루터로4길 70-5,110.0,확인불가,서울특별시 서초구 잠원동 60-4 한신타운,0.0,확인불가,A13779432,1,025364503,10294.77,0.0,0.0,0.0,110.0,한신타운,10447.43,025324503,15, ,19890630.0,4.0,110.0,15.0,8173.2,6522.0,0,0,0,0,0,0,0,0,0,0,202401,서울특별시 서초구 잠원동 60-4,37.5094726629989,127.011568494191
1165010700,아파트,복도식,개별난방,자치관리,분양,서울특별시 서초구 고무래로10길 39,154.0,해주정씨종친회,서울특별시 서초구 반포동 46- 엠브이아파트,2.0,한보철강,A13780201,1,025911645,17664.36,40.0,0.0,54.0,60.0,엠브이아파트,21910.0,025911655,18, ,19940728.0,2.0,154.0,18.0,13431.48,6593.0,9271440,0,0,0,0,0,0,0,0,0,202401,서울특별시 서초구 반포동 46-,37.4991655524726,127.010251346999
1165010700,아파트,혼합식,지역난방,위탁관리,분양,서울특별시 서초구 사평대로 154,224.0,현대건설,서울특별시 서초구 반포동 64-5 반포현대동궁,1.0,현대건설,A13780402,1,025342894,22573.8,0.0,0.0,0.0,224.0,반포현대동궁,22638.0,025342896,15, ,19910720.0,4.0,224.0,15.0,17403.75,6578.0,10924389,0,37746709,52796,0,0,3314,1276,3995190,3190000,202401,서울특별시 서초구 반포동 64-5,37.5007885086018,127.002200860265
1165010700,아파트,혼합식,지역난방,자치관리,분양,서울특별시 서초구 사평대로28길 31,414.0,(주)한신공영,서울특별시 서초구 반포동 70-1 반포한신서래,0.0,(주)한신공영,A13780403,4,025926146,50600.0,84.0,120.0,56.0,154.0,반포한신서래,50600.0,025359492,12, ,19871231.0,12.0,414.0,12.0,39183.78,6578.0,24916730,0,86471600,107117,0,0,7011,2086,10184370,5840800,202401,서울특별시 서초구 반포동 70-1,37.4989786738327,127.000999698637
1165010100,아파트,계단식,지역난방,위탁관리,분양,서울특별시 서초구 방배로37길 26-9,216.0,방배궁전리모델링주택조합,서울특별시 서초구 방배동 776-3 쌍용예가클래식,1.0,쌍용건설,A13782601,3,025323302,31459.8,144.0,72.0,0.0,0.0,쌍용예가클래식,38311.354,025323048,12, ,20061227.0,10.0,216.0,12.0,25998.4164,6557.0,23868429,0,36996380,69677,0,22687,4122,1611,5137510,4833000,202401,서울특별시 서초구 방배동 776-3,37.4937360523087,126.987521941851
1165010100,아파트,혼합식,지역난방,자치관리,분양,서울특별시 서초구 방배로 270,481.0,삼호주택,서울특별시 서초구 방배동 725- 방배신삼호,0.0,삼호주택,A13782602,6,025930902,85111.464,117.0,364.0,0.0,0.0,방배신삼호,85111.464,025936434,13, ,19830531.0,17.0,481.0,13.0,76743.12,6574.0,41112236,0,0,194771,0,0,11847,5982,13598110,24562092,202401,서울특별시 서초구 방배동 725-,37.4976251790426,126.988622978961
1165010100,주상복합,계단식,개별난방,위탁관리,분양,서울특별시 서초구 동광로1길 112,337.0,롯데건설(주),서울특별시 서초구 방배동 754-1 롯데캐슬헤론,3.0,롯데건설(주),A13782803,5,025328005,84735.105,161.0,176.0,0.0,0.0,롯데캐슬헤론,96868.466,025328002,29, ,20060626.0,5.0,337.0,29.0,47039.63,6551.0,45794820,0,0,214986,0,0,6327,0,5487270,0,202401,서울특별시 서초구 방배동 754-1,37.4969966477215,126.984725257382
1165010100,아파트,혼합식,지역난방,자치관리,분양,서울특별시 서초구 방배로45길 2,899.0,(주)삼호주택,서울특별시 서초구 방배동 757-3 삼호,1.0,(주)삼호주택,A13782804,12,025965537,122889.749,456.0,169.0,0.0,274.0,삼호,125287.47,025965535,12, ,19751128.0,16.0,899.0,12.0,111760.3,6552.0,74279187,0,268965480,390778,0,0,13300,5161,17964900,13005930,202401,서울특별시 서초구 방배동 757-3,37.4976612106239,126.986806697744
1165010100,아파트,계단식,개별난방,위탁관리,분양,서울특별시 서초구 방배로 249,206.0,방배본 이수아파트 지구개발조합,서울특별시 서초구 방배동 772-13 현대멤피스아파트,2.0,현대산업개발,A13782902,5,0234815686,31818.0,74.0,132.0,0.0,0.0,현대멤피스아파트,55980.0,025358051,21, ,20010926.0,6.0,206.0,21.0,31906.84,6556.0,26011720,0,0,85624,0,0,4515,0,5251530,0,202401,서울특별시 서초구 방배동 772-13,37.4950383654665,126.988382619505
1165010100,아파트,계단식,개별난방,위탁관리,분양,서울특별시 서초구 동광로 89-5,192.0,주)비젼베이스,서울특별시 서초구 방배동 797-30 방배3차e편한세상,2.0,대림산업(주),A13783001,5,025990295,46705.001,0.0,192.0,0.0,0.0,방배3차e편한세상,68970.847,025990293,15, ,20060331.0,7.0,192.0,15.0,40627.6215,6584.0,39480365,0,0,167928,0,0,0,0,0,0,202401,서울특별시 서초구 방배동 797-30,37.4943869668091,126.991989896228
1165010100,주상복합,복도식,개별난방,위탁관리,분양,서울특별시 서초구 서초대로 17,412.0,대가건설,서울특별시 서초구 방배동 866-20 방배디오빌,4.0,대우건설,A13783802,1,025915834,23804.56,0.0,0.0,412.0,0.0,방배디오빌,26513.14,025915832,22, ,20050705.0,2.0,412.0,22.0,12462.96,6569.0,18702660,0,0,79037,0,0,3698,0,5507330,0,202401,서울특별시 서초구 방배동 866-20,37.4860272915259,126.984408185402
1165010100,아파트,계단식,개별난방,위탁관리,분양,서울특별시 서초구 서초대로34길 34,199.0,대림비젼베이스,서울특별시 서초구 방배동 884-21 방배1차이편한세상,2.0,대림건설(주),A13784102,3,025230676,41169.65,0.0,199.0,0.0,0.0,방배1차이편한세상,59833.24,025230622,15, ,20031230.0,7.0,199.0,15.0,33769.54,6661.0,29359788,0,0,87304,0,0,3434,0,4209040,0,202401,서울특별시 서초구 방배동 884-21,37.487246659478,126.99901481766
1165010100,아파트,계단식,개별난방,위탁관리,분양,서울특별시 서초구 방배로19길 67,161.0,흥화공업(주),서울특별시 서초구 방배동 930-1 방배브라운가,1.0,흥화공업(주),A13784401,2,025860680,15462.02,45.0,0.0,0.0,116.0,방배브라운가,19875.82,025860690,13, ,20060526.0,7.0,161.0,13.0,15462.02,6681.0,13902400,11840,0,70857,11,0,3213,0,3719360,0,202401,서울특별시 서초구 방배동 930-1,37.4832760943553,126.991926975017
1165010100,아파트,혼합식,중앙난방,자치관리,분양,서울특별시 서초구 효령로 164,493.0,신동아건설(주),서울특별시 서초구 방배동 988-1 방배신동아,0.0,신동아건설(주),A13784907,6,025828393,70831.26,243.0,250.0,0.0,0.0,방배신동아,78249.076,025820093,15, ,19811230.0,12.0,493.0,15.0,64617.98,6704.0,5507540,898870,27675660,9523,0,0,0,123,0,369000,202401,서울특별시 서초구 방배동 988-1,37.4814657917142,127.000537269113
1165010100,아파트,타워형,중앙난방,자치관리,분양,서울특별시 서초구 방배로2길 24-5,316.0,임광토건주식회사,서울특별시 서초구 방배동 1010-1 방배임광3차,1.0,임광토건주식회사,A13785001,4,025857396,32700.0438,40.0,0.0,76.0,200.0,방배임광3차,32700.0438,025235090,10, ,19880414.0,8.0,316.0,10.0,22876.3,6715.0,21524520,0,42933090,84956,0,0,4141,1034,4328190,3612000,202401,서울특별시 서초구 방배동 1010-1,37.4764115275478,127.003554419879
1165010100,아파트,혼합식,중앙난방,자치관리,분양,서울특별시 서초구 방배로 14,418.0,임광토건,"서울특별시 서초구 방배동 1015- 방배임광1,2차",1.0,임광토건,A13785005,6,025872318,50192.7184,0.0,286.0,0.0,132.0,"방배임광1,2차",64805.44,025872322,11, ,19851113.0,15.0,418.0,11.0,50195.64,6715.0,37682748,0,111563590,129402,0,0,7916,2273,9606430,6250750,202401,서울특별시 서초구 방배동 1015-,37.4764930967122,127.002463337752
1165010100,아파트,계단식,개별난방,위탁관리,분양,서울특별시 서초구 남부순환로 2311-12,588.0,삼성건설,서울특별시 서초구 방배동 1008-2 래미안방배아트힐,0.0,삼성물산,A13785008,10,025829792,93181.73,457.0,131.0,0.0,0.0,래미안방배아트힐,129125.0,025874181,24, ,20041214.0,0.0,588.0,24.0,78695.6,6714.0,66515662,0,0,213674,0,0,12537,0,13650110,0,202401,서울특별시 서초구 방배동 1008-2,37.4769325431469,127.004656842419
1165010100,아파트,계단식,개별난방,위탁관리,분양,서울특별시 서초구 서초대로1길 34,384.0,현대건설,서울특별시 서초구 방배동 2001- 방배2차현대홈타운,2.0,현대건설,A13785201,6,025953634,50209.29,69.0,112.0,47.0,156.0,방배2차현대홈타운,62786.47,025953633,20, ,20010827.0,11.0,384.0,20.0,40474.24,6566.0,33526830,0,0,113522,0,0,8039,0,9409250,0,202401,서울특별시 서초구 방배동 2001-,37.4906398184158,126.983719049162
1165010100,아파트,혼합식,개별난방,위탁관리,분양,서울특별시 서초구 서초대로1길 30,644.0,현대건설,서울특별시 서초구 방배동 1344- 방배1차현대,2.0,방배2-1지구 재건축 조합,A13785203,8,025993869,53760.11,158.0,0.0,262.0,224.0,방배1차현대,96043.0,025374932,20,방배1차현대아파트.apti.co.kr,19991109.0,15.0,644.0,20.0,53760.11,6567.0,39854600,0,0,170507,0,0,12529,0,13720270,0,202401,서울특별시 서초구 방배동 1344-,37.4892328804823,126.983614309346
1165010100,아파트,계단식,개별난방,위탁관리,분양,서울특별시 서초구 방배선행길 2,303.0,방배제2구역주택재개발조합,서울특별시 서초구 방배동 2626- 방배래미안,3.0,삼성물산,A13785301,9,025886992,32487.49,78.0,0.0,73.0,152.0,방배래미안,47659.0,025886991,10, ,20031001.0,16.0,303.0,10.0,26244.34,6760.0,22345906,0,0,90969,0,0,5371,0,6407100,0,202401,서울특별시 서초구 방배동 2626-,37.472366336806,126.984855302054
1165010100,아파트,혼합식,개별난방,위탁관리,분양,서울특별시 서초구 방배선행길 1,468.0,우성건설,서울특별시 서초구 방배동 2525- 방배우성,1.0,우성건설,A13785302,9,025977131,55656.198,168.0,0.0,0.0,300.0,방배우성,56262.18,025870912,12, ,19910506.0,16.0,468.0,12.0,44492.28,6760.0,30696226,0,0,139707,0,0,0,0,0,0,202401,서울특별시 서초구 방배동 2525-,37.4741083994871,126.982598121483
1165010800,아파트,혼합식,지역난방,자치관리,분양,서울특별시 서초구 서초대로 385,615.0,진흥,서울특별시 서초구 서초동 1315- 서초진흥,0.0,진흥기업,A13785604,7,0234829377,80578.5135,495.0,120.0,0.0,0.0,서초진흥,84451.21,0234812504,15, ,19790822.0,13.0,615.0,15.0,74760.9,6617.0,41392074,0,172693200,178408,0,0,10375,3728,15814500,16776000,202401,서울특별시 서초구 서초동 1315-,37.4978709014595,127.022070169919
1165010800,아파트,계단식,지역난방,위탁관리,분양,서울특별시 서초구 서운로 200,990.0,롯데건설,서울특별시 서초구 서초동 1312-3 롯데캐슬클래식,2.0,롯데건설,A13785607,15,025337564,98785.4,430.0,0.0,0.0,560.0,롯데캐슬클래식,175496.48,025993425,27, ,20060607.0,22.0,990.0,27.0,98785.4,6610.0,96527350,0,152914450,484661,0,1361,18398,7961,21692830,54903300,202401,서울특별시 서초구 서초동 1312-3,37.5011960350017,127.023621745089
1165010800,아파트,복도식,지역난방,자치관리,분양,서울특별시 서초구 서초대로74길 30,408.0,우성건설,서울특별시 서초구 서초동 1326-17 서초우성5차아파트,2.0,우성건설,A13785705,2,025816476,42988.422,60.0,0.0,188.0,160.0,서초우성5차아파트,51886.5,025811622,23, ,19980528.0,10.0,408.0,23.0,32302.12,6622.0,27897121,0,60557310,160726,0,87788,2803,2803,3223450,16846030,202401,서울특별시 서초구 서초동 1326-17,37.4950903167306,127.026804103993
1165010800,아파트,계단식,지역난방,위탁관리,분양,서울특별시 서초구 효령로68길 81,184.0,서초우성4차재건축조합,서울특별시 서초구 서초동 1444-7 서초자이,2.0,GS건설,A13786601,4,025861159,30247.24,81.0,86.0,0.0,17.0,서초자이,49153.0,025861156,18, ,20060418.0,6.0,184.0,18.0,24307.21,6721.0,20205030,0,1421120,62397,2066,23101,3441,1181,4275200,38800580,202401,서울특별시 서초구 서초동 1444-7,37.4851864115381,127.020673109863
1165010800,주상복합,계단식,지역난방,위탁관리,분양,서울특별시 서초구 서초중앙로2길 10,329.0,(주) 나우타 건설,서울특별시 서초구 서초동 1445-14 서초더샵,4.0,포스코 건설,A13786606,3,025235509,46593.01,30.0,195.0,104.0,0.0,서초더샵,58681.1,025230877,32, ,20060119.0,10.0,329.0,32.0,36102.47,6725.0,57204489,379460,73780084,143409,2930,47480,3911,2693,10584240,11940691,202401,서울특별시 서초구 서초동 1445-14,37.4829692310586,127.018362150298
1165010800,아파트,혼합식,개별난방,위탁관리,분양,서울특별시 서초구 남부순환로323길 38-15,194.0,주식회사 한신공영,서울특별시 서초구 서초동 1454-29 서초한신플러스타운,2.0,주식회사 한신공영,A13786704,2,025222046,24896.71,105.0,0.0,0.0,89.0,서초한신플러스타운,34040.48,025222045,15, ,20011214.0,7.0,194.0,15.0,19223.98,6717.0,13948737,0,0,0,0,0,3535,0,3739210,0,202401,서울특별시 서초구 서초동 1454-29,37.4827273836678,127.014606684245
1165010800,아파트,계단식,개별난방,위탁관리,분양,서울특별시 서초구 남부순환로 2343-10,77.0,(주)디케이건설,서울특별시 서초구 서초동 1467-37 서초3차e편한세상,2.0,대림산업,A13786803,2,025216120,14112.02,17.0,60.0,0.0,0.0,서초3차e편한세상,21245.71,025216109,15,cafe.daum.net/seocho3cha,20051223.0,3.0,77.0,15.0,11721.57,6713.0,12052728,0,0,34092,0,0,1604,0,1795000,0,202401,서울특별시 서초구 서초동 1467-37,37.4784806722252,127.007800267381
1165010800,아파트,계단식,개별난방,위탁관리,분양,서울특별시 서초구 명달로6길 31,154.0,대림,서울특별시 서초구 서초동 1487-63 서초1차e편한세상,2.0,대림,A13786901,2,025841488,24436.3658,154.0,0.0,0.0,0.0,서초1차e편한세상,37211.79,025831487,15,서초1차e-편한세상.apti.co.kr,20040824.0,7.0,154.0,15.0,20101.62,6708.0,18817594,0,0,61083,0,0,2885,0,3750920,0,202401,서울특별시 서초구 서초동 1487-63,37.4813751470729,127.006604037927
1165010800,아파트,계단식,개별난방,위탁관리,분양,서울특별시 서초구 효령로49길 57,159.0,서초연합 재건축 주택조합,서울특별시 서초구 서초동 1529- 서초2차e편한세상,2.0,대림산업,A13787102,3,025841506,16995.2758,116.0,0.0,0.0,43.0,서초2차e편한세상,30500.465,025841546,15, ,20050224.0,0.0,159.0,15.0,16997.336,6670.0,2893630,0,0,16086,0,0,0,0,0,0,202401,서울특별시 서초구 서초동 1529-,37.4863595198303,127.009369806569
1165010800,아파트,혼합식,개별난방,위탁관리,분양,서울특별시 서초구 서초대로40길 72,264.0,삼성중공업,서울특별시 서초구 서초동 1509-1 서초한빛삼성,1.0,삼성중공업,A13787105,2,0220550115,30876.49,180.0,0.0,84.0,0.0,서초한빛삼성,37907.0,025829998,18, ,19991126.0,7.0,264.0,18.0,23639.68,6657.0,19018450,0,0,83451,0,0,4286,0,4674780,0,202401,서울특별시 서초구 서초동 1509-1,37.4881890139975,127.008194201279
1165010800,아파트,혼합식,지역난방,위탁관리,분양,서울특별시 서초구 효령로72길 14,413.0,현대산업개발주식회사,"서울특별시 서초구 서초동 1346- 서초현대1,2차",0.0,현대산업개발주식회사,A13788002,5,025975856,33458.275,0.0,0.0,0.0,413.0,"서초현대1,2차",43404.839,025866369,15,서초현대.apti.co.kr,19891218.0,14.0,413.0,15.0,33458.275,6726.0,26975428,0,73065920,114482,0,0,6670,1942,8674570,7573800,202401,서울특별시 서초구 서초동 1346-,37.4871645500907,127.025420231714
1165010800,아파트,계단식,지역난방,위탁관리,분양,서울특별시 서초구 사임당로17길 116,299.0,삼성물산,서울특별시 서초구 서초동 1641-1 서초삼성래미안,2.0,삼성물산,A13788003,3,0220551468,40968.7,128.0,32.0,0.0,139.0,서초삼성래미안,57725.97,025844670,16, ,20010521.0,11.0,299.0,16.0,32190.03,6635.0,25234580,0,46882410,85678,0,26713,5441,2035,6599990,14422080,202401,서울특별시 서초구 서초동 1641-1,37.493587674838,127.020169844811
1165010800,아파트,혼합식,지역난방,위탁관리,분양,서울특별시 서초구 고무래로 94,160.0,서초은하아파트재건축조합,서울특별시 서초구 서초동 1684- 서초현대4차,3.0,현대산업개발,A13788201,3,0234817430,20033.71,17.0,53.0,20.0,70.0,서초현대4차,31325.56,025323538,18, ,20001127.0,4.0,160.0,18.0,16081.08,6602.0,15010020,0,34399630,48898,0,9605,2909,1222,3849040,0,202401,서울특별시 서초구 서초동 1684-,37.5002038451468,127.018590174775
1165010800,아파트,계단식,지역난방,자치관리,분양,서울특별시 서초구 서초중앙로24길 43,590.0,한전직장조합 외 13개 조합,서울특별시 서초구 서초동 1687- 유원서초아파트,1.0,유원건설,A13788203,4,025920824,70214.897,0.0,0.0,0.0,590.0,유원서초아파트,71334.71,025958595,18, ,19931125.0,18.0,590.0,18.0,50051.0,6603.0,43405359,0,101385260,161673,0,64743,3770,3770,5148470,15818740,202401,서울특별시 서초구 서초동 1687-,37.4959475181655,127.018985138118
1165010800,주상복합,계단식,지역난방,위탁관리,분양,서울특별시 서초구 서초중앙로 188,757.0,대상주식회사,서울특별시 서초구 서초동 1685-3 서초아크로비스타,6.0,대림건설(주),A13788206,3,025306801,124600.21,36.0,721.0,0.0,0.0,서초아크로비스타,258428.0,025306800,37,https://xn--2o2b21i98b4k51dezgl9c4ticordyal9a379a.apti.co.kr/aptHome/,20040625.0,18.0,757.0,37.0,124600.21,6600.0,170010559,0,217479620,370240,0,128947,15642,5655,25886090,22584000,202401,서울특별시 서초구 서초동 1685-3,37.4973504144781,127.013538045649
1165010800,아파트,계단식,지역난방,위탁관리,분양,서울특별시 서초구 서초대로65길 13-10,1129.0,삼성물산,서울특별시 서초구 서초동 1682- 서초래미안,2.0,삼성물산,A13788208,13,0234778605,157003.22,787.0,0.0,0.0,342.0,서초래미안,218689.34,0234778603,27, ,20030510.0,24.0,1129.0,27.0,119018.09,6602.0,101721696,0,168424400,0,0,0,0,0,25846620,73494750,202401,서울특별시 서초구 서초동 1682-,37.4974284760361,127.019150618212
1165010200,아파트,복도식,개별난방,위탁관리,분양,서울특별시 서초구 논현로27길 57,175.0,(주)신영,서울특별시 서초구 양재동 90- 양재신영체르니,1.0,(주)한라,A13789002,1,025719025,8852.48,0.0,0.0,175.0,0.0,양재신영체르니,12027.34,025719024,9,openapt.seoul.go.kr,20020830.0,2.0,175.0,9.0,6505.89,6747.0,6208630,0,0,27980,0,0,1657,0,1773170,0,202401,서울특별시 서초구 양재동 90-,37.4790137073925,127.041497933378
1165010200,아파트,계단식,개별난방,위탁관리,분양,서울특별시 서초구 바우뫼로 91,150.0,우성건설,서울특별시 서초구 양재동 160-2 양재우성KBS(113동),1.0,우성건설,A13789201,1,025748994,16533.39,0.0,0.0,0.0,150.0,양재우성KBS(113동),16533.39,025798994,14, ,19961231.0,6.0,150.0,14.0,12703.5,6751.0,9217910,0,0,43325,0,0,0,0,0,0,202401,서울특별시 서초구 양재동 160-2,37.4750404702355,127.031799040636
1165010200,아파트,계단식,중앙난방,위탁관리,분양,서울특별시 서초구 바우뫼로 91,848.0,우성건설,서울특별시 서초구 양재동 137-1 양재우성,0.0,우성건설,A13789203,11,025763775,85917.3464,0.0,0.0,0.0,848.0,양재우성,92578.0,025726062,15, ,19911129.0,30.0,848.0,15.0,68538.98,6751.0,47024980,0,171901900,228987,0,0,0,5437,5252300,17398400,202401,서울특별시 서초구 양재동 137-1,37.4750404702355,127.031799040636
1165010300,아파트,계단식,,위탁관리,분양,서울특별시 서초구 바우뫼로 33,252.0,한라건설주식회사,서울특별시 서초구 우면동 67- 우면한라,0.0,한라건설주식회사,A13790001,7,0262039644,18.0,0.0,0.0,252.0,0.0,우면한라,23.0,025299644,6, ,19940504.0,0.0,252.0,6.0,15114.96,6762.0,0,0,0,0,0,0,0,0,0,0,202401,서울특별시 서초구 우면동 67-,37.4715080181034,127.025253950215
1165010300,아파트,복도식,개별난방,위탁관리,분양,서울특별시 서초구 바우뫼로 53,300.0,코오롱,서울특별시 서초구 우면동 70- 우면코오롱,1.0,코오롱,A13790002,6,0262429980,22456.8,0.0,0.0,300.0,0.0,우면코오롱,29750.0,025769980,6, ,19941010.0,6.0,300.0,6.0,15741.0,6762.0,13935167,0,0,65795,0,0,0,0,0,0,202401,서울특별시 서초구 우면동 70-,37.4724422132464,127.027550045039
1165010300,아파트,계단식,개별난방,위탁관리,분양,서울특별시 서초구 바우뫼로7길 29,330.0,(주)동양고속건설,서울특별시 서초구 우면동 59- 우면동동고,0.0,(주)동양고속건설,A13790003,5,0262896658,34062.93,0.0,0.0,0.0,330.0,우면동동고,37798.26,025726658,15, ,19950325.0,12.0,330.0,15.0,26488.44,6762.0,21121390,0,0,90105,0,0,4884,0,5954370,0,202401,서울특별시 서초구 우면동 59-,37.470705470859,127.023137695099
1165010300,아파트,계단식,중앙난방,자치관리,분양,서울특별시 서초구 바우뫼로7길 51,412.0,대림산업주식회사,서울특별시 서초구 우면동 57- 우면대림,2.0,대림산업주식회사,A13790004,6,0234622069,65110.832,412.0,0.0,0.0,0.0,우면대림,75028.0,025712069,15, ,19950330.0,14.0,412.0,15.0,53926.68,6762.0,34472590,0,120767660,136807,0,0,5162,2257,6413440,16137550,202401,서울특별시 서초구 우면동 57-,37.4733007648883,127.023016288725
1165010600,아파트,복도식,개별난방,위탁관리,분양,서울특별시 서초구 신반포로45길 23,168.0,한국구조개발,서울특별시 서초구 잠원동 42-13 잠원동대우아이빌,3.0,(주)대우,A13790604,3,0234437386,8349.66,0.0,0.0,168.0,0.0,잠원동대우아이빌,13769.0,0234437384,12, ,20010730.0,2.0,168.0,12.0,5792.58,6532.0,5611650,0,0,34464,0,0,1549,0,1940710,0,202401,서울특별시 서초구 잠원동 42-13,37.5114116735709,127.018307020078
1165010600,아파트,계단식,지역난방,위탁관리,분양,서울특별시 서초구 잠원로 202-11,288.0,키이스트 지역주택조합,서울특별시 서초구 잠원동 51- 잠원훼미리 아파트,1.0,한신공영,A13790612,3,0262899140,32370.2496,0.0,0.0,0.0,288.0,잠원훼미리 아파트,33445.42,025949140,18, ,19921125.0,9.0,288.0,18.0,24428.37,6516.0,20633760,0,57621840,81579,0,0,0,2066,35520,7768160,202401,서울특별시 서초구 잠원동 51-,37.519466599064,127.014791778965
1165010600,아파트,계단식,지역난방,자치관리,분양,서울특별시 서초구 잠원로 213-10,450.0,공무원연금관리공단,서울특별시 서초구 잠원동 49-8 한강,0.0,한신공영,A13790620,5,0266770775,45813.6,0.0,0.0,0.0,450.0,한강,48239.0,025360775,15, ,19890617.0,16.0,450.0,15.0,37803.0,6514.0,37540780,0,69232570,130914,0,19265,2650,2649,2346525,19258230,202401,서울특별시 서초구 잠원동 49-8,37.5216472677844,127.015019811489
1165010600,아파트,계단식,지역난방,위탁관리,분양,서울특별시 서초구 신반포로33길 71,150.0,한신공영(주),서울특별시 서초구 잠원동 65-8 잠원한신그린,1.0,한신공영(주),A13790701,1, ,16860.0,0.0,0.0,0.0,150.0,잠원한신그린,17968.11,025374739,15,없음,19930121.0,5.0,150.0,15.0,12733.5,6520.0,12482721,0,26748380,43139,0,0,0,1012,249890,4857600,202401,서울특별시 서초구 잠원동 65-8,37.5134945730579,127.008268905076
1165010600,아파트,혼합식,개별난방,위탁관리,분양,서울특별시 서초구 잠원로14길 54,166.0,잠원연합조합주택,서울특별시 서초구 잠원동 54-7 잠원신화,2.0,신화건설,A13790703,1,0234770905,15660.64,0.0,0.0,84.0,82.0,잠원신화,19938.0,0234770905,18, ,19971001.0,3.0,166.0,18.0,11703.46,6516.0,11667690,0,0,58808,0,0,0,0,0,0,202401,서울특별시 서초구 잠원동 54-7,37.5157621714578,127.01364475657
1165010600,아파트,계단식,지역난방,위탁관리,분양,서울특별시 서초구 신반포로33길 64,208.0,서울시지하철조합,서울특별시 서초구 잠원동 63-34 잠원한신로얄,1.0,(주)한신공영,A13790706,2,025971970,22979.86,0.0,0.0,0.0,208.0,잠원한신로얄,23733.0,025961970,13, ,19920623.0,9.0,208.0,13.0,16918.43,6519.0,14308033,0,36221680,59322,0,0,2466,1238,4312240,5385300,202401,서울특별시 서초구 잠원동 63-34,37.5133110984744,127.00868897427
1165010600,아파트,계단식,지역난방,자치관리,분양,서울특별시 서초구 잠원로12길 4,238.0,현대건설,서울특별시 서초구 잠원동 53- 잠원현대,1.0,현대건설,A13790707,2,025941522,27998.32,0.0,0.0,0.0,238.0,잠원현대,28091.99,025941779,19, ,19930423.0,8.0,238.0,19.0,20199.06,6517.0,16480350,0,34517820,70987,0,21740,2633,1922,4820070,9513900,202401,서울특별시 서초구 잠원동 53-,37.5181336260102,127.012718534053
1165010600,아파트,복도식,지역난방,위탁관리,분양,서울특별시 서초구 잠원로8길 20,242.0,한신공영(주),서울특별시 서초구 잠원동 61-2 신반포한신19차,0.0,한신공영(주),A13790709,2,025931344,26745.906,165.0,0.0,0.0,77.0,신반포한신19차,26751.527,025931344,11, ,19821231.0,4.0,242.0,11.0,23975.35,6519.0,17864780,0,41802670,0,0,0,3135,0,5590010,8886300,202401,서울특별시 서초구 잠원동 61-2,37.5138960402657,127.009717443526
1165010600,아파트,계단식,개별난방,위탁관리,분양,서울특별시 서초구 신반포로33길 66,347.0,신반포청구 연합주택조합,서울특별시 서초구 잠원동 63-2 신반포청구,2.0,청구건설,A13790713,2,025945934,34549.5328,0.0,0.0,136.0,211.0,신반포청구,40630.21,025955934,18,신반포청구.apti.co.kr/,19980124.0,10.0,347.0,18.0,26047.1,6519.0,23639410,45280,0,103849,0,0,6587,0,7376130,0,202401,서울특별시 서초구 잠원동 63-2,37.5144093716625,127.008135647711
1165010600,아파트,혼합식,지역난방,위탁관리,분양,서울특별시 서초구 잠원로 166-17,360.0,한신공영(주),서울특별시 서초구 잠원동 53-15 강변아파트,0.0,한신공영(주),A13790714,4,025969617,34909.083,0.0,0.0,0.0,360.0,강변아파트,35239.0,025965329,15, ,19870715.0,9.0,360.0,15.0,27694.8,6517.0,20759020,0,64873060,89653,0,0,3597,2612,4443970,9664400,202401,서울특별시 서초구 잠원동 53-15,37.5173927899248,127.01215814545
1165010600,아파트,혼합식,지역난방,위탁관리,분양,서울특별시 서초구 잠원로8길 3,391.0,한신공영,"서울특별시 서초구 잠원동 56-2 신반포 한신 25,26,27차 아파트",0.0,한신공영,A13790716,4,025357827,41411.689,100.0,44.0,132.0,115.0,"신반포 한신 25,26,27차 아파트",41411.689,025357828,13, ,19841108.0,8.0,391.0,13.0,34723.77,6518.0,24671630,0,72954960,92127,2026,4723,4195,2026,7811930,0,202401,서울특별시 서초구 잠원동 56-2,37.5158114001379,127.00964563859
1165010600,아파트,복도식,지역난방,자치관리,분양,서울특별시 서초구 잠원로 157,396.0,한신공영(주),서울특별시 서초구 잠원동 55-12 신반포한신16차,0.0,한신공영(주),A13790717,2,025931310,26296.996,0.0,0.0,308.0,88.0,신반포한신16차,26306.0,025931310,11, ,19830107.0,4.0,396.0,11.0,23453.73,6514.0,14707860,0,44293330,69474,0,0,2561,1117,3653550,2792500,202401,서울특별시 서초구 잠원동 55-12,37.5177902865281,127.010555575894
1165010600,아파트,혼합식,지역난방,자치관리,분양,서울특별시 서초구 잠원로 88,320.0,한신공영(주),서울특별시 서초구 잠원동 65-32 신반포7차,0.0,한신공영(주),A13790721,3,0262844861,43430.08,160.0,160.0,0.0,0.0,신반포7차,43596.531,025324861,10,신반포7차.apti.co.kr,19800430.0,11.0,320.0,10.0,39724.98,6520.0,26494820,0,95340800,82503,0,0,2406,2566,7868060,13445840,202401,서울특별시 서초구 잠원동 65-32,37.5122489378005,127.0082261259
1165010600,아파트,계단식,지역난방,자치관리,분양,서울특별시 서초구 잠원로 150,540.0,한신건설,서울특별시 서초구 잠원동 56-3 잠원한신,0.0,한신공영,A13790722,7,025950556,58033.8,0.0,0.0,0.0,540.0,잠원한신,58033.8,025320556,15, ,19920716.0,18.0,540.0,15.0,45640.8,6518.0,37538061,0,87732850,159302,0,21779,6505,4106,12274010,27920800,202401,서울특별시 서초구 잠원동 56-3,37.516336894087,127.011351130063
1165010600,아파트,혼합식,지역난방,자치관리,분양,서울특별시 서초구 잠원로14길 41,324.0,한신공영,서울특별시 서초구 잠원동 49-17 신반포한신5지구(12차),0.0,한신공영,A13790726,3,025343650,25298.688,230.0,48.0,312.0,96.0,신반포한신5지구(12차),165554.0,025943650,13, ,19811229.0,5.0,686.0,13.0,55197.0,6515.0,16407940,0,51892820,64110,0,0,0,1745,105300,10347850,202401,서울특별시 서초구 잠원동 49-17,37.5164958621287,127.014375722996
1165010600,아파트,혼합식,지역난방,자치관리,분양,서울특별시 서초구 잠원로 37-48,1212.0,한신공영,서울특별시 서초구 잠원동 70- 신반포4차,1.0,한신공영,A13790828,12,025336160,147717.324,900.0,312.0,0.0,0.0,신반포4차,147846.7,025336167,13,신반포4차.apti.co.kr/,19791025.0,21.0,1212.0,13.0,135990.05,6511.0,92353470,587910,297832340,382571,0,0,0,5311,0,19193123,202401,서울특별시 서초구 잠원동 70-,37.5100774617262,127.00618004755
1165010600,아파트,복도식,개별난방,위탁관리,분양,서울특별시 서초구 잠원로3길 6,160.0,뉴코아,서울특별시 서초구 잠원동 71-12 잠원킴스빌리지,3.0,시대종합건설(주),A13790902,1,025917590,12613.67,0.0,0.0,160.0,0.0,잠원킴스빌리지,12613.67,025917591,15, ,19961217.0,1.0,160.0,15.0,4850.69,6510.0,4936987,0,0,18339,0,0,0,0,97630,0,202401,서울특별시 서초구 잠원동 71-12,37.5107832013281,127.006501326458
1165010600,아파트,혼합식,지역난방,자치관리,분양,서울특별시 서초구 잠원로3길 8,250.0,한신공영,서울특별시 서초구 잠원동 71-11 반포한신타워,2.0,한신공영,A13790910,2,025377223,27166.3,54.0,0.0,101.0,95.0,반포한신타워,34164.0,025377119,18, ,19960805.0,6.0,250.0,18.0,20424.04,6510.0,18188480,0,38375920,64781,0,315,2528,1666,5600590,6664000,202401,서울특별시 서초구 잠원동 71-11,37.5111929064539,127.006157857534
1165010600,아파트,혼합식,지역난방,자치관리,분양,서울특별시 서초구 신반포로23길 41,1572.0,한신공영(주),서울특별시 서초구 잠원동 73- 신반포한신2차,0.0,한신공영(주),A13790929,13,025935138,163131.408,696.0,252.0,0.0,624.0,신반포한신2차,163131.408,025911869,12, ,19780630.0,25.0,1572.0,12.0,151684.2,6509.0,105489730,0,256622760,544775,0,2687800,0,18148,470870,62156900,202401,서울특별시 서초구 잠원동 73-,37.5116583511688,127.00446943136
1165010800,아파트,혼합식,지역난방,자치관리,분양,서울특별시 서초구 서초중앙로 200,2390.0,삼풍건설,서울특별시 서초구 서초동 1685- 서초삼풍,0.0,삼풍건설,A13792001,24,025991852,368534.8,726.0,614.0,0.0,1050.0,서초삼풍,368534.8,025350320,15, ,19880720.0,62.0,2390.0,15.0,279604.32,6601.0,190188453,0,467238280,745211,0,188891,30184,17049,37708920,76720500,202401,서울특별시 서초구 서초동 1685-,37.5004532195354,127.015647626899
1165010800,주상복합,계단식,개별난방,위탁관리,분양,서울특별시 서초구 효령로72길 57,257.0,세진푸드시스템,서울특별시 서초구 서초동 1344-13 서초트라팰리스1차,3.0,삼성물산,A13792306,3,025981393,54028.5189,207.0,6.0,0.0,44.0,서초트라팰리스1차,54028.53,025981344,25, ,20051118.0,9.0,257.0,25.0,29623.24,6732.0,41581160,0,2416696,201613,0,0,4488,0,5355660,0,202401,서울특별시 서초구 서초동 1344-13,37.4870103195509,127.028483359749
