bjdCode,codeAptNm,codeHallNm,codeHeatNm,codeMgrNm,codeSaleNm,address,hoCnt,kaptAcompany,kaptAddr,kaptBaseFloor,kaptBcompany,kaptCode,kaptDongCnt,kaptFax,kaptMarea,kaptMparea_135,kaptMparea_136,kaptMparea_60,kaptMparea_85,kaptName,kaptTarea,kaptTel,kaptTopFloor,kaptUrl,kaptUsedate,kaptdEcntp,kaptdaCnt,ktownFlrNo,privArea,zipcode,전기사용금액,가스사용금액,난방사용금액,전기사용량,가스사용량,난방사용량,냉수사용량,온수사용량,냉수사용금액,온수사용금액,집계날짜,cleaned_address,lat,lon
1129013600,주상복합,계단식,개별난방,자치관리,분양,서울 성북구 화랑로 76,120.0,대한토지신탁,서울특별시 성북구 하월곡동 46-73 코업스타클래스,5.0,극동건설,A10021241,2, ,40041.0,0.0,120.0,0.0,0.0,코업스타클래스,124700.0,029101000,41, ,20100702.0,,120.0,,,,0,0,0,0,0,0,0,0,0,0,202401,서울특별시 성북구 하월곡동 46-73,37.6018277386458,127.040463515854
1129012300,아파트,혼합식,개별난방,위탁관리,분양,서울 성북구 고려대로8길 27,199.0,안암2구역주택재개발정비사업,서울특별시 성북구 안암동3가 138- 해링턴플레이스안암,2.0,진흥기업,A10022341,4,029290802,17816.157,143.0,0.0,0.0,56.0,해링턴플레이스안암,30328.0,029280801,12, ,20240729.0,8.0,199.0,,,,0,0,0,0,0,0,0,0,0,0,202401,서울특별시 성북구 안암동3,37.5847203216583,127.021703372505
1129013800,아파트,복도식,개별난방,위탁관리,임대,서울 성북구 화랑로 265,145.0,아시아신탁주식회사,서울특별시 성북구 장위동 50-46 에이치하우스장위,4.0,흥화(주),A10022357,1, ,11020.8271,81.0,0.0,50.0,14.0,에이치하우스장위,15625.0,0262385600,15, ,20200309.0,3.0,145.0,,,,0,0,0,0,0,0,0,0,0,0,202401,서울특별시 성북구 장위동 50-46,37.6118095148861,127.058184736546
1129013400,,복도식,개별난방,위탁관리,혼합,서울 성북구 길음로 11,395.0,길음역세권 재정비촉진구역 주택재개발정비사업 조합,서울특별시 성북구 길음동 542-1 길음역 롯데캐슬 트윈골드,5.0,롯데건설,A10022419,2,029437680,33603.41,59.0,0.0,64.0,272.0,길음역 롯데캐슬 트윈골드,54020.0,029437688,35, ,20240429.0,6.0,395.0,,,,0,0,0,0,0,0,0,0,0,0,202401,서울특별시 성북구 길음동 542-1,37.603785604914,127.023437392228
1129013600,,계단식,개별난방,자치관리,분양,서울 성북구 종암로36길 52,198.0,하월곡지역조합,서울특별시 성북구 하월곡동 218- 하월곡아남아파트,1.0,아남건설,A10022464,1, ,21418.74,139.0,0.0,0.0,59.0,하월곡아남아파트,22424.0,029110515,20, ,19961203.0,5.0,198.0,,,,0,0,0,0,0,0,0,0,0,0,202401,서울특별시 성북구 하월곡동 218-,37.6060491353886,127.034549170818
1129013300,,복도식,개별난방,위탁관리(직영+위탁),임대,서울특별시 성북구 정릉로 104,227.0,남성개발(주),서울특별시 성북구 정릉동 1056- 이안테라디움 성북,3.0,대우산업개발(주),A10022655,2,0232960207,15120.2028,0.0,0.0,227.0,0.0,이안테라디움 성북,22062.1387,029439779,4, ,20230620.0,6.0,227.0,4.0,3920.6469,2812.0,0,0,0,0,0,0,0,0,0,0,202401,서울특별시 성북구 정릉동 1056-,37.6091267946656,126.996820489062
1129013600,도시형 생활주택(아파트),복도식,개별난방,위탁관리,분양,서울특별시 성북구 동소문로46길 18,190.0,(주)삼전건설,서울특별시 성북구 하월곡동 88-510 삼전솔하임3차,3.0,(주)삼전건설,A10023322,1,029149527,2967.8,0.0,0.0,190.0,0.0,삼전솔하임3차,7286.91,029119527,19, ,20131111.0,2.0,190.0,19.0,2961.32,2733.0,8359670,0,0,0,0,0,1119,0,1992710,0,202401,서울특별시 성북구 하월곡동 88-510,37.6068583127175,127.029938182637
1129013800,도시형 생활주택(아파트),계단식,개별난방,위탁관리,혼합,서울특별시 성북구 한천로 660-16,173.0,장위1구역주택재개발정비사업조합,서울특별시 성북구 장위동 322-22 장위지웰에스테이트,2.0,신영건설,A10023569,3,029431959,11160.19,0.0,0.0,173.0,0.0,장위지웰에스테이트,15954.035,029431958,12, ,20220831.0,6.0,173.0,12.0,6868.595,2763.0,10491380,0,0,39685,0,0,1403,0,1441960,0,202401,서울특별시 성북구 장위동 322-22,37.6178285453638,127.056186624861
1129013000,아파트,혼합식,개별난방,위탁관리,혼합,서울특별시 성북구 보문로26길 17,465.0,보문제2구역 주택재개발 정비사업,서울특별시 성북구 보문동1가 228- 보문리슈빌하우트,2.0,계룡건설,A10023669,8,029211056,36913.9585,0.0,0.0,397.0,68.0,보문리슈빌하우트,58552.84,029211055,18, ,20220330.0,13.0,465.0,18.0,28068.53,2851.0,38817050,0,0,137326,0,0,13397,0,16774860,0,202401,서울특별시 성북구 보문동1,37.5872217916518,127.019925276625
1129013400,아파트,혼합식,개별난방,위탁관리,혼합,서울특별시 성북구 숭인로8길 80,2029.0,길음1재정비촉진구역주택재개발정비사업조합,서울특별시 성북구 길음동 1289- 롯데캐슬클라시아,6.0,롯데건설,A10023926,19,029898493,186816.813,78.0,0.0,1141.0,810.0,롯데캐슬클라시아,288555.0018,029898490,37, ,20220127.0,51.0,2029.0,37.0,139561.23,2730.0,176198901,0,0,601700,0,0,31800,0,35554390,0,202401,서울특별시 성북구 길음동 1289-,37.6094762808223,127.027110004518
1129013300,,계단식,개별난방,위탁관리,분양,서울 성북구 보국문로 183,127.0,정원,서울특별시 성북구 정릉동 1024- 정릉피오레,2.0,대주건설,A10024056,2,0260800359,15507.87,127.0,0.0,0.0,0.0,정릉피오레,18294.0,029166256,15, ,20041130.0,0.0,127.0,15.0,12354.97,,0,0,0,0,0,0,0,0,0,0,202401,서울특별시 성북구 정릉동 1024-,37.6172543841758,127.000851314568
1129013300,도시형 생활주택(연립주택),복도식,개별난방,위탁관리,임대,서울특별시 성북구 정릉로10가길 6-31,166.0,sh,서울특별시 성북구 정릉동 1054- 청신호 행복주택 정릉하늘마루,2.0,대흥토건,A10024237,3,029090893,9340.7,0.0,0.0,166.0,0.0,청신호 행복주택 정릉하늘마루,9340.7,029090892,4, ,20200326.0,0.0,166.0,4.0,4042.31,2812.0,10330940,0,0,11987,0,0,694,0,1656320,0,202401,서울특별시 성북구 정릉동 1054-,37.6068882387231,127.000041110205
1129013800,아파트,계단식,개별난방,위탁관리,혼합,서울특별시 성북구 돌곶이로40길 46,1711.0,장위7구역주택재개발정비사업조합,서울특별시 성북구 장위동 189-3 꿈의숲아이파크아파트,2.0,현대산업개발,A10024488,19,029119381,163491.54,42.0,0.0,844.0,825.0,꿈의숲아이파크아파트,252664.0,029119380,29,v2admin.aptner.com,20220713.0,8.0,1711.0,29.0,118062.34,2762.0,173473266,0,0,581914,0,0,23919,0,25705050,0,202401,서울특별시 성북구 장위동 189-3,37.6198223851288,127.049660439134
1129013500,아파트,복도식,개별난방,위탁관리,임대,서울특별시 성북구 종암로9길 71,104.0,현대산업개발,서울특별시 성북구 종암동 131-1 종암sh빌아파트,2.0,현대산업개발,A10024603,1, ,4353.02,0.0,0.0,104.0,0.0,종암sh빌아파트,7063.0,029212460,1, ,20070420.0,1.0,104.0,13.0,3154.944,2810.0,0,0,0,0,0,0,0,0,0,0,202401,서울특별시 성북구 종암동 131-1,37.5963030677754,127.032512998201
1129013600,주상복합,계단식,개별난방,위탁관리,분양,서울특별시 성북구 화랑로11길 26,145.0,월곡시장재건축조합,서울특별시 성북구 하월곡동 227- 월곡갑을명가주상복합아파트,4.0,갑을건설,A10024661,2,029123784,14329.74,0.0,0.0,0.0,145.0,월곡갑을명가주상복합아파트,31267.21,029123785,15, ,20070730.0,3.0,145.0,15.0,10703.86,2751.0,0,0,0,0,0,0,0,0,0,0,202401,서울특별시 성북구 하월곡동 227-,37.603300012239,127.042108302625
1129013800,아파트,혼합식,개별난방,위탁관리,분양,서울특별시 성북구 화랑로 235,147.0,(주)우방,서울특별시 성북구 장위동 312- 장위우방아파트,2.0,(주)우방,A10024702,1,0263177254,14968.77,34.0,0.0,82.0,31.0,장위우방아파트,19633.2,029187254,18, ,20011227.0,3.0,147.0,18.0,11360.05,2772.0,0,0,0,0,0,0,0,0,0,0,202401,서울특별시 성북구 장위동 312-,37.6105429131678,127.055357426852
1129010300,아파트,계단식,,위탁관리,분양,서울특별시 성북구 아리랑로5길 50-8,141.0,현대건설직장주택조합외,서울특별시 성북구 돈암동 630- 동소문현대아파트,1.0,현대건설(주),A10025140,2,029289773,16066.22,0.0,0.0,0.0,141.0,동소문현대아파트,16504.0,029289773,15,dsmhd.aptner.com,19940718.0,5.0,141.0,15.0,11764.32,2826.0,0,0,0,0,0,0,0,0,0,0,202401,서울특별시 성북구 돈암동 630-,37.5984045659391,127.01337515266
1129013800,아파트,계단식,개별난방,위탁관리,혼합,서울특별시 성북구 한천로 713,1562.0,장위5구역주택재개발정비사업조합,서울특별시 성북구 장위동 173-114 래미안퍼스트하이,2.0,삼성물산,A10025245,16,029199076,452560.87,146.0,0.0,660.0,756.0,래미안퍼스트하이,234586.33,029199074,32,www.firsthighapt.com,20201103.0,40.0,1562.0,32.0,114593.59,2760.0,145579698,0,0,512648,0,0,21747,0,24588220,0,202401,서울특별시 성북구 장위동 173-114,37.6212990641092,127.051847478882
1129013800,도시형 생활주택(주상복합),복도식,개별난방,위탁관리,분양,서울특별시 성북구 화랑로 299,299.0,아이에스디앤씨,서울특별시 성북구 장위동 8-2 석계역 한일노벨리아시티,3.0,한일개발,A10025259,1,029428034,8901.5527,0.0,0.0,299.0,0.0,석계역 한일노벨리아시티,8901.5527,029428033,17, ,20190903.0,2.0,299.0,17.0,4466.1222,2779.0,7682590,0,0,29682,0,0,0,0,0,0,202401,서울특별시 성북구 장위동 8-2,37.6136535964229,127.060810102382
1129013900,아파트,계단식,개별난방,위탁관리,혼합,서울특별시 성북구 돌곶이로8길 22,1091.0,석관2주택재개발조합,서울특별시 성북구 석관동 410- 래미안아트리치,2.0,삼성물산(주),A10025283,14,0232955768,101671.82,43.0,0.0,704.0,344.0,래미안아트리치,167606.11,0232955766,23, ,20190228.0,2.0,1091.0,23.0,73098.17,2786.0,94863972,71410,0,343313,0,0,15245,0,19448470,0,202401,서울특별시 성북구 석관동 410-,37.606524483946,127.062261154976
1129013800,아파트,혼합식,개별난방,위탁관리,혼합,서울특별시 성북구 장월로 160,939.0,장위1구역주택재개발정비사업조합,서울특별시 성북구 장위동 144-24 래미안장위포레카운티아파트,2.0,삼성물산(주)건설부문,A10025461,10,0232922300,92370.91,27.0,0.0,356.0,556.0,래미안장위포레카운티아파트,133959.94,0232922100,29, ,20210531.0,21.0,939.0,29.0,68537.42,2763.0,80244560,0,0,303071,0,0,13032,0,16938780,0,202401,서울특별시 성북구 장위동 144-24,37.6179208113319,127.052254370153
1129013400,아파트,타워형,개별난방,위탁관리,혼합,서울특별시 성북구 숭인로 50,2352.0,길음2재정비촉진구역주택재개발정비사업조합,서울특별시 성북구 길음동 1288- 래미안길음센터피스,3.0,삼성건설,A10025638,24,029831300,209678.82,49.0,0.0,1632.0,671.0,래미안길음센터피스,312313.04,029821500,39, ,20191129.0,47.0,2352.0,39.0,150592.24,2727.0,190827540,0,0,689995,0,0,33743,0,39668260,0,202401,서울특별시 성북구 길음동 1288-,37.61198667089,127.02878397742
1129013400,아파트,계단식,개별난방,위탁관리,혼합,서울특별시 성북구 서경로 60,399.0,길음3재정비촉진구역주택재건축정비사업조합,서울특별시 성북구 길음동 1287- 길음뉴타운11단지 롯데캐슬골든힐스아파트,4.0,롯데건설주식회사,A10025753,5,029198863,40909.3201,0.0,0.0,136.0,263.0,길음뉴타운11단지 롯데캐슬골든힐스아파트,65772.0,029198862,24, ,20190507.0,16.0,399.0,24.0,30114.75,2715.0,34598524,0,0,119387,0,0,6569,0,8075820,0,202401,서울특별시 성북구 길음동 1287-,37.6099259937222,127.015458405282
1129013800,아파트,혼합식,개별난방,위탁관리,혼합,서울특별시 성북구 돌곶이로 220,513.0,장위2구역주택재개발정비사업조합,서울특별시 성북구 장위동 319- 꿈의숲코오롱하늘채아파트,3.0,코오롱글로벌(주),A10026571,5,029199380,48954.86,3.0,0.0,242.0,268.0,꿈의숲코오롱하늘채아파트,83257.39,029199378,30,www.aptner.com,20171030.0,13.0,513.0,30.0,35478.4,2757.0,42628240,0,0,159338,0,0,7140,0,8010440,0,202401,서울특별시 성북구 장위동 319-,37.6190182162561,127.046432738992
1129012800,아파트,혼합식,,위탁관리,혼합,서울특별시 성북구 보문사길 111,1186.0,보문제3구역 주택재개발정비사업조합,서울특별시 성북구 보문동6가 198-45 보문파크뷰자이아파트,7.0,GS건설,A10027189,17,029279279,102268.74,0.0,0.0,694.0,492.0,보문파크뷰자이아파트,166764.73,029279110,20, ,20170118.0,35.0,1186.0,20.0,73895.41,2874.0,76651860,0,0,326963,0,0,18124,0,-88670,0,202401,서울특별시 성북구 보문동6,37.5828731138796,127.017891118296
1129010300,아파트,혼합식,개별난방,위탁관리,혼합,서울특별시 성북구 아리랑로 75,629.0,코오롱건설,서울특별시 성북구 돈암동 644- 돈암코오롱하늘채아파트,5.0,돈암정릉구역주택재개발정비사업조합,A10027227,10,029277652,60662.9211,16.0,0.0,246.0,367.0,돈암코오롱하늘채아파트,98373.0,029277650,16,admin.aptner.com/,20161229.0,22.0,629.0,16.0,45971.603,2826.0,51350770,415740,0,193827,0,0,10506,0,11996700,0,202401,서울특별시 성북구 돈암동 644-,37.598830255568,127.013625487132
1129010300,아파트,계단식,개별난방,위탁관리,분양,서울특별시 성북구 동소문로31길 6-1,81.0,성북구청,서울특별시 성북구 돈암동 641- 대성유니드아파트,2.0,대성산업,A10027350,2,029210600,9907.73,26.0,0.0,0.0,55.0,대성유니드아파트,14148.0,029280025,14, ,20090727.0,2.0,81.0,14.0,7642.4,2829.0,0,0,0,0,0,0,0,0,0,0,202401,서울특별시 성북구 돈암동 641-,37.5972150100527,127.020706216153
1129013300,아파트,타워형,개별난방,위탁관리,혼합,서울특별시 성북구 아리랑로19가길 20,349.0,정릉10구역 주택재개발정비사업,서울특별시 성북구 정릉동 1037- 정릉꿈에그린아파트,5.0,한화건설,A10028000,8,029137813,35089.0,29.0,0.0,123.0,197.0,정릉꿈에그린아파트,55685.0,029137811,19,jndream.aptner.com,20150430.0,0.0,349.0,19.0,25759.7,2820.0,38598390,0,0,115740,0,0,4766,0,5640270,0,202401,서울특별시 성북구 정릉동 1037-,37.6018582085389,127.011110105709
1129010300,아파트,타워형,개별난방,위탁관리,혼합,서울특별시 성북구 동소문로34길 73,490.0,돈암제5구역 주택재개발정비사업조합,서울특별시 성북구 돈암동 643- 금호어울림센터힐아파트,4.0,금호건설,A10028001,6,029278903,44141.2,40.0,0.0,260.0,190.0,금호어울림센터힐아파트,66866.9,029278914,23,www.jalsalda.com,20141031.0,11.0,490.0,23.0,34301.02,2807.0,31629721,0,0,145961,0,0,7369,0,8723950,0,202401,서울특별시 성북구 돈암동 643-,37.5997974953528,127.022327743122
1129010700,아파트,혼합식,개별난방,위탁관리,분양,서울특별시 성북구 동소문로3길 101,345.0,송촌건설,서울특별시 성북구 동소문동4가 279- 동소문동송산,0.0,송촌건설,A13603401,3,029532973,28076.81,71.0,4.0,204.0,66.0,동소문동송산,34499.0,029532972,18, ,19980612.0,7.0,345.0,18.0,26078.24,2832.0,18477690,512420,0,86563,0,0,4735,0,6403340,0,202401,서울특별시 성북구 동소문동4,37.5923386003104,127.011160889042
1129010800,주상복합,계단식,개별난방,위탁관리,분양,서울특별시 성북구 보문로38길 11,236.0,돈암동일,서울특별시 성북구 동소문동5가 120- 돈암동일하이빌,5.0,동일하이빌,A13603501,2,029532269,26882.66,44.0,0.0,0.0,192.0,돈암동일하이빌,47086.58,029532260,25, ,20060428.0,4.0,236.0,25.0,21517.274,2846.0,22220680,0,0,68062,0,0,7260,0,8666350,0,202401,서울특별시 성북구 동소문동5,37.5916625438915,127.014818171378
1129010700,아파트,계단식,개별난방,위탁관리,분양,서울특별시 성북구 동소문로13길 47,409.0,동소문구역주택재개발조합,서울특별시 성북구 동소문동4가 280- 동소문한신휴플러스,3.0,한신공영,A13603701,9,029533131,43035.76,62.0,18.0,170.0,159.0,동소문한신휴플러스,61982.0,0262293131,20, ,20040705.0,14.0,409.0,20.0,33555.53,2832.0,28095198,0,0,156886,0,0,7360,0,8395170,0,202401,서울특별시 성북구 동소문동4,37.5933032041957,127.011140425117
1129011000,아파트,계단식,개별난방,위탁관리,분양,서울특별시 성북구 아리랑로5길 25,194.0,이수건설,서울특별시 성북구 동소문동7가 120- 브라운스톤동선,2.0,동선구역주택재개발조합,A13603702,4,029218307,20946.11,30.0,0.0,80.0,84.0,브라운스톤동선,30015.85,029218306,15, ,20101126.0,7.0,194.0,15.0,15382.27,2830.0,17504160,0,0,64521,0,0,3451,0,3747880,0,202401,서울특별시 성북구 동소문동7,37.5960628966291,127.014089924778
1129011300,아파트,복도식,개별난방,위탁관리,임대,서울특별시 성북구 보문로29다길 25-9,285.0,에스에이치공사,서울특별시 성북구 삼선동3가 115- 삼선1SH-VILLE,2.0,(주)성원건설,A13604301,1,027418171,10150.3,0.0,0.0,285.0,0.0,삼선1SH-VILLE,22692.83,027418170,15, ,20081114.0,3.0,285.0,15.0,10150.3,2869.0,9602910,0,0,71376,0,0,3864,0,3849120,0,202401,서울특별시 성북구 삼선동3,37.58492972344,127.013853691358
1129011400,아파트,혼합식,개별난방,자치관리,분양,서울특별시 성북구 삼선교로23길 23,437.0,코오롱,서울특별시 성북구 삼선동4가 73- 삼선코오롱아파트,2.0,코오롱,A13604401,5,0263147412,46161.6,101.0,0.0,200.0,136.0,삼선코오롱아파트,58309.0,029287214,18, ,19991102.0,11.0,437.0,18.0,35129.16,2861.0,25760300,0,0,118151,0,0,7038,0,7693880,0,202401,서울특별시 성북구 삼선동4,37.5908460068258,127.013017474713
1129010300,아파트,계단식,개별난방,위탁관리,분양,서울특별시 성북구 아리랑로5길 85,339.0,상록주택조합,서울특별시 성북구 돈암동 603- 돈암포스코더샵,3.0,포스코건설(주),A13606002,8,0264064847,35861.454,0.0,0.0,0.0,339.0,돈암포스코더샵,48965.0,0264064848,20,www.donamposco.co.kr,20060331.0,11.0,339.0,20.0,28746.489,2825.0,28483250,0,0,109877,0,0,5782,0,6669390,0,202401,서울특별시 성북구 돈암동 603-,37.5979007985409,127.009965703977
1129010300,아파트,계단식,개별난방,위탁관리,분양,서울특별시 성북구 아리랑로 89,689.0,아리랑재건축조합,서울특별시 성북구 돈암동 524- 돈암일신건영휴먼빌,3.0,일신건영,A13606003,11,029214820,85634.03,271.0,108.0,15.0,295.0,돈암일신건영휴먼빌,115090.42,029214821,20, ,20050601.0,22.0,689.0,20.0,73211.34,2826.0,66260956,0,0,242510,0,0,12429,0,11012190,0,202401,서울특별시 성북구 돈암동 524-,37.6007699096006,127.013617460956
1129010300,아파트,혼합식,중앙난방,위탁관리,분양,서울특별시 성북구 성북로4길 52,3929.0,"한신공영(주),한진중공업(주)",서울특별시 성북구 돈암동 609-1 돈암한신한진아파트,0.0,"한신공영(주), 한진중공업(주)",A13606004,30,029268474,492386.6696,1488.0,264.0,684.0,1493.0,돈암한신한진아파트,659930.0,029268472,21,한신한진.한국/,19980701.0,94.0,3929.0,21.0,387754.77,2831.0,311182546,0,658067510,1092460,0,4437,65945,19850,88525950,106335000,202401,서울특별시 성북구 돈암동 609-1,37.5944725333435,127.012706037821
1129010300,아파트,복도식,중앙난방,위탁관리,임대,서울특별시 성북구 성북로4길 52,580.0,한신공영,서울특별시 성북구 돈암동 609-1 동소문한진임대,0.0,한진,A13606005,1,029216986,24925.5,0.0,0.0,580.0,0.0,동소문한진임대,26523.4,029216985,20, ,19980701.0,0.0,580.0,20.0,18844.2,2831.0,15478518,0,20632100,82921,0,0,5327,1031,4712850,5100000,202401,서울특별시 성북구 돈암동 609-1,37.5944725333435,127.012706037821
1129013400,아파트,복도식,개별난방,위탁관리,분양,서울 성북구 길음로13길 11,132.0,현대종합건설(주),서울특별시 성북구 길음동 1277- 길음현대,1.0,현대건설,A13606006,1,029424965,11208.67,0.0,0.0,118.0,14.0,길음현대,11519.0,029424964,16, ,20001228.0,2.0,132.0,16.0,7226.82,,0,0,0,0,0,0,0,0,0,0,202401,서울특별시 성북구 길음동 1277-,37.6081357857601,127.019884420583
1129010300,아파트,혼합식,개별난방,위탁관리,분양,서울특별시 성북구 북악산로 913,460.0,주택관리조합,서울특별시 성북구 돈암동 632- 돈암풍림,3.0,풍림건설(주),A13606101,5,029283951,51898.8558,133.0,0.0,84.0,243.0,돈암풍림,65330.86,029283950,18,www.aptner.com,19990511.0,14.0,460.0,18.0,40803.53,2808.0,28928440,0,0,132898,0,0,14663,0,17529200,0,202401,서울특별시 성북구 돈암동 632-,37.5965594834138,127.022954666928
1129010300,아파트,혼합식,개별난방,위탁관리,분양,서울특별시 성북구 정릉로 402-16,499.0,범양재건축조합,서울특별시 성북구 돈암동 631- 돈암범양,3.0,범양건영(주),A13606102,5,0262232656,52509.0861,118.0,0.0,202.0,179.0,돈암범양,65563.01,0262232655,20, ,19981209.0,11.0,499.0,20.0,40840.0,2801.0,30085880,0,470660,175082,0,0,0,0,796800,0,202401,서울특별시 성북구 돈암동 631-,37.6038594798386,127.027630825882
1129010300,아파트,복도식,개별난방,위탁관리,임대,서울특별시 성북구 북악산로 898,309.0,SH공사,서울특별시 성북구 돈암동 632-1 돈암풍림임대,1.0,풍림산업(주),A13606105,1,0262216550,15322.383,0.0,0.0,309.0,0.0,돈암풍림임대,16723.0,029276550,17, ,19990511.0,4.0,309.0,17.0,9959.07,2840.0,8749175,0,0,57996,0,0,3272,0,2903020,0,202401,서울특별시 성북구 돈암동 632-1,37.5968912598128,127.022321212888
1129010300,아파트,복도식,개별난방,위탁관리,임대,서울특별시 성북구 동소문로34길 24,736.0,삼성물산(주),서울특별시 성북구 돈암동 15-2 돈암삼성임대,2.0,삼성물산(주),A13606106,2,029215116,34062.816,0.0,0.0,736.0,0.0,돈암삼성임대,39152.0,029215115,23, ,19990430.0,8.0,736.0,23.0,23912.64,2807.0,20468528,0,0,129366,0,0,7900,0,9692870,0,202401,서울특별시 성북구 돈암동 15-2,37.5989927541109,127.023139541526
1129010300,아파트,혼합식,개별난방,위탁관리,분양,서울특별시 성북구 동소문로34길 24,1278.0,돈암3-2지구 재개발조합,서울특별시 성북구 돈암동 15-1 돈암삼성,3.0,삼성물산,A13606107,7,029255568,139342.71,395.0,0.0,298.0,585.0,돈암삼성,174732.32,029214844,26, ,19990430.0,29.0,1278.0,26.0,112477.05,2807.0,81705884,0,0,368119,0,0,21943,0,24264710,0,202401,서울특별시 성북구 돈암동 15-1,37.5989927541109,127.023139541526
1129010300,아파트,계단식,개별난방,위탁관리,분양,서울특별시 성북구 북악산로 844,1074.0,정릉돈암 재건축조합,서울특별시 성북구 돈암동 636- 브라운스톤 돈암,5.0,이수건설주식회사,A13606201,16,0262298990,106528.2088,78.0,0.0,514.0,482.0,브라운스톤 돈암,523572.17,0262298989,19,https://dabrown.aptner.com/v2,20041218.0,30.0,1074.0,19.0,80428.48,2828.0,68140924,381370,0,292362,0,0,20586,0,23499880,0,202401,서울특별시 성북구 돈암동 636-,37.5973859824567,127.019322962211
1129012100,아파트,계단식,개별난방,위탁관리,분양,서울특별시 성북구 고려대로17가길 64,528.0,안암제1구역주택재개발조합,서울특별시 성북구 안암동1가 361- 안암삼성래미안,0.0,삼성건설,A13607101,12,029240705,52792.04,90.0,0.0,232.0,206.0,안암삼성래미안,54214.13,029240709,15,www.aptner.com,20050616.0,22.0,528.0,15.0,41676.1742,2843.0,35459516,0,179130,147492,0,0,8374,0,9844500,0,202401,서울특별시 성북구 안암동1,37.5892181522801,127.023206034954
1129012300,아파트,계단식,개별난방,자치관리,분양,서울특별시 성북구 안암로9길 30,204.0,삼익주택,서울특별시 성북구 안암동3가 135- 안암삼익,1.0,삼익건설,A13607301,3,029283210,29563.52,108.0,96.0,0.0,0.0,안암삼익,29563.52,029288786,12, ,19830614.0,9.0,204.0,12.0,28159.92,2858.0,14012986,0,0,86188,0,0,0,0,0,0,202401,서울특별시 성북구 안암동3,37.5818354006171,127.024613701527
1129012300,아파트,계단식,개별난방,자치관리,분양,서울특별시 성북구 안암로9나길 14,355.0,오진개발,서울특별시 성북구 안암동3가 136-1 안암대광,0.0,오진개발,A13607302,7,029255481,21583.65,1.0,0.0,288.0,57.0,안암대광,21534.0,029260776,7,공동주택 통합정보마당,19711209.0,,346.0,7.0,18143.51,2858.0,13893060,0,0,72342,0,0,3765,0,4622920,0,202401,서울특별시 성북구 안암동3,37.5822774263709,127.024621772028
1129013200,아파트,혼합식,개별난방,위탁관리,분양,서울특별시 성북구 지봉로21길 19,431.0,재개발조합,서울특별시 성북구 보문동3가 2- 보문아이파크,2.0,현대산업개발,A13608301,8,029220635,43424.64,60.0,0.0,176.0,195.0,보문아이파크,59904.0,029220634,15,보문아이파크.apti.co.kr,20030830.0,10.0,431.0,15.0,33819.65,2870.0,23918670,380430,0,115436,0,0,7421,0,8536830,0,202401,서울특별시 성북구 보문동3,37.5856690827857,127.015959024256
1129012600,주상복합,계단식,개별난방,위탁관리,분양,서울특별시 성북구 고려대로2길 37,162.0,보문시장정비사업조합,서울특별시 성북구 보문동4가 116- 보문하우스토리주상복합,4.0,(주)남광토건,A13608401,2,029256885,27539.908,56.0,0.0,12.0,94.0,보문하우스토리주상복합,27540.0,029216885,15, ,20110805.0,6.0,162.0,15.0,15010.746,2852.0,18367130,0,0,57063,0,0,0,0,0,0,202401,서울특별시 성북구 보문동4,37.5843732316748,127.020855841499
1129012800,아파트,계단식,개별난방,위탁관리,분양,서울특별시 성북구 보문사길 112,218.0,호웅건설,서울특별시 성북구 보문동6가 36-2 보문아남,1.0,아남건설,A13608601,3,029218861,24297.05,0.0,0.0,0.0,218.0,보문아남,25715.75,029532617,15, ,19941010.0,8.0,218.0,15.0,18302.8,2874.0,13280440,0,0,65321,0,0,3459,0,4183250,0,202401,서울특별시 성북구 보문동6,37.5809304355196,127.017598340238
1129013500,주상복합,계단식,개별난방,위탁관리,분양,서울특별시 성북구 종암로 132,161.0,종암시장 재건축조합,서울특별시 성북구 종암동 132- 종암우림카이저팰리스,3.0,우림건설,A13609001,2,029425757,18220.52,0.0,0.0,0.0,161.0,종암우림카이저팰리스,24557.89,029429371,25, ,20080501.0,5.0,161.0,25.0,13655.94,2797.0,13889260,0,0,50702,0,0,3081,0,3568120,0,202401,서울특별시 성북구 종암동 132-,37.6019197443065,127.03351787574
1129013300,아파트,혼합식,개별난방,위탁관리,분양,서울특별시 성북구 북악산로 746,196.0,우방건설,서울특별시 성북구 정릉동 1016- 정릉우방아파트,3.0,우방건설,A13610001,1,029185732,20549.15,17.0,0.0,84.0,95.0,정릉우방아파트,27327.0,029191172,18, ,19990728.0,5.0,196.0,18.0,15040.87,2826.0,13370760,0,0,53700,0,0,6248,0,7232820,0,202401,서울특별시 성북구 정릉동 1016-,37.6003459960765,127.009987319491
1129013300,아파트,계단식,개별난방,위탁관리,분양,서울특별시 성북구 북악산로 831,222.0,프리모,서울특별시 성북구 정릉동 1030- 정릉힐스테이트1차아파트,4.0,현대건설,A13610003,3,029199281,24603.898,0.0,0.0,0.0,222.0,정릉힐스테이트1차아파트,34660.096,029199280,20, ,20070518.0,7.0,222.0,20.0,18789.858,2818.0,21368120,0,0,72435,0,0,4612,0,5812770,0,202401,서울특별시 성북구 정릉동 1030-,37.600019073642,127.01735800871
1129013300,아파트,복도식,개별난방,자치관리,분양,서울특별시 성북구 보국문로 167,264.0,광산건설,서울특별시 성북구 정릉동 780- 정릉산장,1.0,광산건설,A13610004,2,029113610,18295.2,0.0,0.0,220.0,44.0,정릉산장,20146.94,029113610,11, ,19771229.0,4.0,264.0,11.0,14781.8,2704.0,18662720,0,0,56435,0,0,0,0,0,0,202401,서울특별시 성북구 정릉동 780-,37.6166861195907,127.001842160026
1129013300,아파트,계단식,개별난방,위탁관리,분양,서울특별시 성북구 보국문로 116,522.0,현대힐스테이트,서울특별시 성북구 정릉동 1031- 정릉힐스테이트3차,0.0,현대힐스테이트,A13610005,19,029431281,55613.04,100.0,0.0,222.0,200.0,정릉힐스테이트3차,81104.0,029191220,10, ,20080609.0,29.0,522.0,10.0,41787.56,2702.0,35583432,481860,0,204007,462,0,10017,0,11563490,0,202401,서울특별시 성북구 정릉동 1031-,37.615141948923,127.007701936255
1129013300,아파트,혼합식,개별난방,위탁관리,분양,서울특별시 성북구 솔샘로25길 28,1971.0,풍림산업,서울특별시 성북구 정릉동 239- 정릉풍림아이원,4.0,정릉제4구역재개발조합,A13610007,28,029195543,205962.0,456.0,0.0,827.0,688.0,정릉풍림아이원,280645.55,029195547,20,정릉풍림.apti.co.kr,20051228.0,50.0,1971.0,20.0,159726.42,2702.0,134834857,0,0,570472,0,0,34740,0,37648020,0,202401,서울특별시 성북구 정릉동 239-,37.6185773729869,127.006961851299
1129013300,아파트,계단식,개별난방,위탁관리,혼합,서울특별시 성북구 정릉로 307,236.0,정릉1동제일주택재건축정비사업조합,서울특별시 성북구 정릉동 1034- 길음뉴타운10단지,4.0,라온건설,A13610102,3,029144150,28130.6,52.0,0.0,0.0,184.0,길음뉴타운10단지,48073.0,029144149,26,http://raonuapt.co.kr/,20081008.0,0.0,236.0,26.0,21292.04,2719.0,23892430,0,0,83907,0,0,4691,0,5084150,0,202401,서울특별시 성북구 정릉동 1034-,37.6032285064084,127.017866208389
1129013300,아파트,계단식,개별난방,위탁관리,분양,서울특별시 성북구 정릉로 292,355.0,현대건설,서울특별시 성북구 정릉동 1025- 정릉힐스테이트,2.0,현대건설,A13610103,7,029095508,38816.5302,0.0,0.0,41.0,314.0,정릉힐스테이트,38939.78,029095556,25, ,20041223.0,8.0,355.0,25.0,29122.42,2815.0,23973236,0,0,140896,0,0,6479,0,7586270,0,202401,서울특별시 성북구 정릉동 1025-,37.603010288164,127.015969296225
1129013300,아파트,혼합식,개별난방,위탁관리,분양,서울특별시 성북구 정릉로 305,860.0,정릉A지구 재건축조합,서울특별시 성북구 정릉동 1015- 길음뉴타운 경남아너스빌,2.0,경남기업(주),A13610107,8,029135900,87264.672,192.0,0.0,398.0,270.0,길음뉴타운 경남아너스빌,105950.0,029132030,22, ,19990619.0,18.0,860.0,22.0,67321.99,2719.0,51562252,0,0,224133,0,0,0,0,0,0,202401,서울특별시 성북구 정릉동 1015-,37.6048471448085,127.017803289788
1129013300,아파트,계단식,개별난방,위탁관리,분양,서울특별시 성북구 아리랑로19길 86,169.0,대한주택보증,서울특별시 성북구 정릉동 1032- 정릉2차대주피오레,2.0,대주건설,A13610201,4,029138663,17057.24,0.0,0.0,37.0,132.0,정릉2차대주피오레,20962.78,029138661,12, ,20080530.0,10.0,169.0,12.0,13436.6397,2813.0,11364500,0,8540,50556,0,0,3194,0,3747470,0,202401,서울특별시 성북구 정릉동 1032-,37.6018800470328,127.008529399203
1129013300,아파트,계단식,개별난방,위탁관리,분양,서울특별시 성북구 보국문로 19,403.0,정릉제2구역주택재개발조합,서울특별시 성북구 정릉동 406- 정릉푸르지오,2.0,대우건설,A13610202,7,0262211253,40027.6,75.0,0.0,180.0,148.0,정릉푸르지오,57043.06,0262211252,20,정릉푸르지오.apti.co.kr/,20051128.0,12.0,403.0,20.0,31979.87,2710.0,25460188,685570,0,115589,0,0,6709,0,7738220,0,202401,서울특별시 성북구 정릉동 406-,37.60675665644,127.009694516589
1129013300,아파트,혼합식,개별난방,위탁관리,분양,서울특별시 성북구 정릉로21길 21,271.0,성원,서울특별시 성북구 정릉동 1019- 정릉성원,2.0,성원건설,A13610301,2,029180154,27965.623,36.0,0.0,126.0,109.0,정릉성원,36324.77,029180145,19, ,20000117.0,0.0,271.0,19.0,20946.9,2710.0,17329690,0,0,74283,0,0,8746,0,9611150,0,202401,서울특별시 성북구 정릉동 1019-,37.606431360375,127.007784277192
1129013400,아파트,복도식,개별난방,위탁관리,임대,서울특별시 성북구 길음로 118,276.0,sh공사,서울특별시 성북구 길음동 1281-1 길음뉴타운4단지임대,2.0,대림산업(주),A13611001,1,029144007,8321.4,0.0,0.0,276.0,0.0,길음뉴타운4단지임대,19288.79,029144003,15, ,20050420.0,3.0,276.0,15.0,8321.4,2723.0,6553859,0,0,43596,0,0,2339,0,1977450,0,202401,서울특별시 성북구 길음동 1281-1,37.6113247609887,127.020849661284
1129013400,아파트,복도식,개별난방,위탁관리,임대,서울특별시 성북구 숭인로2길 61,300.0,SH공사,서울특별시 성북구 길음동 1278-1 길음동부제2,3.0,동부건설,A13611002,2,029826641,14876.04,0.0,0.0,300.0,0.0,길음동부제2,22732.99,029826640,20, ,20030331.0,0.0,300.0,20.0,10464.9,2726.0,10297994,218280,0,54802,0,0,2937,0,2992460,0,202401,서울특별시 성북구 길음동 1278-1,37.6093534067567,127.024973857612
1129013400,아파트,혼합식,개별난방,위탁관리,분양,서울특별시 성북구 동소문로 248,684.0,돈암 제 2-1 구역 재개발 조합,서울특별시 성북구 길음동 1276- 길음삼부,2.0,삼부토건,A13611004,6,029199665,53526.93,171.0,0.0,363.0,150.0,길음삼부,82701.0,029435369,15, ,19980202.0,17.0,684.0,15.0,53496.93,2735.0,34238160,0,0,171454,0,0,0,0,0,0,202401,서울특별시 성북구 길음동 1276-,37.6034576002933,127.024541211803
1129013400,아파트,계단식,개별난방,위탁관리,분양,서울특별시 성북구 길음로 16,977.0,길음6구역 재개발 조합,서울특별시 성북구 길음동 1283- 길음래미안3차,3.0,삼성물산,A13611005,12,029152676,99653.281,186.0,0.0,299.0,492.0,길음래미안3차,149605.88,029152673,20, ,20070724.0,27.0,977.0,20.0,80164.671,2725.0,66292576,0,0,285131,0,0,16329,0,17807950,0,202401,서울특별시 성북구 길음동 1283-,37.6071180410239,127.023262558082
1129013400,아파트,혼합식,개별난방,위탁관리,분양,서울특별시 성북구 길음로 118,1605.0,길음4구역 재개발,서울특별시 성북구 길음동 1281- 이편한세상 길음뉴타운4단지,3.0,대림산업,A13611006,25,029125590,170104.47,316.0,0.0,497.0,792.0,이편한세상 길음뉴타운4단지,237075.0,029125597,19,길음뉴타운대림.apti.co.kr,20050420.0,46.0,1605.0,19.0,132178.19,2723.0,122808515,0,0,500869,0,0,30166,0,33980070,0,202401,서울특별시 성북구 길음동 1281-,37.6113247609887,127.020849661284
1129013400,아파트,혼합식,개별난방,위탁관리,분양,서울특별시 성북구 길음로 119,2068.0,길음2구역 주택재개발조합,"서울특별시 성북구 길음동 1280- 길음뉴타운푸르지오아파트2,3단지",6.0,(주)대우건설,A13611007,34,029127285,226412.17,394.0,36.0,488.0,1150.0,"길음뉴타운푸르지오아파트2,3단지",322729.0,029127283,18,gnprugio.aptner.com/v2,20050420.0,57.0,2068.0,18.0,177326.04,2714.0,166272420,0,0,651146,0,0,36928,0,46560050,0,202401,서울특별시 성북구 길음동 1280-,37.6104990797943,127.016372618933
1129013400,아파트,계단식,개별난방,위탁관리,분양,서울특별시 성북구 길음로 33,1497.0,길음8구역주택재개발정비사업조합,서울특별시 성북구 길음동 1284- 길음뉴타운8단지,3.0,삼성물산 주식회사,A13611008,24,0262155919,160844.16,245.0,0.0,541.0,711.0,길음뉴타운8단지,239660.11,029095917,26,길음래미안8단지.apti.co.kr,20100630.0,53.0,1497.0,26.0,120961.51,2720.0,136601835,0,0,524188,18982,0,25863,0,31631210,0,202401,서울특별시 성북구 길음동 1284-,37.6050832927232,127.022078590713
1129013400,아파트,복도식,개별난방,위탁관리,임대,서울특별시 성북구 길음로 74,90.0,SH공사,서울특별시 성북구 길음동 1282-1 길음SHVILLE,4.0,(주)한양,A13611009,1,029154356,4108.5,0.0,0.0,90.0,0.0,길음SHVILLE,9395.244,029154355,16,http://www.i-sh.co.kr/(우리아파트찾기:길음sh빌 클릭),20080204.0,1.0,90.0,16.0,2778.84,2724.0,2506850,0,0,20385,0,0,751,0,682290,0,202401,서울특별시 성북구 길음동 1282-1,37.6092896639058,127.021033925155
1129013400,아파트,복도식,개별난방,위탁관리,임대,서울특별시 성북구 길음로 33,120.0,삼성물산,서울특별시 성북구 길음동 1284-9 길음뉴타운8단지제2,2.0,삼성물산,A13611010,1,029123928,6285.6,0.0,0.0,120.0,0.0,길음뉴타운8단지제2,10274.4,029123927,14, ,20100630.0,2.0,120.0,14.0,4078.8,2720.0,4754080,0,0,21951,0,0,1127,0,1088200,0,202401,서울특별시 성북구 길음동 1284-9,37.6050832927232,127.022078590713
1129013400,아파트,계단식,개별난방,위탁관리,분양,서울특별시 성북구 길음로9길 50,1012.0,삼성물산,서울특별시 성북구 길음동 1286- 래미안길음뉴타운9단지,3.0,재개발조합,A13611011,15,029125012,111495.68,250.0,0.0,278.0,484.0,래미안길음뉴타운9단지,166587.42,029125002,29, ,20100930.0,20.0,1012.0,29.0,87251.6,2721.0,98612532,0,0,363098,0,0,17084,0,18073030,0,202401,서울특별시 성북구 길음동 1286-,37.6026965054255,127.020948040998
1129013400,아파트,복도식,개별난방,위탁관리,임대,서울특별시 성북구 길음로13길 22,99.0,두산건설,서울특별시 성북구 길음동 1285-5 길음뉴타운7단지제2,2.0,두산건설,A13611012,1,029123928,4876.74,0.0,0.0,99.0,0.0,길음뉴타운7단지제2,8287.29,029145841,13, ,20100728.0,2.0,99.0,13.0,3203.64,2715.0,2922640,0,0,15924,0,0,967,0,836600,0,202401,서울특별시 성북구 길음동 1285-5,37.6094417730405,127.019323702394
1129013400,아파트,복도식,개별난방,위탁관리,임대,서울특별시 성북구 길음로13길 39,282.0,sh공사,서울특별시 성북구 길음동 1280-3 길음뉴타운3단지임대,2.0,대우건설(주),A13611102,2,029143491,8632.02,0.0,0.0,282.0,0.0,길음뉴타운3단지임대,23125.0,029143133,16, ,20050420.0,4.0,282.0,16.0,8632.02,2715.0,7566576,0,0,47897,0,0,3034,0,2334660,0,202401,서울특별시 성북구 길음동 1280-3,37.6100441909211,127.01622347427
1129013400,아파트,계단식,개별난방,위탁관리,분양,서울특별시 성북구 길음로9길 40,1125.0,길음1구역 재개발주택조합,서울특별시 성북구 길음동 1279- 래미안길음1차,3.0,삼성물산,A13611103,15,029432582,109096.06,224.0,0.0,452.0,449.0,래미안길음1차,155243.1,029432581,20, ,20030129.0,0.0,1125.0,20.0,91018.04,2721.0,69585160,0,0,303999,0,0,19773,0,22330090,0,202401,서울특별시 성북구 길음동 1279-,37.6058494237909,127.020985165043
1129013400,아파트,계단식,개별난방,위탁관리,분양,서울특별시 성북구 길음로 74,560.0,삼성물산,서울특별시 성북구 길음동 1282- 래미안길음2차아파트,2.0,삼성물산,A13611201,11,029131794,58690.72,107.0,0.0,201.0,252.0,래미안길음2차아파트,90156.75,029131793,20, ,20060623.0,16.0,560.0,20.0,45717.18,2724.0,43746020,0,0,163567,0,0,10124,0,10649840,0,202401,서울특별시 성북구 길음동 1282-,37.6092896639058,127.021033925155
1129013400,아파트,계단식,개별난방,위탁관리,분양,서울특별시 성북구 숭인로2길 61,1377.0,길음3구역재개발주택조합,서울특별시 성북구 길음동 1278- 길음동부센트레빌,4.0,동부건설(주),A13611202,18,029820194,152117.12,333.0,0.0,373.0,671.0,길음동부센트레빌,200377.205,029820193,23,www.gilumdongbuapt.kr,20030331.0,34.0,1377.0,23.0,117575.274,2726.0,90329616,0,0,406583,0,0,24773,0,29503350,0,202401,서울특별시 성북구 길음동 1278-,37.6093534067567,127.024973857612
1129013700,아파트,계단식,개별난방,자치관리,분양,서울특별시 성북구 화랑로15길 4,225.0,우남주택,서울특별시 성북구 상월곡동 55-56 상월곡우남,2.0,우남주택,A13612001,2,029166557,25709.0916,32.0,24.0,95.0,74.0,상월곡우남,31232.85,029166555,18, ,19941224.0,7.0,225.0,18.0,19308.82,2752.0,13889550,0,378120,63290,0,0,0,0,0,0,202401,서울특별시 성북구 상월곡동 55-56,37.6057401806843,127.046617121577
1129013700,아파트,혼합식,개별난방,위탁관리,분양,서울특별시 성북구 장월로1길 28,1253.0,상월곡재개발조합,서울특별시 성북구 상월곡동 101- 성북동아에코빌,4.0,(주)동아건설,A13612002,15,0262252361,136403.89,306.0,0.0,511.0,436.0,성북동아에코빌,164588.0,029182361,23,daechovill.aptner.com,20030627.0,0.0,1253.0,23.0,102767.33,2753.0,78699449,0,0,506035,0,0,547105,0,27143870,0,202401,서울특별시 성북구 상월곡동 101-,37.6087724936926,127.045611958623
1129013600,아파트,계단식,개별난방,자치관리,분양,서울특별시 성북구 종암로36길 52,198.0,하월곡동 지역조합,서울특별시 성북구 하월곡동 218- 하월곡아남,1.0,아남건설,A13613001,1,029190516,21418.74,0.0,0.0,59.0,139.0,하월곡아남,22465.65,029110515,20, ,19961203.0,5.0,198.0,20.0,15307.67,2739.0,14826340,0,0,56076,0,0,0,0,0,0,202401,서울특별시 성북구 하월곡동 218-,37.6060491353886,127.034549170818
1129013600,아파트,복도식,개별난방,위탁관리,임대,서울특별시 성북구 회기로5길 142,209.0,sh공사,서울특별시 성북구 하월곡동 226-1 월곡2SHville임대,2.0,성원건설,A13613002,1,029160891,9672.729,0.0,0.0,209.0,0.0,월곡2SHville임대,15495.51,029160890,16,www.i.co.kr-happy-intro.do,20081016.0,3.0,209.0,16.0,6936.71,2794.0,6866140,0,0,0,0,0,0,0,2432090,0,202401,서울특별시 성북구 하월곡동 226-1,37.5975081254608,127.041736791664
1129013600,아파트,복도식,개별난방,위탁관리,임대,서울특별시 성북구 오패산로 90,288.0, ,서울특별시 성북구 하월곡동 225-1 월곡3SH-vill,2.0, ,A13613003,1,029143832,13701.6,0.0,0.0,288.0,0.0,월곡3SH-vill,19896.49,029143831,18,www.happy.i-sh.co.kr,20080625.0,3.0,288.0,18.0,9603.936,2741.0,9092551,0,0,55961,0,0,3047,0,3158630,0,202401,서울특별시 성북구 하월곡동 225-1,37.6099470914336,127.036913604861
1129013600,주상복합,계단식,개별난방,위탁관리,분양,서울특별시 성북구 동소문로44길 43,285.0,현대건설,서울특별시 성북구 하월곡동 88-64 성북힐스테이트,5.0,아키데코,A13613004,2,029146034,32635.44,85.0,0.0,0.0,200.0,성북힐스테이트,52069.97,029146033,24, ,20070830.0,9.0,285.0,24.0,25844.89,2733.0,38302696,0,0,93453,0,0,5584,0,6964040,0,202401,서울특별시 성북구 하월곡동 88-64,37.6065464581192,127.030377017476
1129013600,아파트,혼합식,개별난방,자치관리,분양,서울특별시 성북구 오패산로3길 17,746.0,동신건설,서울특별시 성북구 하월곡동 219- 하월곡동신,2.0,조합,A13613005,5,029421091,72866.1003,83.0,0.0,380.0,283.0,하월곡동신,89138.92,029439705,24, ,19980701.0,13.0,746.0,24.0,56282.6,2740.0,43728820,0,0,198903,0,0,11674,0,14224730,0,202401,서울특별시 성북구 하월곡동 219-,37.6045938575122,127.034545326817
1129013600,아파트,계단식,개별난방,위탁관리,분양,서울특별시 성북구 월곡로14길 26,787.0,월곡2구역주택재개발정비사업조합,서울특별시 성북구 하월곡동 226- 월곡래미안루나밸리,2.0,삼성물산,A13613006,11,029429177,119100.02,199.0,0.0,272.0,316.0,월곡래미안루나밸리,119106.41,029426977,23,cafe.daum.net/luna787,20071023.0,19.0,787.0,23.0,66007.71,2794.0,54341694,0,0,310219,0,0,13824,0,16323010,0,202401,서울특별시 성북구 하월곡동 226-,37.6002340166717,127.042651944006
1129013600,아파트,계단식,개별난방,위탁관리,분양,서울특별시 성북구 오패산로 90,1372.0,삼성물산(주),서울특별시 성북구 하월곡동 225- 래미안월곡,0.0,삼성물산(주)건설부문,A13613007,26,029171539,112636.3354,198.0,0.0,378.0,796.0,래미안월곡,208107.693,029171508,20, ,20060719.0,37.0,1372.0,20.0,112626.1,2741.0,90020328,0,0,400028,0,0,26355,0,30423910,0,202401,서울특별시 성북구 하월곡동 225-,37.6099470914336,127.036913604861
1129013600,아파트,계단식,개별난방,위탁관리,분양,서울특별시 성북구 오패산로 46,2197.0,월곡구역 주택 재개발조합,서울특별시 성북구 하월곡동 222- 월곡두산위브아파트,0.0,두산건설,A13613008,30,0262295754,236319.41,513.0,0.0,624.0,1060.0,월곡두산위브아파트,368906.0,0262295755,20,wgweve.aptner.com,20030430.0,67.0,2197.0,20.0,186129.832,2750.0,146929653,0,0,688431,0,0,41730,0,45676500,0,202401,서울특별시 성북구 하월곡동 222-,37.6074738406161,127.038709467417
1129013600,아파트,계단식,개별난방,위탁관리,분양,서울특별시 성북구 오패산로16가길 40,714.0,월곡제1구역 주택재개발정비조합,서울특별시 성북구 하월곡동 228- 꿈의숲푸르지오,2.0,(주)대우건설,A13613009,15,029429981,64480.98,50.0,0.0,490.0,174.0,꿈의숲푸르지오,96816.0,029429980,14,꿈의숲푸르지오.apti.co.kr,20100429.0,31.0,714.0,14.0,49702.02,2749.0,56064800,0,0,229242,0,0,13281,0,16110170,0,202401,서울특별시 성북구 하월곡동 228-,37.6099055249615,127.038697476749
1129013600,아파트,복도식,개별난방,위탁관리,임대,서울특별시 성북구 오패산로 46,458.0,SH공사,서울특별시 성북구 하월곡동 222-1 월곡두산제2아파트임대,3.0,두산건설,A13613010,4,029428561,21196.698,0.0,0.0,458.0,0.0,월곡두산제2아파트임대,36835.88,029428560,16,happy.i-sh.co.kr/main.do?deptid=70192,20030430.0,6.0,458.0,16.0,13766.106,2750.0,16207120,0,0,0,0,0,0,0,5398750,0,202401,서울특별시 성북구 하월곡동 222-1,37.6074738406161,127.038709467417
1129013600,주상복합,계단식,개별난방,자치관리,분양,서울특별시 성북구 종암로 167,440.0,생보부동산신탁,서울특별시 성북구 하월곡동 230- 동일하이빌뉴시티,7.0,동일토건,A13613011,4,029179095,75686.81,307.0,106.0,0.0,27.0,동일하이빌뉴시티,110629.38,029179091,36, ,20111130.0,8.0,440.0,36.0,61598.83,2734.0,54831315,0,0,255367,0,0,9408,0,13103660,12831850,202401,서울특별시 성북구 하월곡동 230-,37.6050587642973,127.030990445726
1129013600,주상복합,혼합식,개별난방,위탁관리,분양,서울특별시 성북구 동소문로 284,198.0,미아시장재건축정비사업조합,서울특별시 성북구 하월곡동 229- 길음서희스타힐스,6.0,서희건설,A13613012,1,029432101,30564.1,0.0,0.0,0.0,198.0,길음서희스타힐스,40086.0,029432100,23, ,20110624.0,7.0,198.0,23.0,16083.78,2734.0,14218564,0,0,64911,0,0,3816,0,4292900,0,202401,서울특별시 성북구 하월곡동 229-,37.6053843875046,127.027321427492
1129013600,아파트,계단식,개별난방,위탁관리,분양,서울특별시 동대문구 회기로5길 100,352.0,도시개발공사,서울특별시 성북구 하월곡동 224- 하월곡샹그레빌,2.0,삼호,A13613201,4,029189836,50736.05,0.0,0.0,0.0,352.0,하월곡샹그레빌,51371.175,029191049,22, ,20040707.0,10.0,352.0,22.0,28032.792,2455.0,23498813,0,0,108762,0,0,0,0,0,0,202401,서울특별시 성북구 하월곡동 224-,37.5952675232816,127.041014128752
1129013800,아파트,계단식,개별난방,위탁관리,분양,서울특별시 성북구 월계로36길 27,611.0,대명수안,서울특별시 성북구 장위동 317- 꿈의숲대명루첸,2.0,대명종합건설,A13614001,9,029420280,67923.68,139.0,0.0,124.0,348.0,꿈의숲대명루첸,67924.469,029420202,21,www.dreamluceen.com,20081226.0,18.0,611.0,21.0,52852.085,2757.0,56246151,0,0,209152,0,0,11810,0,14159640,0,202401,서울특별시 성북구 장위동 317-,37.6214422751024,127.046326750213
1129013800,아파트,혼합식,개별난방,위탁관리,임대,서울특별시 성북구 한천로101길 54,254.0,sh공사,서울특별시 성북구 장위동 316-2 장월SH-VILLE1단지,2.0,울트라,A13614301,3,029131285,11251.1,0.0,0.0,254.0,0.0,장월SH-VILLE1단지,23797.464,029131284,15, ,20060418.0,5.0,254.0,15.0,11251.1,2758.0,10722435,0,4310,55671,0,0,3781,0,3135760,0,202401,서울특별시 성북구 장위동 316-2,37.6227404118122,127.047698413283
1129013800,아파트,계단식,개별난방,위탁관리,분양,서울특별시 성북구 한천로101길 18,373.0,sh공사,서울특별시 성북구 장위동 316-5 장위참누리,0.0,울트라건설,A13614302,7,029420564,37772.0,0.0,0.0,69.0,304.0,장위참누리,54061.52,029420577,15,장위참누리.apti.co.kr,20060418.0,13.0,373.0,15.0,29968.36,2759.0,25591946,0,0,0,0,0,0,0,8144180,0,202401,서울특별시 성북구 장위동 316-5,37.6227658827301,127.049298670061
1129013900,아파트,혼합식,개별난방,위탁관리,분양,서울특별시 성북구 한천로 509,453.0,석관동A지구재건축조합,서울특별시 성북구 석관동 405- 석관코오롱,2.0,코오롱건설,A13615002,6,0264370649,49248.45,113.0,0.0,182.0,158.0,석관코오롱,62526.36,029690474,20, ,19990612.0,10.0,453.0,20.0,37254.36,2786.0,26959880,411520,0,121557,0,0,7690,0,7970790,0,202401,서울특별시 성북구 석관동 405-,37.6069861597956,127.06573416693
1129013900,아파트,혼합식,개별난방,위탁관리,분양,서울특별시 성북구 화랑로48길 16,1998.0,두산건설,서울특별시 성북구 석관동 10- 석관두산,0.0,두산건설,A13615003,25,029644159,216132.745,296.0,50.0,824.0,828.0,석관두산,266376.3,029644154,25,www.sdsapt.com,19980418.0,41.0,1998.0,25.0,167184.47,2780.0,116948180,0,0,554140,0,0,30855,0,40573830,0,202401,서울특별시 성북구 석관동 10-,37.6137628900183,127.068994592059
1129011300,아파트,계단식,개별난방,위탁관리,분양,서울특별시 성북구 삼선교로16길 35,430.0,삼선1구역주택재건축조합,서울특별시 성북구 삼선동3가 116- 삼선SKView,3.0,SK건설,A13670801,7,0236757627,48780.61,109.0,5.0,88.0,228.0,삼선SKView,76810.93,0236757626,15, ,20120430.0,16.0,430.0,15.0,38615.33,2863.0,34300295,0,0,146280,0,0,8151,0,9235140,0,202401,서울특별시 성북구 삼선동3,37.588018425539,127.012141205028
1129013500,아파트,혼합식,개별난방,위탁관리,분양,서울특별시 성북구 종암로5길 26,238.0,-,서울특별시 성북구 종암동 34-3 종암선경아파트,2.0,선경건설,A13671203,2,029230364,22236.84,0.0,0.0,86.0,152.0,종암선경아파트,25065.0,029230472,21, ,19960919.0,6.0,238.0,21.0,16584.4,2811.0,11977170,0,0,54110,0,0,3338,0,4150430,0,202401,서울특별시 성북구 종암동 34-3,37.5947989148489,127.033927642072
1129013500,아파트,계단식,개별난방,위탁관리,분양,서울특별시 성북구 종암로9길 71,782.0,현대산업개발(주),서울특별시 성북구 종암동 131- 종암2차아이파크,2.0,현대산업개발(주),A13671204,15,029291337,78755.24,108.0,0.0,255.0,419.0,종암2차아이파크,117514.438,029230550,20, ,20050930.0,25.0,782.0,20.0,63101.829,2810.0,52013860,0,0,301743,0,0,12898,0,14720730,0,202401,서울특별시 성북구 종암동 131-,37.5963030677754,127.032512998201
1129013500,아파트,혼합식,개별난방,위탁관리,분양,서울특별시 성북구 종암로24가길 53,1318.0,종암구역주택개량재개발,서울특별시 성북구 종암동 104-1 종암SK,2.0,SK건설,A13671205,6,029411717,144121.95,356.0,0.0,438.0,524.0,종암SK,144121.95,029424271,27,종암sk.apti.co.kr,19990407.0,21.0,1318.0,27.0,111292.4,2798.0,80908536,0,0,384839,0,0,23207,0,26749850,0,202401,서울특별시 성북구 종암동 104-1,37.6008411734995,127.037964181836
1129013500,아파트,계단식,개별난방,위탁관리,분양,서울특별시 성북구 종암로21길 127,513.0,종암1동재개발조합,서울특별시 성북구 종암동 130- 종암아이파크1차,3.0,현대산업개발,A13671206,7,029266800,51945.05,76.0,0.0,217.0,220.0,종암아이파크1차,75689.66,029277733,20, ,20040924.0,15.0,513.0,20.0,40221.85,2802.0,34104440,0,0,141484,0,0,9894,0,11821240,0,202401,서울특별시 성북구 종암동 130-,37.6028103185897,127.029324017807
1129013500,아파트,혼합식,개별난방,위탁관리,분양,서울특별시 성북구 북악산로29길 67,297.0,극동건설,서울특별시 성북구 종암동 128- 종암극동아파트,0.0,극동건설,A13671207,2,029261996,30664.99,54.0,0.0,137.0,106.0,종암극동아파트,38585.795,029261995,18,종암극동.apti.co.kr,20001207.0,10.0,297.0,18.0,23376.578,2811.0,18419080,0,0,107609,0,0,4853,0,5616560,0,202401,서울특별시 성북구 종암동 128-,37.5950324430565,127.033643645805
1129013500,아파트,계단식,개별난방,위탁관리,분양,서울특별시 성북구 종암로23길 35,955.0,종암4,서울특별시 성북구 종암동 133- 래미안세레니티,2.0,삼성물산 건설부문,A13671208,14,029239326,101956.49,164.0,0.0,345.0,446.0,래미안세레니티,148630.0,029239324,24,빌리진 i,20091029.0,25.0,955.0,24.0,77438.66,2804.0,67328070,0,0,290310,0,0,16709,0,19566410,0,202401,서울특별시 성북구 종암동 133-,37.5981647936001,127.029751253435
1129013500,아파트,계단식,개별난방,위탁관리,분양,서울특별시 성북구 종암로24가길 80,837.0,종암5구역 재개발 조합,서울특별시 성북구 종암동 134- 래미안라센트,2.0,삼성물산(주),A13671209,10,029171429,90921.55,182.0,0.0,224.0,431.0,래미안라센트,129694.0,029171426,24, ,20110131.0,21.0,837.0,24.0,70992.57,2799.0,80857711,0,0,286465,0,0,16970,0,21696510,0,202401,서울특별시 성북구 종암동 134-,37.5993136713173,127.039226934965
1129013500,아파트,복도식,개별난방,위탁관리,임대,서울특별시 성북구 종암로24가길 53,465.0,선경건설,서울특별시 성북구 종암동 104-5 종암SK제2,2.0,선경건설,A13671210,1,0262238710,20288.415,0.0,0.0,465.0,0.0,종암SK제2,22273.86,029118710,21, ,19990407.0,5.0,465.0,21.0,12220.2,2798.0,11428450,0,0,71097,0,0,4548,0,3411000,0,202401,서울특별시 성북구 종암동 104-5,37.6008411734995,127.037964181836
1129013500,아파트,복도식,개별난방,위탁관리,임대,서울특별시 성북구 종암로23길 35,188.0,삼성물산(주),서울특별시 성북구 종암동 134-1 래미안종암3차,2.0,삼성물산(주),A13671211,2,029091644,9890.988,0.0,0.0,188.0,0.0,래미안종암3차,15600.4,029091643,21, ,20110131.0,3.0,188.0,21.0,6505.16,2804.0,7457982,438120,0,35602,0,0,2135,0,1991220,0,202401,서울특별시 성북구 종암동 134-1,37.5981647936001,127.029751253435
1129013500,아파트,복도식,개별난방,위탁관리,임대,서울특별시 성북구 종암로23길 35,206.0,삼성물산(주),서울특별시 성북구 종암동 133-1 래미안종암2차,2.0,삼성물산(주),A13671212,2,029293772,8201.4,0.0,0.0,206.0,0.0,래미안종암2차,17020.18,029293771,15, ,20091029.0,3.0,206.0,15.0,8201.4,2804.0,7941719,191570,0,42617,0,0,2322,0,2444270,0,202401,서울특별시 성북구 종암동 133-1,37.5981647936001,127.029751253435
1129013500,아파트,계단식,개별난방,위탁관리,혼합,서울특별시 성북구 종암로24길 35,393.0,종암6구역주택재개발정비사업조합,서울특별시 성북구 종암동 135- 종암2차SK뷰,2.0,SK건설,A13671213,6,029092107,38628.86,76.0,0.0,183.0,134.0,종암2차SK뷰,54545.84,029092105,20,종암2차SK뷰.apti.co.kr,20101029.0,10.0,393.0,20.0,29752.18,2798.0,32715548,36070,0,131487,0,0,6370,0,7057540,0,202401,서울특별시 성북구 종암동 135-,37.6014289209143,127.034640459594
1129011200,아파트,계단식,개별난방,위탁관리,분양,서울특별시 성북구 보문로29다길 31,864.0,조합아파트,서울특별시 성북구 삼선동2가 425- 삼선푸르지오아파트,3.0,대우건설(주),A13672101,22,027432544,90403.08,198.0,0.0,180.0,486.0,삼선푸르지오아파트,133964.49,027432545,15,samsunprugio.aptner.com/,20080327.0,39.0,864.0,15.0,74714.84,2875.0,71365745,0,0,267411,0,0,14716,0,16019570,0,202401,서울특별시 성북구 삼선동2,37.5841773524262,127.012618582669
1129011200,아파트,계단식,개별난방,위탁관리,분양,서울특별시 성북구 낙산길 243-15,377.0,현대건설(주),서울특별시 성북구 삼선동2가 420- 삼선힐스테이트,2.0,현대건설(주),A13672102,9,0263190633,37214.36,64.0,0.0,152.0,161.0,삼선힐스테이트,52459.0,027450455,14,삼선힐스테이트.apti.co.kr,20091201.0,16.0,377.0,14.0,29637.83,2875.0,30311855,556950,0,118080,0,0,6696,0,7954320,0,202401,서울특별시 성북구 삼선동2,37.5826745602455,127.014413798749
1129013900,아파트,계단식,개별난방,위탁관리,분양,서울특별시 성북구 화랑로 214,580.0,석관제1구역주택재개발조합,서울특별시 성북구 석관동 407- 래미안석관,2.0,삼성물산,A13676101,13,0232930118,47319.42,112.0,0.0,211.0,257.0,래미안석관,90585.84,029599905,20, ,20090626.0,19.0,580.0,20.0,47319.42,2790.0,47282645,0,0,181056,0,0,11178,0,12982950,0,202401,서울특별시 성북구 석관동 407-,37.6091583377123,127.054832710998
1129013900,아파트,복도식,개별난방,위탁관리,임대,서울특별시 성북구 화랑로 214,80.0,삼성물산,서울특별시 성북구 석관동 407-4 석관래미안제2임대,3.0,SH공사,A13676102,1,029626029,6733.096,0.0,0.0,80.0,0.0,석관래미안제2임대,6733.1,029626028,10, ,20090626.0,2.0,80.0,10.0,2400.15,2790.0,2636530,0,0,11915,0,0,777,0,580520,0,202401,서울특별시 성북구 석관동 407-4,37.6091583377123,127.054832710998
1129013900,아파트,계단식,개별난방,위탁관리,분양,서울특별시 성북구 화랑로 210-26,199.0,석관제3구역,서울특별시 성북구 석관동 408- 신동아파밀리에,3.0,신동아건설,A13676103,5,029597766,22517.22,37.0,0.0,34.0,128.0,신동아파밀리에,33369.53,029597733,15, ,20110128.0,0.0,199.0,15.0,17169.04,2790.0,16907230,0,0,65067,0,0,3311,0,4033300,0,202401,서울특별시 성북구 석관동 408-,37.6072371654045,127.053640005314
1129013300,아파트,혼합식,개별난방,위탁관리,분양,서울특별시 성북구 북악산로 847,193.0,쌍용건설,서울특별시 성북구 정릉동 1017- 정릉쌍용,2.0,쌍용건설,A13676501,2,029125503,19455.3,48.0,0.0,126.0,19.0,정릉쌍용,26102.0,029125500,19, ,19991113.0,4.0,193.0,19.0,14653.51,2818.0,13425070,0,0,0,0,0,0,0,3801640,0,202401,서울특별시 성북구 정릉동 1017-,37.5995587584276,127.017953544906
1129013300,아파트,혼합식,개별난방,위탁관리,분양,서울특별시 성북구 북악산로 828,406.0,정릉스카이 재건축 조합,서울특별시 성북구 정릉동 1014- 정릉스카이쌍용,3.0,쌍용건설,A13676504,3,0262239114,42365.94,80.0,0.0,210.0,116.0,정릉스카이쌍용,55787.0,029179114,20, ,19990212.0,8.0,406.0,20.0,31086.64,2827.0,27968270,0,0,110222,0,0,6655,0,5705030,0,202401,서울특별시 성북구 정릉동 1014-,37.6001891368647,127.015743116955
1129013300,아파트,혼합식,개별난방,위탁관리,분양,서울특별시 성북구 서경로 28,514.0,숭덕재건축조합,서울특별시 성북구 정릉동 1018- 길음뉴타운 데시앙,0.0,(주)태영,A13676605,6,029121418,53099.3501,115.0,0.0,286.0,113.0,길음뉴타운 데시앙,70757.0,029121417,19,www.intm.com/정릉태영,19991122.0,13.0,514.0,19.0,39633.42,2719.0,29777314,0,0,136179,0,0,7495,0,8856620,0,202401,서울특별시 성북구 정릉동 1018-,37.6061501548552,127.01592319515
1129013300,아파트,혼합식,개별난방,위탁관리,분양,서울특별시 성북구 보국문로30길 15,791.0,선덕아파트 재건축조합외 7개 조합,서울특별시 성북구 정릉동 1021- 정릉대우,3.0,(주)대우,A13676702,7,029183906,70795.695,112.0,0.0,481.0,198.0,정릉대우,94057.0,029125630,18,정릉대우.apti.co.kr,20010621.0,0.0,791.0,18.0,53734.59,2701.0,41047653,0,0,190336,0,0,21927,0,20141920,0,202401,서울특별시 성북구 정릉동 1021-,37.6174300420309,127.002991161254
1129013300,아파트,계단식,개별난방,위탁관리,분양,서울특별시 성북구 솔샘로24길 15,739.0,정릉5구역재건축조합,서울특별시 성북구 정릉동 1028- 정릉1차e-편한세상,0.0,대림건설,A13676703,11,029141872,74088.29,120.0,0.0,314.0,305.0,정릉1차e-편한세상,99443.23,029141870,20,아파트너,20060602.0,20.0,739.0,20.0,58439.98,2712.0,50896007,0,0,221124,0,0,14174,0,15074260,0,202401,서울특별시 성북구 정릉동 1028-,37.6150097852448,127.010974446885
1129013300,아파트,복도식,개별난방,위탁관리,임대,서울특별시 성북구 솔샘로25길 11-14,332.0,풍림산업(주),서울특별시 성북구 정릉동 239-5 정릉풍림아이원임대,3.0,풍림산업(주),A13676704,2,029124867,17501.048,0.0,0.0,332.0,0.0,정릉풍림아이원임대,29165.87,029124866,20, ,20051228.0,4.0,332.0,20.0,10876.32,2702.0,11186590,0,0,84982,0,0,3601,0,3271930,0,202401,서울특별시 성북구 정릉동 239-5,37.6163077681148,127.007223169813
1129013300,아파트,계단식,개별난방,위탁관리,분양,서울특별시 성북구 북악산로 851,527.0,대림산업,서울특별시 성북구 정릉동 1035- 정릉2차 e편한세상,3.0,대림산업,A13677101,10,029091695,54875.073,95.0,0.0,218.0,214.0,정릉2차 e편한세상,83747.2,029091694,15,v2admin.aptner.com/,20090608.0,24.0,527.0,15.0,41856.61,2818.0,48418100,0,0,173515,0,0,10162,0,10743420,0,202401,서울특별시 성북구 정릉동 1035-,37.6002510241826,127.018315403612
1129013300,아파트,혼합식,개별난방,자치관리,분양,서울특별시 성북구 북악산로 813,823.0,한국데이타통신(주)제3직장주택조합외 11개조합,서울특별시 성북구 정릉동 1020- 정릉우성,6.0,우성건설,A13677206,5,029117044,64870.85,37.0,0.0,187.0,599.0,정릉우성,99446.4,029433122,20,jwsapt.com,20000212.0,22.0,823.0,20.0,64850.11,2819.0,48722360,0,0,234809,0,0,25140,0,27296930,0,202401,서울특별시 성북구 정릉동 1020-,37.6011392451733,127.014945523493
1129013200,아파트,계단식,개별난방,위탁관리,혼합,서울특별시 성북구 낙산길 255,440.0,보문4구역정비사업조합,서울특별시 성북구 보문동3가 229- 이편한세상보문,2.0,대림산업(주),A13677401,7,029280056,46273.121,88.0,0.0,93.0,259.0,이편한세상보문,71364.84,029280046,15, ,20131224.0,16.0,440.0,15.0,35723.909,2874.0,42675390,0,0,139502,0,0,7962,0,9091200,0,202401,서울특별시 성북구 보문동3,37.5827783807236,127.015625442683
1129013300,아파트,계단식,개별난방,위탁관리,분양,서울특별시 성북구 북악산로 742-12,212.0,정릉북악재건축조합,서울특별시 성북구 정릉동 1033- 정릉우정에쉐르,3.0,(주)우정건설,A13677807,3,029091419,22126.67,17.0,0.0,32.0,163.0,정릉우정에쉐르,32730.59,029091418,19, ,20090416.0,6.0,212.0,19.0,17703.14,2826.0,17677560,0,0,66606,0,0,7153,0,9037610,0,202401,서울특별시 성북구 정릉동 1033-,37.6002511386884,127.010817364736
1129013700,아파트,복도식,개별난방,위탁관리,임대,서울특별시 성북구 장월로1길 28,278.0,sh공사,서울특별시 성북구 상월곡동 101-1 동아에코빌,1.0,동아건설산업(주),A13678401,2,029434389,8782.02,0.0,0.0,278.0,0.0,동아에코빌,15403.29,029434388,20,www.i-sh.co.kr/,20030627.0,4.0,278.0,20.0,8782.02,2753.0,7528750,0,0,46966,0,0,3326,0,3059910,0,202401,서울특별시 성북구 상월곡동 101-1,37.6087724936926,127.045611958623
1129013400,아파트,계단식,개별난방,위탁관리,임대,서울특별시 성북구 길음로9길 50,242.0,래미안길음뉴타운9단지제2관리사무소,서울특별시 성북구 길음동 1286-7 길음뉴타운9단지제2,3.0,삼성물산,A13679402,3,029123928,12066.12,0.0,0.0,242.0,0.0,길음뉴타운9단지제2,19548.76,029123927,15, ,20100930.0,4.0,242.0,15.0,8053.76,2721.0,8617290,0,0,43608,0,0,2428,0,2378450,0,202401,서울특별시 성북구 길음동 1286-7,37.6026965054255,127.020948040998
1129013400,아파트,계단식,개별난방,위탁관리,분양,서울특별시 성북구 길음로13길 22,449.0,길음뉴타운,서울특별시 성북구 길음동 1285- 길음뉴타운7단지,4.0,두산건설,A13679403,6,029094726,49974.14,90.0,0.0,131.0,228.0,길음뉴타운7단지,69705.0,029094849,23, ,20100728.0,12.0,449.0,23.0,37581.26,2715.0,45097340,0,0,161806,0,0,8339,0,10148400,0,202401,서울특별시 성북구 길음동 1285-,37.6094417730405,127.019323702394
1129010300,아파트,계단식,개별난방,위탁관리,분양,서울특별시 성북구 아리랑로 68,200.0,돈암제1구역주택재개발조합,서울특별시 성북구 돈암동 639- 돈암힐스테이트,3.0,현대건설(주),A13679902,6,029276238,19450.88,40.0,0.0,88.0,72.0,돈암힐스테이트,29669.0,029276237,12, ,20070418.0,9.0,200.0,12.0,15826.88,2827.0,14414764,0,0,58642,0,0,3294,0,3990000,0,202401,서울특별시 성북구 돈암동 639-,37.5987879114086,127.015087054825
1129010300,아파트,계단식,개별난방,위탁관리,분양,서울특별시 성북구 아리랑로5길 92,192.0,한국토지신탁,서울특별시 성북구 돈암동 642- 돈암신일해피트리,3.0,신화종합건설,A13679903,6,029278824,26169.97,63.0,33.0,0.0,96.0,돈암신일해피트리,39815.049,029278823,11, ,20130115.0,6.0,192.0,11.0,21046.86,2826.0,22362689,0,0,80996,0,0,4870,0,4939670,0,202401,서울특별시 성북구 돈암동 642-,37.598460801081,127.011542058265
1129013400,아파트,계단식,개별난방,위탁관리,분양,서울특별시 성북구 길음로 141,252.0,(주)신안건설산업,서울특별시 성북구 길음동 635-168 길음신안파크,0.0,(주)신안건설산업,A13680701,3,029189312,24091.44,0.0,0.0,0.0,252.0,길음신안파크,24091.44,029190885,13, ,19881126.0,10.0,252.0,13.0,19001.16,2714.0,13333233,0,0,83582,0,0,0,0,0,0,202401,서울특별시 성북구 길음동 635-168,37.6141052663502,127.015871658021
1129010300,아파트,계단식,개별난방,위탁관리,분양,서울특별시 성북구 정릉로 388,540.0,동부건설(주),서울특별시 성북구 돈암동 633- 돈암동부센트레빌,0.0,동부건설(주),A13681303,9,029213813,65117.76,142.0,0.0,0.0,398.0,돈암동부센트레빌,84708.06,029213812,23, ,20030918.0,19.0,540.0,23.0,48580.22,2806.0,48881852,0,0,168693,0,0,0,0,0,0,202401,서울특별시 성북구 돈암동 633-,37.6024693446287,127.025621806395
1129010300,아파트,혼합식,개별난방,위탁관리,분양,서울특별시 성북구 정릉로 404,619.0,주택개량재개발조함,서울특별시 성북구 돈암동 1- 돈암현대,0.0,현대산업개발,A13681304,6,029277859,53602.31,0.0,0.0,284.0,335.0,돈암현대,536020.31,029277858,15, ,19910613.0,18.0,619.0,15.0,39755.03,2801.0,26520987,0,0,137092,0,0,0,0,0,0,202401,서울특별시 성북구 돈암동 1-,37.6042985240599,127.028796189972
1129013900,아파트,혼합식,개별난방,위탁관리,분양,서울특별시 성북구 한천로76길 73,315.0,중앙건설,서울특별시 성북구 석관동 110-2 석관중앙하이츠,2.0,중앙건설,A13681701,3,029605667,33226.2,0.0,0.0,165.0,150.0,석관중앙하이츠,33227.2,029575667,15, ,19940624.0,7.0,315.0,15.0,22592.85,2781.0,15059647,0,0,74706,0,0,0,0,0,0,202401,서울특별시 성북구 석관동 110-2,37.6110503867569,127.066778354217
1129013300,아파트,혼합식,개별난방,위탁관리,분양,서울특별시 성북구 정릉로26길 8,745.0,정릉463재건축조합 외,서울특별시 성북구 정릉동 435- 정릉중앙하이츠빌2단지,2.0,중앙건설,A13684306,9,0263151300,75616.9264,44.0,0.0,128.0,573.0,정릉중앙하이츠빌2단지,107342.001,029107558,23,jrjhv2.aptner.com/v2,20051116.0,21.0,745.0,23.0,60603.9858,2814.0,49975202,0,0,201833,0,0,13689,0,11488430,0,202401,서울특별시 성북구 정릉동 435-,37.6038670811154,127.010847672186
1129013300,아파트,혼합식,개별난방,위탁관리,분양,서울특별시 성북구 서경로 31,529.0,(주)동아건설산업,서울특별시 성북구 정릉동 210- 정릉푸른마을동아,3.0,(주)동아건설산업,A13684605,7,0262259973,57022.4,59.0,0.0,150.0,320.0,정릉푸른마을동아,75794.0,029139973,20, ,20031004.0,16.0,529.0,20.0,42905.55,2716.0,34839823,0,0,154267,0,0,9732,0,10268400,0,202401,서울특별시 성북구 정릉동 210-,37.6068620275102,127.014521523408
1129013300,아파트,혼합식,개별난방,위탁관리,분양,서울특별시 성북구 보국문로32길 53,261.0,정릉주공재건축아파트조합,서울특별시 성북구 정릉동 809- 정릉중앙하이츠,3.0,중앙건설(주),A13684701,4,029420988,26211.12,36.0,0.0,135.0,90.0,정릉중앙하이츠,27769.95,029412698,18, ,19990514.0,0.0,261.0,18.0,19712.04,2700.0,14697880,0,0,0,0,0,0,0,0,0,202401,서울특별시 성북구 정릉동 809-,37.6193747499376,127.002305727976
1129013300,아파트,계단식,개별난방,위탁관리,분양,서울특별시 성북구 아리랑로19길 60,433.0,"계성제지그룹직장조합외5개조합,(주)중앙건설",서울특별시 성북구 정릉동 494- 정릉중앙하이츠빌1단지,3.0,(주)중앙건설,A13685104,7,029115714,34273.9013,0.0,0.0,101.0,332.0,정릉중앙하이츠빌1단지,62122.7,029115704,19,cafe.daum.net/heights1apt,20040430.0,15.0,433.0,19.0,34271.34,2813.0,27626790,428880,0,125515,0,0,14467,0,16724530,0,202401,서울특별시 성북구 정릉동 494-,37.6021738318794,127.010033201211
1129013500,아파트,계단식,개별난방,위탁관리,분양,서울특별시 성북구 종암로25길 30,1168.0,종암2구역 주택재개발사업,서울특별시 성북구 종암동 80- 래미안 크리시엘 아파트 관리사무소,3.0,삼성물산,A13686302,17,0264350080,122064.59,226.0,0.0,469.0,473.0,래미안 크리시엘 아파트 관리사무소,155906.43,0264350078,20,종암삼성래미안.apti.co.kr,20040924.0,31.0,1168.0,20.0,94302.14,2803.0,64698230,0,0,328261,0,0,20367,0,24425440,0,202401,서울특별시 성북구 종암동 80-,37.6014922606804,127.031080353416
