bjdCode,codeAptNm,codeHallNm,codeHeatNm,codeMgrNm,codeSaleNm,address,hoCnt,kaptAcompany,kaptAddr,kaptBaseFloor,kaptBcompany,kaptCode,kaptDongCnt,kaptFax,kaptMarea,kaptMparea_135,kaptMparea_136,kaptMparea_60,kaptMparea_85,kaptName,kaptTarea,kaptTel,kaptTopFloor,kaptUrl,kaptUsedate,kaptdEcntp,kaptdaCnt,ktownFlrNo,privArea,zipcode,전기사용금액,가스사용금액,난방사용금액,전기사용량,가스사용량,난방사용량,냉수사용량,온수사용량,냉수사용금액,온수사용금액,집계날짜,cleaned_address,lat,lon
1120011400,주상복합,계단식,개별난방,관리방식미정,분양,서울특별시 성동구 성수동1,825.0,서울숲벨라듀지역주택조합,서울특별시 성동구 성수동1가 721- 서울숲아이파크리버포레,0.0,HDC현대산업개발,A10020907,5,0234099663,77168.407,278.0,0.0,0.0,547.0,서울숲아이파크리버포레,77168.425,0234099662,33, ,20241227.0,27.0,825.0,,,,0,0,0,0,0,0,0,0,0,0,202401,서울특별시 성동구 성수동1,37.5530364703228,127.046341977717
1120011200,아파트,계단식,개별난방,위탁관리,분양,서울 성동구 무수막길 27-1,108.0,금호제14-1구역주택재개발정비사업조합,서울특별시 성동구 금호동4가 1555- 서울숲르씨엘아파트,3.0,제이앤이건설주식회사,A10020977,2,0222917009,9391.4034,30.0,0.0,0.0,78.0,서울숲르씨엘아파트,15152.3182,0222916009,16, ,20230331.0,4.0,108.0,,,,0,0,0,0,0,0,0,0,0,0,202401,서울특별시 성동구 금호동4,37.5502391681334,127.024683315601
1120011400,아파트,복도식,개별난방,위탁관리,분양,서울특별시 성동구 성수동1,142.0,동양건설,서울특별시 성동구 성수동1가 479-1 강변동양아파트,2.0,동양건설,A10021528,1,0234090605,14306.95,93.0,0.0,0.0,49.0,강변동양아파트,18704.0,0234090804,1, ,20010829.0,,142.0,,,,0,0,0,0,0,0,0,0,0,0,202401,서울특별시 성동구 성수동1,37.5530364703228,127.046341977717
1120010600,,계단식,개별난방,위탁관리,분양,서울 성동구 살곶이길 176,133.0,"벽산건설,이연건설",서울특별시 성동구 사근동 314- 사근벽산아파트,2.0,"벽산건설,이연건설",A10022058,1,0222953957,13309.51,94.0,0.0,1.0,38.0,사근벽산아파트,,0222953957,19,"벽산건설,이연건설",20000515.0,0.0,133.0,,,,0,0,0,0,0,0,0,0,0,0,202401,서울특별시 성동구 사근동 314-,37.5605321855931,127.049552020123
1120012200,,혼합식,개별난방,위탁관리,분양,서울 성동구 용답중앙27길 10,136.0,(주)중앙종합건설,서울특별시 성동구 용답동 15- 용답중앙하이츠아파트,2.0,(주)중앙종합건설,A10022175,1, ,13546.1,136.0,0.0,0.0,0.0,용답중앙하이츠아파트,171116000.0,0222131248,20, ,19951127.0,,136.0,,,,0,0,0,0,0,0,0,0,0,0,202401,서울특별시 성동구 용답동 15-,37.5630996718455,127.055607076557
1120011300,아파트,혼합식,개별난방,자치관리(직영),분양,서울특별시 성동구 독서당로39길 22,66.0,중앙건설,서울특별시 성동구 옥수동 466- 한남하이츠빌라,1.0,중앙,A10022640,3,0240040001,9614.84,21.0,45.0,0.0,0.0,한남하이츠빌라,14189.19,0222989512,3, ,19870609.0,,66.0,3.0,9618.84,4732.0,0,0,0,0,0,0,0,0,0,0,202401,서울특별시 성동구 옥수동 466-,37.5402760949298,127.00998020685
1120011200,아파트,계단식,개별난방,위탁관리,분양,서울특별시 성동구 동호로 93,86.0,금호동 이수 일죽지역조합,서울특별시 성동구 금호동4가 1550- 브라운스톤 금호2차아파트,3.0,이수건설,A10023252,1,0222820974,9404.3,0.0,0.0,0.0,86.0,브라운스톤 금호2차아파트,14584.82,0222820973,15, ,20100120.0,3.0,86.0,15.0,7308.43,4733.0,0,0,0,0,0,0,0,0,0,0,202401,서울특별시 성동구 금호동4,37.5475920778648,127.01540195659
1120011500,,복도식,개별난방,위탁관리,분양,서울특별시 성동구 뚝섬로13길 11,146.0,신성건설,서울특별시 성동구 성수동2가 833- 성수신성아파트,1.0,신성건설,A10023316,2,0234095801,13189.66,0.0,0.0,74.0,72.0,성수신성아파트,17731.03,0234095825,19, ,20011221.0,0.0,146.0,19.0,10444.32,4784.0,0,0,0,0,0,0,0,0,0,0,202401,서울특별시 성동구 성수동2,37.5395607208888,127.056958698002
1120010700,도시형 생활주택(주상복합),복도식,개별난방,위탁관리,임대,서울특별시 성동구 고산자로14길 26,299.0,신영홈스더블유,서울특별시 성동구 행당동 387- 지웰홈스 왕십리,2.0,신영건설,A10024464,1,0222959799,18078.1,0.0,0.0,299.0,0.0,지웰홈스 왕십리,21924.06,0262713299,19, ,20200831.0,0.0,299.0,19.0,7330.22,4750.0,14529582,12057770,0,39519,11833,0,2325,0,2698940,0,202401,서울특별시 성동구 행당동 387-,37.563404956031,127.037767815269
1120011400,아파트,계단식,중앙난방,위탁관리,분양,서울특별시 성동구 왕십리로 83-21,280.0,대림산업(주),서울특별시 성동구 성수동1가 685-700 아크로 서울포레스트,5.0,대림산업(주),A10024503,2,0234095776,58399.918,32.0,248.0,0.0,0.0,아크로 서울포레스트,97841.0,0234095778,49, ,20201112.0,10.0,280.0,47.0,46377.996,4769.0,89362449,1039150,94068980,156162,3655,646,4535,1597,7663983,0,202401,서울특별시 성동구 성수동1,37.5441547484979,127.043357753557
1120010300,아파트,계단식,개별난방,위탁관리,분양,서울특별시 성동구 무학로12길 11,101.0,대주건설(주),서울특별시 성동구 홍익동 53- 청계대주파크빌,0.0,대주건설(주),A10024762,1,0222920533,10314.11,0.0,0.0,0.0,101.0,청계대주파크빌,13089.0,0222975264,15, ,20051123.0,0.0,101.0,15.0,8557.38,4706.0,0,0,0,0,0,0,0,0,0,0,202401,서울특별시 성동구 홍익동 53-,37.5674638278358,127.031394917436
1120012200,도시형 생활주택(주상복합),계단식,개별난방,위탁관리,임대,서울특별시 성동구 천호대로 416,170.0,u-삼진랜드,서울특별시 성동구 용답동 233-1 용답동힐데스하임 청년주택,3.0,원건설,A10024886,1,0222179102,4898.21,0.0,0.0,170.0,0.0,용답동힐데스하임 청년주택,6429.79,0222179105,19, ,20200302.0,1.0,170.0,19.0,4898.21,4808.0,5299880,0,0,16795,0,0,0,0,0,0,202401,서울특별시 성동구 용답동 233-1,37.5609927038052,127.065100778662
1120011500,아파트,계단식,개별난방,위탁관리,분양,서울특별시 성동구 뚝섬로 436,114.0,대명종합건설주식회사,서울특별시 성동구 성수동2가 840- 성수 대명루첸아파트,1.0,대명종합건설주식회사,A10025101,3,024910092,13452.798,13.0,0.0,0.0,101.0,성수 대명루첸아파트,13938.67,024610091,13, ,20090206.0,,114.0,13.0,10106.8,4777.0,0,0,0,0,0,0,0,0,0,0,202401,서울특별시 성동구 성수동2,37.5367019546624,127.059123476749
1120010700,아파트,복도식,,위탁관리,임대,서울특별시 성동구 고산자로 175,94.0,대우건설,서울특별시 성동구 행당동 376-1 서울숲행당푸르지오(임대),4.0,대우건설,A10025685,1,0222978891,1011858.3,0.0,0.0,94.0,0.0,서울숲행당푸르지오(임대),10764.45,0222978875,11, ,20110502.0,1.0,94.0,11.0,3473.3,4716.0,0,0,0,0,0,0,0,0,0,0,202401,서울특별시 성동구 행당동 376-1,37.5560589405187,127.033301306192
1120010700,아파트,복도식,,위탁관리,임대,서울특별시 성동구 행당로8길 8,114.0,두산건설,서울특별시 성동구 행당동 375- 행당두산위브아파트(임대),2.0,두산건설,A10025686,1,0222978874,3899.94,0.0,0.0,114.0,0.0,행당두산위브아파트(임대),8695.0,0222978873,13, ,20091204.0,10.0,114.0,13.0,3899.94,4716.0,0,0,0,0,0,0,0,0,0,0,202401,서울특별시 성동구 행당동 375-,37.5572723225298,127.030951065096
1120010700,아파트,혼합식,개별난방,위탁관리,혼합,서울특별시 성동구 고산자로2길 65,1034.0,행당제6구역주택재개발정비사업조합,서울특별시 성동구 행당동 380- 서울숲리버뷰자이아파트,2.0,GS건설,A10026207,7,0269648037,106408.35,126.0,4.0,326.0,578.0,서울숲리버뷰자이아파트,165016.0,0269648035,39,riverviewxi.com,20180622.0,15.0,1034.0,39.0,80377.23,4745.0,98060860,0,0,313059,0,0,14440,0,16622540,0,202401,서울특별시 성동구 행당동 380-,37.556198526017,127.038836506223
1120010900,아파트,계단식,,위탁관리,혼합,서울특별시 성동구 금호로 140,1330.0,금호제15구역주택재개발정비사업조합,서울특별시 성동구 금호동1가 1824- e편한세상금호파크힐스,4.0,대림산업,A10026418,17,0222929166,130787.246,60.0,0.0,654.0,616.0,e편한세상금호파크힐스,195524.342,0222929168,21, ,20190509.0,41.0,1330.0,21.0,95462.16,4727.0,115353524,0,0,414678,0,0,19050,0,25138720,0,202401,서울특별시 성동구 금호동1,37.5537160329778,127.021928981135
1120011200,아파트,혼합식,개별난방,위탁관리,혼합,서울특별시 성동구 독서당로 344,606.0,금호20주택재개발조합,서울특별시 성동구 금호동4가 1553- 힐스테이트서울숲리버,3.0,현대건설,A10026470,15,0222820084,61808.7,86.0,28.0,237.0,255.0,힐스테이트서울숲리버,107556.86,0222820584,15, ,20180219.0,0.0,606.0,15.0,47242.38,4743.0,59464035,0,0,196805,0,0,8964,0,11009610,0,202401,서울특별시 성동구 금호동4,37.5464525799903,127.025765458515
1120011300,아파트,계단식,개별난방,위탁관리,혼합,서울특별시 성동구 매봉길 50,1976.0,옥수13구역재개발,서울특별시 성동구 옥수동 528- 옥수파크힐스아파트,4.0,대림산업(주),A10026748,25,0222810911,181722.79,98.0,0.0,1131.0,747.0,옥수파크힐스아파트,287807.62,0222910911,20, ,20161109.0,61.0,1976.0,20.0,135264.23,4731.0,171079293,0,0,624080,0,0,28370,0,32334420,0,202401,서울특별시 성동구 옥수동 528-,37.5472989077685,127.01218936757
1120010200,아파트,혼합식,개별난방,위탁관리,혼합,서울특별시 성동구 난계로 100,713.0,하왕 제1-5구역 주택재개발정비사업조합,서울특별시 성동구 하왕십리동 1071- 왕십리 자이 아파트,4.0,GS건설,A10026900,6,029300747,60136.99,0.0,0.0,562.0,151.0,왕십리 자이 아파트,99726.07,0222914256,20,www.wangsimnixi.com,20170728.0,17.0,713.0,20.0,43699.15,4711.0,55216250,0,0,186301,0,0,9849,0,11518880,0,202401,서울특별시 성동구 하왕십리동 1071-,37.5615293048656,127.024651500492
1120011400,아파트,계단식,개별난방,위탁관리,분양,서울특별시 성동구 왕십리로 16,688.0,한양개발주식회사,서울특별시 성동구 성수동1가 718- 트리마제,3.0,두산중공업,A10026988,4,024680524,87470.53,0.0,210.0,152.0,326.0,트리마제,132364.0,024680520,47, ,20170529.0,12.0,688.0,47.0,61742.2622,4773.0,100899932,0,0,402979,0,0,8169,0,10973140,0,202401,서울특별시 성동구 성수동1,37.5392578661678,127.044671518265
1120010200,아파트,계단식,개별난방,위탁관리,혼합,서울특별시 성동구 왕십리로 410,2529.0,왕십리뉴타운3구역주택재개발정비사업조합,서울특별시 성동구 하왕십리동 1070- 센트라스,5.0,"포스코,SK,현대",A10027289,30,0233957966,242190.52,171.0,0.0,1210.0,1148.0,센트라스,459952.03,0233957961,28, ,20161129.0,73.0,2529.0,28.0,177397.71,4701.0,223495393,0,0,817655,0,0,39564,0,47910720,0,202401,서울특별시 성동구 하왕십리동 1070-,37.5666029325047,127.024082467223
1120010200,아파트,계단식,개별난방,위탁관리,분양,서울특별시 성동구 무학봉길 35,272.0,(주)광희리츠,서울특별시 성동구 하왕십리동 1002- 서울 왕십리 KCC스위첸아파트,3.0,KCC건설,A10027432,3,0222979321,7624.0,0.0,0.0,42.0,230.0,서울 왕십리 KCC스위첸아파트,38150.93,0222823814,18, ,20160428.0,10.0,272.0,18.0,19597.018,4711.0,22391405,0,0,87104,0,0,4044,0,4704150,0,202401,서울특별시 성동구 하왕십리동 1002-,37.5606055683506,127.026874753169
1120010200,주상복합,혼합식,개별난방,위탁관리,임대,서울특별시 성동구 청계천로 474,69.0,sh공사,서울특별시 성동구 하왕십리동 286-2 왕십리모노퍼스,0.0,KT건설(보증사 한양),A10027454,2,0222925758,10154.892,37.0,0.0,32.0,0.0,왕십리모노퍼스,13956.75,0222925757,25, ,20091130.0,,69.0,24.0,4987.407,4702.0,0,0,0,0,0,0,0,0,0,0,202401,서울특별시 성동구 하왕십리동 286-2,37.569533166927,127.029562937984
1120011000,아파트,혼합식,개별난방,위탁관리,혼합,서울특별시 성동구 금호로 173,1156.0,금호제13구역 주택재개발정비사업조합,서울특별시 성동구 금호동2가 1- 신금호파크자이아파트,2.0,GS건설,A10027602,10,0222528662,151181.78,19.0,0.0,801.0,336.0,신금호파크자이아파트,153668.7,0222528660,21, ,20160420.0,34.0,1156.0,21.0,73699.22,4722.0,78364068,0,0,330114,0,0,18647,0,20925640,0,202401,서울특별시 성동구 금호동2,37.5562788411556,127.018152303
1120010200,아파트,계단식,개별난방,위탁관리,분양,서울특별시 성동구 무학로 33,1369.0,조합,서울특별시 성동구 하왕십리동 1066- 텐즈힐1단지,3.0,"gs건설,삼성건설,대림,현대산업",A10027920,18,0222913394,164363.51,204.0,136.0,172.0,857.0,텐즈힐1단지,252495.0,0222913391,25, ,20150424.0,41.0,1369.0,25.0,129089.76,4702.0,142096480,0,411090,475596,0,0,26881,0,28994520,0,202401,서울특별시 성동구 하왕십리동 1066-,37.5691641596929,127.02634785313
1120010200,아파트,계단식,개별난방,위탁관리,임대,서울특별시 성동구 무학로 33,333.0,에스에치공사,서울특별시 성동구 하왕십리동 1066- 왕십리텐즈힐1단지(임대),2.0,대림산업,A10027969,3,0222919951,29365.605,0.0,0.0,333.0,0.0,왕십리텐즈힐1단지(임대),29365.605,0222919950,14, ,20150424.0,6.0,333.0,25.0,12141.18,4702.0,14005940,0,0,74471,0,0,4863,0,4240270,0,202401,서울특별시 성동구 하왕십리동 1066-,37.5691641596929,127.02634785313
1120010200,아파트,계단식,개별난방,위탁관리,분양,서울특별시 성동구 무학로 50,822.0,하왕3구역 재개발조합,서울특별시 성동구 하왕십리동 258- 청계벽산,4.0,벽산건설(주),A13302001,7,0222982637,105004.95,396.0,0.0,0.0,426.0,청계벽산,106825.74,0222982632,21,http://emaul.co.kr/,19960607.0,23.0,822.0,21.0,80285.7,4703.0,53503580,0,0,317250,0,0,16937,0,20245720,0,202401,서울특별시 성동구 하왕십리동 258-,37.5691096001774,127.032672663162
1120010200,아파트,혼합식,개별난방,위탁관리,분양,서울특별시 성동구 왕십리로31길 20,246.0,한진중공업,서울특별시 성동구 하왕십리동 1050- 한진해모로,2.0,한진중공업,A13302201,3,0222965334,27381.759,69.0,0.0,66.0,111.0,한진해모로,34885.79,0222965333,21, ,20010618.0,7.0,246.0,21.0,21120.66,4710.0,15948901,0,0,69576,0,0,4176,0,4464710,0,202401,서울특별시 성동구 하왕십리동 1050-,37.5629844960873,127.026759027395
1120010200,아파트,혼합식,개별난방,자치관리,분양,서울특별시 성동구 난계로 73,414.0,극동건설,서울특별시 성동구 하왕십리동 1058- 하왕극동미라주,2.0,극동건설,A13302203,3,0262171502,34387.05,98.0,0.0,136.0,180.0,하왕극동미라주,59336.59,0262171500,23, ,20011214.0,11.0,414.0,23.0,34387.05,4721.0,30096430,0,0,120375,0,0,7553,0,8687310,0,202401,서울특별시 성동구 하왕십리동 1058-,37.5594875603578,127.023298446358
1120010200,아파트,혼합식,개별난방,자치관리,분양,서울특별시 성동구 난계로 114-31,458.0,하왕1-3재개발조합,서울특별시 성동구 하왕십리동 1052- 하왕금호베스트빌,3.0,금호건설,A13302204,6,0222978791,52607.18,136.0,0.0,137.0,185.0,하왕금호베스트빌,70296.0,0222978790,24, ,20011005.0,12.0,458.0,24.0,39537.56,4711.0,29223692,0,0,131917,0,0,7699,0,9021020,0,202401,서울특별시 성동구 하왕십리동 1052-,37.5612312466825,127.025952317395
1120010200,아파트,계단식,개별난방,위탁관리,분양,서울특별시 성동구 난계로 84,758.0,풍림산업(주),서울특별시 성동구 하왕십리동 1061- 왕십리풍림아이원,5.0,풍림산업(주),A13302206,15,0222994774,74697.056,139.0,0.0,339.0,280.0,왕십리풍림아이원,107387.053,0222990707,18, ,20041130.0,24.0,758.0,18.0,59930.056,4712.0,50110704,0,0,225955,0,0,14012,0,19192430,0,202401,서울특별시 성동구 하왕십리동 1061-,37.5591314196289,127.024079949145
1120010500,아파트,계단식,개별난방,위탁관리,분양,서울특별시 성동구 마장로37길 7,248.0,대성산업,서울특별시 성동구 마장동 825- 마장동 대성유니드 아파트,1.0,대성산업,A13305002,4,0222970456,24079.3388,44.0,0.0,100.0,104.0,마장동 대성유니드 아파트,31540.51,0222975775,22, ,20041130.0,6.0,248.0,22.0,19818.72,4755.0,14266290,0,0,79769,0,0,5225,0,4472030,0,202401,서울특별시 성동구 마장동 825-,37.5669385461453,127.038684519978
1120010500,아파트,계단식,개별난방,위탁관리,분양,서울특별시 성동구 마장로39길 43,286.0,마장동신성연합주택조합,서울특별시 성동구 마장동 822- 청계미소지움,1.0,신성건설(주),A13305003,4,0222943370,28237.137,0.0,0.0,74.0,212.0,청계미소지움,36287.71,0222943399,19, ,20040604.0,8.0,286.0,19.0,22452.7,4753.0,19132797,0,0,87007,0,0,5381,0,6317780,0,202401,서울특별시 성동구 마장동 822-,37.568341418104,127.043293439902
1120010500,아파트,복도식,개별난방,위탁관리,임대,서울특별시 성동구 마조로15가길 23,400.0,KT 건설,서울특별시 성동구 마장동 831- 마장SH-vill임대,2.0,KT 건설,A13305005,4,0233959870,24909.363,0.0,0.0,400.0,0.0,마장SH-vill임대,36999.06,0233959510,12, ,20061121.0,7.0,400.0,12.0,17417.27,4759.0,16902780,98980,0,85946,0,0,5748,0,7413240,0,202401,서울특별시 성동구 마장동 831-,37.5646371921494,127.040388382695
1120010500,아파트,혼합식,개별난방,위탁관리,분양,서울특별시 성동구 마장로 271,430.0,대성산업(주),서울특별시 성동구 마장동 817- 마장삼성,1.0,삼성건설(주),A13305006,5,0222962053,35039.04,70.0,0.0,198.0,162.0,마장삼성,53753.5,0222962051,24, ,19961214.0,9.0,430.0,24.0,35039.04,4755.0,28695700,0,0,125126,0,0,6718,0,8552050,0,202401,서울특별시 성동구 마장동 817-,37.5664842722046,127.040276642646
1120010500,아파트,혼합식,중앙난방,위탁관리,분양,서울특별시 성동구 마장로42길 16,811.0,세림건설,서울특별시 성동구 마장동 784- 마장세림,0.0,세림건설,A13305007,9,0222972289,69161.4,0.0,0.0,211.0,600.0,마장세림,69491.5,0222966690,15, ,19861227.0,23.0,811.0,15.0,55227.06,4757.0,42956460,0,135991810,191658,0,0,0,3412,4223120,0,202401,서울특별시 성동구 마장동 784-,37.56504066245,127.046038485838
1120010700,아파트,계단식,개별난방,위탁관리,분양,서울특별시 성동구 고산자로14길 40,251.0,두산건설,서울특별시 성동구 행당동 345- 행당두산,2.0,두산건설,A13307001,2,0222992221,23529.2,0.0,0.0,120.0,131.0,행당두산,28223.53,0222992221,25, ,19970704.0,0.0,251.0,25.0,18310.77,4750.0,15416810,0,439540,70024,0,0,0,0,401600,0,202401,서울특별시 성동구 행당동 345-,37.5649425225397,127.037433442672
1120010700,아파트,계단식,개별난방,위탁관리,분양,서울특별시 성동구 고산자로 177,457.0,행당5구역재개발조합,서울특별시 성동구 행당동 376- 서울숲행당푸르지오,4.0,대우건설,A13307002,9,0222940338,34866.1038,51.0,0.0,191.0,215.0,서울숲행당푸르지오,46619.8,0222940337,15, ,20110502.0,16.0,457.0,15.0,35458.55,4716.0,42132171,0,0,148926,0,0,7943,0,9848900,0,202401,서울특별시 성동구 행당동 376-,37.5557304486542,127.033577643563
1120010700,주상복합,타워형,개별난방,위탁관리,분양,서울특별시 성동구 왕십리로 241,495.0,포스코건설,서울특별시 성동구 행당동 155-1 서울숲더샵,5.0,포스코건설,A13307003,3,0222979813,67382.42,286.0,26.0,0.0,183.0,서울숲더샵,99374.34,0222979812,42,cafe.naver.com/intothesharp,20140916.0,13.0,495.0,42.0,47508.13,4765.0,63228428,0,0,301472,0,0,10893,0,10564510,0,202401,서울특별시 성동구 행당동 155-1,37.5571370941693,127.040185257911
1120010700,아파트,계단식,개별난방,위탁관리,분양,서울특별시 성동구 왕십리로 280,498.0,행당동 제2구역 재개발조합,서울특별시 성동구 행당동 147- 서울숲삼부아파트,3.0,삼부토건,A13307101,7,0262127293,57515.46,150.0,0.0,0.0,348.0,서울숲삼부아파트,76080.38,0222997292,15, ,19980715.0,17.0,498.0,15.0,46914.66,4751.0,31343500,0,0,147940,0,0,8580,0,9943940,0,202401,서울특별시 성동구 행당동 147-,37.5602047159985,127.038017800199
1120010700,아파트,계단식,개별난방,위탁관리,분양,서울특별시 성동구 행당로 99,208.0,이수건설,서울특별시 성동구 행당동 364- 행당브라운스톤,0.0,이수건설,A13307201,3,0222818700,17813.12,30.0,0.0,100.0,78.0,행당브라운스톤,30054.708,0222818600,15, ,20050901.0,8.0,208.0,15.0,15995.12,4714.0,13777243,0,0,77817,0,0,3794,0,4010550,0,202401,서울특별시 성동구 행당동 364-,37.5587641551288,127.029698118524
1120010700,아파트,혼합식,개별난방,위탁관리,분양,서울특별시 성동구 독서당로 441,636.0,신동아건설,서울특별시 성동구 행당동 344- 신동아,0.0,신동아건설,A13307202,9,0222937275,62049.5786,90.0,0.0,338.0,208.0,신동아,67930.0,0222984921,15,행당신동아.apti.co.kr,19950522.0,13.0,636.0,15.0,47802.69,4716.0,33966955,0,0,158456,0,0,11001,0,11948130,0,202401,서울특별시 성동구 행당동 344-,37.554105048915,127.03195392433
1120010700,아파트,혼합식,개별난방,위탁관리,분양,서울특별시 성동구 행당로 79,2399.0,하왕2-1재개발조함,서울특별시 성동구 행당동 347- 행당대림,3.0,대림산업,A13307204,31,0262166173,253682.5912,660.0,0.0,705.0,1034.0,행당대림,348652.0,0262126181,15,행당대림.co.kr,20001230.0,69.0,2399.0,15.0,205887.78,4713.0,155219924,0,0,700076,0,0,43264,0,49537080,0,202401,서울특별시 성동구 행당동 347-,37.5582053468995,127.027507006183
1120010800,아파트,혼합식,개별난방,위탁관리,분양,서울특별시 성동구 독서당로 377,644.0,현대산업개발(주),서울특별시 성동구 응봉동 98- 응봉금호현대,0.0,현대산업개발(주),A13308004,9,0222949160,70581.696,132.0,0.0,176.0,336.0,응봉금호현대,70582.0,0222949158,14, ,19900920.0,13.0,644.0,14.0,53196.96,4720.0,36192073,0,0,175830,0,0,11924,0,13918470,0,202401,서울특별시 성동구 응봉동 98-,37.5505406446297,127.03115141409
1120010800,아파트,혼합식,중앙난방,위탁관리,분양,서울특별시 성동구 독서당로62길 43,855.0,대림,서울특별시 성동구 응봉동 100- 응봉대림1차,0.0,대림,A13308005,10,0222942803,103283.925,420.0,0.0,0.0,435.0,응봉대림1차,109365.0,0222951681,15, ,19861023.0,19.0,855.0,15.0,81622.8,4741.0,60029474,0,151736990,258987,0,0,0,4485,4378740,0,202401,서울특별시 성동구 응봉동 100-,37.5519009520129,127.033526471055
1120010900,아파트,계단식,개별난방,위탁관리,분양,서울특별시 성동구 행당로 27,169.0,"성호,금호연합 재건축조합",서울특별시 성동구 금호동1가 1818- 신금호두산위브,0.0,두산건설,A13309101,5,0222948546,14307.0,23.0,0.0,25.0,121.0,신금호두산위브,27320.0,0222948547,15, ,20060331.0,7.0,169.0,15.0,14384.53,4721.0,12509960,0,0,0,0,0,0,0,3458110,0,202401,서울특별시 성동구 금호동1,37.5560337027167,127.022232627725
1120010900,아파트,계단식,개별난방,자치관리,분양,서울특별시 성동구 독서당로 343,582.0,금호제12구역 재개발조합,서울특별시 성동구 금호동1가 1500- 금호삼성래미안,0.0,삼성물산주식회사,A13309102,11,0264511501,58900.8238,116.0,0.0,234.0,232.0,금호삼성래미안,87175.23,0264511500,15,금호삼성래미안.apti.co.kr,20011031.0,0.0,582.0,15.0,46922.42,4718.0,38952408,0,0,163136,0,0,10714,0,11289280,0,202401,서울특별시 성동구 금호동1,37.5498117662458,127.027007919852
1120010900,아파트,복도식,개별난방,위탁관리,임대,서울특별시 성동구 행당로6길 2,1214.0,벽산조합(주택조합),서울특별시 성동구 금호동1가 632- 금호벽산(임대),2.0,벽산건설,A13309103,4,0222982381,56185.134,0.0,0.0,1214.0,0.0,금호벽산(임대),68247.77,0222982380,20,happy.i-sh.co.kr/main.do?deptid=70163,20011203.0,12.0,1214.0,20.0,36262.18,4718.0,30217431,0,0,270619,0,0,0,0,8927300,0,202401,서울특별시 성동구 금호동1,37.5553937219904,127.025371864252
1120011100,아파트,계단식,개별난방,위탁관리,분양,서울특별시 성동구 금호산길 27,323.0,한신공영,서울특별시 성동구 금호동3가 1662- 금호한신휴플러스,3.0,한신공영,A13309301,3,0222310387,32773.58,58.0,0.0,153.0,112.0,금호한신휴플러스,48999.09,0222310386,15, ,20050729.0,10.0,323.0,15.0,25805.55,4724.0,21982220,387500,0,130205,393,0,5603,0,6764340,0,202401,서울특별시 성동구 금호동3,37.5505494639051,127.017088285139
1120011200,아파트,계단식,개별난방,위탁관리,분양,서울특별시 성동구 동호로 84,249.0,윤산공영개발(주),서울특별시 성동구 금호동4가 1250- 금호동롯데아파트,2.0,롯데건설,A13309402,3,0222921243,28548.81,0.0,0.0,0.0,249.0,금호동롯데아파트,36396.98,0222921250,24, ,20030109.0,7.0,249.0,24.0,21160.21,4725.0,16446346,0,0,71346,0,0,3785,0,5323910,0,202401,서울특별시 성동구 금호동4,37.5467697240475,127.016811877112
1120011200,아파트,혼합식,개별난방,위탁관리,분양,서울특별시 성동구 독서당로 272,1181.0,금호제8지구재건축조합,서울특별시 성동구 금호동4가 800- 금호대우,3.0,대우건설,A13309404,14,0222992953,129558.114,297.0,0.0,384.0,500.0,금호대우,129558.114,0222992952,24,금호대우아파트.apti.co.kr,20010503.0,27.0,1181.0,24.0,99488.25,4738.0,81654170,0,0,341547,0,0,21042,0,24941800,0,202401,서울특별시 성동구 금호동4,37.5453300340479,127.017925368592
1120011300,아파트,혼합식,중앙난방,위탁관리,분양,서울특별시 성동구 독서당로 191,900.0,옥수 제 4재개발 조합,서울특별시 성동구 옥수동 428- 옥수극동,0.0,극동건설,A13310004,8,0222978446,111509.01,0.0,360.0,150.0,390.0,옥수극동,119053.0,0222978440,15,옥수극동.apti.co.kr/,19861224.0,25.0,900.0,15.0,90610.2,4732.0,75137871,0,181207180,281786,0,0,0,4198,4827700,0,202401,서울특별시 성동구 옥수동 428-,37.5445928680771,127.011984339203
1120011400,아파트,계단식,개별난방,위탁관리,분양,서울특별시 성동구 뚝섬로5길 17,159.0,성수금호3차 재건축조헙,서울특별시 성동구 성수동1가 714- 성수금호3차,0.0,금호산업(주),A13311101,3,024685224,15867.7669,0.0,0.0,32.0,127.0,성수금호3차,23432.76,024685222,17,성수금호3차.com,20030925.0,5.0,159.0,17.0,12709.9,4780.0,12799280,0,0,48564,0,0,5880,0,6499300,0,202401,서울특별시 성동구 성수동1,37.5422272066323,127.050261708117
1120011500,아파트,계단식,개별난방,위탁관리,분양,서울특별시 성동구 뚝섬로 434,157.0,두산건설,서울특별시 성동구 성수동2가 838- 성수두산위브,1.0,두산건설,A13312101,3,024648687,16949.1835,48.0,24.0,0.0,85.0,성수두산위브,27670.71,024610170,13,dsweve.or.kr,20060530.0,6.0,157.0,13.0,16949.18,4777.0,15448424,0,0,59654,0,0,3522,0,3617500,0,202401,서울특별시 성동구 성수동2,37.5375593271832,127.058438373922
1120011500,아파트,계단식,개별난방,위탁관리,분양,서울특별시 성동구 성수일로8길 47,604.0,"성수2차재건축조함,롯데건설(주)",서울특별시 성동구 성수동2가 835- 성수롯데캐슬,2.0,롯데건설(주),A13312302,7,024641443,72140.48,381.0,0.0,32.0,191.0,성수롯데캐슬,105875.0,024641413,25, ,20030930.0,14.0,604.0,25.0,57821.311,4794.0,47365920,0,0,199889,0,0,10297,0,11467610,0,202401,서울특별시 성동구 성수동2,37.5467864846037,127.055595974906
1120011500,아파트,계단식,개별난방,위탁관리,분양,서울특별시 성동구 성수이로 137,656.0,현대산업개발주식회사,서울특별시 성동구 성수동2가 834- 성수아이파크,2.0,현대산업개발주식회사,A13312303,11,024632845,80824.6,420.0,0.0,0.0,236.0,성수아이파크,80825.0,024632844,25, ,20030828.0,17.0,656.0,25.0,65859.4,4795.0,46702495,0,0,208591,0,0,13031,0,14991570,0,202401,서울특별시 성동구 성수동2,37.547925110995,127.056473146865
1120011800,아파트,계단식,개별난방,위탁관리,혼합,서울특별시 성동구 동일로 237,241.0,현대산업개발,서울특별시 성동구 송정동 104- 서울숲아이파크,2.0,시간선택,A13316001,6,024992002,27454.82,29.0,0.0,1.0,211.0,서울숲아이파크,41383.77,024992024,15, ,20090312.0,6.0,241.0,15.0,20757.45,4800.0,22228022,0,0,80615,0,0,4250,0,4941670,0,202401,서울특별시 성동구 송정동 104-,37.5525009261755,127.068702120931
1120010400,주상복합,복도식,개별난방,위탁관리,분양,서울특별시 성동구 무학로6길 50,342.0,왕십리종합시장재건축조합,서울특별시 성동구 도선동 69- 성동삼성쉐르빌,4.0,삼성중공업,A13370801,3,0233959337,51975.4,0.0,0.0,0.0,342.0,성동삼성쉐르빌,51975.47,0233959336,27, ,20060913.0,8.0,342.0,27.0,28489.38,4709.0,32370260,0,0,102801,0,0,6239,0,5843900,0,202401,서울특별시 성동구 도선동 69-,37.5645961982208,127.035023853624
1120011400,아파트,혼합식,개별난방,위탁관리,분양,서울특별시 성동구 상원6길 16,283.0,한일연립 재건축조합,서울특별시 성동구 성수동1가 709- 성수2차대우,2.0,대우건설,A13372101,5,024986263,28260.34,0.0,0.0,96.0,187.0,성수2차대우,37148.48,024986354,19, ,19990731.0,6.0,283.0,19.0,21633.07,4790.0,22677215,0,0,83854,0,0,10218,0,23216440,0,202401,서울특별시 성동구 성수동1,37.5485289774262,127.050254849242
1120011400,아파트,계단식,개별난방,위탁관리,분양,서울특별시 성동구 상원길 63,777.0,남광토건,서울특별시 성동구 성수동1가 706- 성수쌍용,2.0,남광토건,A13372102,9,0264512083,72406.9512,0.0,0.0,452.0,325.0,성수쌍용,92791.77,0264519531,23,ssangyong777.apti.co.kr,19971007.0,20.0,777.0,23.0,54565.02,4788.0,44818680,684430,0,210428,0,0,0,0,886080,0,202401,서울특별시 성동구 성수동1,37.5501345022163,127.047109026111
1120010700,아파트,복도식,개별난방,위탁관리,임대,서울특별시 성동구 고산자로 164,159.0,한신건설주식회사,서울특별시 성동구 행당동 350- 행당한신임대,2.0,한신건설주식회사,A13373101,1,0222985168,6776.58,0.0,0.0,159.0,0.0,행당한신임대,10676.97,0222985010,16, ,20031223.0,2.0,159.0,16.0,4464.72,4746.0,4375569,0,0,27207,0,0,1576,0,1257180,0,202401,서울특별시 성동구 행당동 350-,37.5550687570722,127.035424100115
1120010100,아파트,계단식,개별난방,위탁관리,분양,서울특별시 성동구 마장로 137,937.0,왕십리뉴타운제2구역주택재개발 정비사업조합,서울특별시 성동구 상왕십리동 811- 텐즈힐2구역,2.0,"GS건설,현대산업개발,삼성물산,대림산업",A13373301,13,0222973103,111637.041,182.0,44.0,148.0,563.0,텐즈힐2구역,195447.98,0222973102,25,tenshill2.apti.co.kr,20140626.0,33.0,937.0,25.0,86644.16,4700.0,90607270,0,0,333329,0,0,16693,0,19260500,0,202401,서울특별시 성동구 상왕십리동 811-,37.5678250213489,127.025053595952
1120010100,아파트,복도식,개별난방,위탁관리,임대,서울특별시 성동구 마장로 137,211.0,왕십리뉴타운2구역조합,서울특별시 성동구 상왕십리동 811- 왕십리텐즈힐2구역214동,0.0,대림산업건설,A13373302,1,0222979902,7678.29,0.0,0.0,211.0,0.0,왕십리텐즈힐2구역214동,18667.56,0222979901,13, ,20140626.0,4.0,211.0,25.0,7678.29,4700.0,9877946,0,0,44809,0,0,0,0,0,0,202401,서울특별시 성동구 상왕십리동 811-,37.5678250213489,127.025053595952
1120011300,아파트,혼합식,중앙난방,위탁관리,분양,서울특별시 성동구 독서당로 156,535.0,중앙건설,서울특별시 성동구 옥수동 220-1 한남하이츠,0.0,중앙건설,A13375901,8,0222986620,75885.81,249.0,286.0,0.0,0.0,한남하이츠,75885.81,0222986601,14, ,19820918.0,15.0,535.0,14.0,69936.63,4736.0,58246140,0,138990450,169725,0,0,8705,2686,11632330,0,202401,서울특별시 성동구 옥수동 220-1,37.5395083271239,127.013812696365
1120011300,아파트,혼합식,중앙난방,위탁관리,분양,서울특별시 성동구 독서당로 218,1114.0,삼성물산(주),서울특별시 성동구 옥수동 250- 옥수삼성,2.0,삼성물산(주),A13375902,10,0264958334,119140.4616,273.0,0.0,412.0,429.0,옥수삼성,156220.26,0222988330,20, ,19990420.0,24.0,1114.0,20.0,92288.856,4734.0,70433670,0,181045262,288661,0,120506,11640,5948,20529900,32297640,202401,서울특별시 성동구 옥수동 250-,37.5426294442931,127.015554372439
1120011300,아파트,계단식,개별난방,위탁관리,분양,서울특별시 성동구 뚝섬로 51,269.0,풍림산업,서울특별시 성동구 옥수동 60- 옥수강변풍림아이원,2.0,풍림산업,A13375903,5, ,28477.416,0.0,0.0,0.0,269.0,옥수강변풍림아이원,37631.302,0222923150,15, ,20041029.0,8.0,269.0,15.0,22802.253,4739.0,17954420,391500,0,79643,0,0,0,0,0,0,202401,서울특별시 성동구 옥수동 60-,37.5424819793086,127.01959913598
1120011300,아파트,복도식,개별난방,위탁관리,임대,서울특별시 성동구 한림말길 50,237.0,sh공사,서울특별시 성동구 옥수동 100- 옥수하이츠제2,0.0,(주)중앙건설,A13375904,1,0222983672,12492.27,0.0,0.0,237.0,0.0,옥수하이츠제2,12493.0,0222987021,18,happy.i-sh.co.kr,19980330.0,2.0,237.0,18.0,7209.54,4736.0,6416510,0,0,52661,0,0,0,0,109060,0,202401,서울특별시 성동구 옥수동 100-,37.5399397859799,127.016822903142
1120011300,아파트,복도식,개별난방,위탁관리,임대,서울특별시 성동구 독서당로 218,330.0,삼성,서울특별시 성동구 옥수동 250-5 옥수삼성임대,2.0,삼성,A13375905,1,0222960122,17325.0,0.0,0.0,330.0,0.0,옥수삼성임대,21813.0,0222960121,20,sh단지홈페이지,19990420.0,3.0,330.0,20.0,10810.8,4734.0,10395640,0,0,60696,0,0,3767,0,3487350,0,202401,서울특별시 성동구 옥수동 250-5,37.5426294442931,127.015554372439
1120011300,아파트,계단식,개별난방,위탁관리,분양,서울특별시 성동구 독서당로40길 37,297.0,옥수빙고지역주택조합,서울특별시 성동구 옥수동 560- 어울림더리버아파트,3.0,금호건설,A13375906,6,0222920856,34015.611,40.0,0.0,7.0,250.0,어울림더리버아파트,59495.0,0222920850,20, ,20111230.0,10.0,297.0,20.0,26725.37,4739.0,25453580,0,0,98437,0,0,5061,0,6013100,0,202401,서울특별시 성동구 옥수동 560-,37.5418507402833,127.017887760913
1120011300,아파트,계단식,개별난방,위탁관리,분양,서울특별시 성동구 매봉길 15,1511.0,옥수제12구역주택재개발정비사업조합,서울특별시 성동구 옥수동 561- 래미안옥수리버젠,3.0,삼성물산,A13375907,15,0222910983,155684.15,211.0,0.0,700.0,600.0,래미안옥수리버젠,234749.48,0222910991,20,riverzen.apti.co.kr,20121228.0,0.0,1511.0,20.0,117871.91,4733.0,133546654,0,0,472309,0,0,26477,0,32237250,0,202401,서울특별시 성동구 옥수동 561-,37.5460598514009,127.013847173899
1120011300,아파트,복도식,개별난방,위탁관리,임대,서울특별시 성동구 매봉길 17,310.0,삼성건설,서울특별시 성동구 옥수동 500- 래미안옥수리버젠제2임대,3.0,삼성건설,A13375908,3,0222822332,19472.59,0.0,0.0,310.0,0.0,래미안옥수리버젠제2임대,29618.77,0222822727,15, ,20130415.0,6.0,310.0,15.0,12393.8,4733.0,13688160,0,0,71513,0,0,5037,0,5393910,0,202401,서울특별시 성동구 옥수동 500-,37.5464825265845,127.014460917697
1120011300,아파트,,,,,서울 성동구 한림말길 24,, ,서울특별시 성동구 옥수동 557- 극동옥정,0.0, ,A13375909,1, ,0.0,0.0,0.0,35.0,37.0,극동옥정,, ,1, ,,,72.0,13.0,5146.71,,0,0,0,0,0,0,0,0,0,0,202401,서울특별시 성동구 옥수동 557-,37.5405229507013,127.013748613882
1120011400,아파트,혼합식,개별난방,자치관리,분양,서울특별시 성동구 뚝섬로 312,378.0,한진그룹 서울,서울특별시 성동구 성수동1가 704- 성수한진타운,0.0,한진건설,A13376405,5,024978789,41180.88,0.0,0.0,190.0,188.0,성수한진타운,42564.0,024978785,17, ,19940404.0,9.0,378.0,17.0,27117.48,4773.0,23273214,0,186660,103348,0,0,0,0,0,0,202401,서울특별시 성동구 성수동1,37.5412388894597,127.045627701944
1120011300,아파트,혼합식,중앙난방,위탁관리,분양,서울특별시 성동구 독서당로40길 25,566.0,현대건설,서울특별시 성동구 옥수동 4- 옥수현대,1.0,현대건설,A13376702,8,0222987346,63269.7,210.0,0.0,22.0,334.0,옥수현대,64675.14,0222987353,15, ,19900525.0,14.0,566.0,15.0,50321.6,4739.0,35494590,96023130,0,135809,0,0,8055,3104,9261890,0,202401,서울특별시 성동구 옥수동 4-,37.5433496006445,127.019302444208
1120010800,아파트,혼합식,개별난방,위탁관리,분양,서울특별시 성동구 고산자로 160,1150.0,행당구역1지구 재개발조합,서울특별시 성동구 응봉동 15- 응봉대림강변,4.0,대림산업(주),A13376906,14,0222970605,118463.333,229.0,0.0,480.0,441.0,응봉대림강변,161258.06,0222970604,23,응봉대림강변.apti.co.kr/,20011026.0,0.0,1150.0,23.0,92221.54,4747.0,76082812,0,0,332068,0,0,18535,0,22162570,0,202401,서울특별시 성동구 응봉동 15-,37.5543691154446,127.034875565118
1120010200,아파트,복도식,개별난방,위탁관리,임대,서울특별시 성동구 난계로 73,191.0,서울시,서울특별시 성동구 하왕십리동 1057- 하왕십리극동미라주2,2.0,극동건설,A13377301,1,0222824207,9322.71,0.0,0.0,191.0,0.0,하왕십리극동미라주2,12677.92,0222824206,18,happy.i-sh.co.kr/main.do?deptid=70187,20011214.0,2.0,191.0,18.0,6257.16,4721.0,5858688,0,0,35695,0,0,2207,0,1598120,0,202401,서울특별시 성동구 하왕십리동 1057-,37.5594875603578,127.023298446358
1120010200,아파트,복도식,개별난방,위탁관리,임대,서울특별시 성동구 난계로 114-31,274.0,서울시,서울특별시 성동구 하왕십리동 1053- 금호베스트빌아파트 제2관리사무소,2.0,금호건설,A13377302,1,0222913568,17160.62,0.0,0.0,274.0,0.0,금호베스트빌아파트 제2관리사무소,17358.09,0222913567,18,happy.i-sh.co.kr/main.do?deptid=70172,20011005.0,2.0,274.0,18.0,8976.24,4711.0,7609175,0,0,70267,0,0,0,0,2845340,0,202401,서울특별시 성동구 하왕십리동 1053-,37.5612312466825,127.025952317395
1120010700,아파트,혼합식,개별난방,위탁관리,분양,서울특별시 성동구 행당로 82,2123.0,금호1-6지구재개발조합,서울특별시 성동구 행당동 346- 행당한진타운,2.0,한진중공업,A13377703,21,0262122288,236231.22,570.0,0.0,748.0,805.0,행당한진타운,322555.16,0222814437,25,hanjin.tv/,20001107.0,45.0,2123.0,25.0,178375.03,4717.0,137901301,0,0,598667,0,0,35968,0,42993566,0,202401,서울특별시 성동구 행당동 346-,37.5548088817349,127.027399715208
1120010700,아파트,계단식,개별난방,위탁관리,분양,서울특별시 성동구 행당로8길 8,351.0,행당제4구역 주택재개발조합,서울특별시 성동구 행당동 375- 행당두산위브아파트,2.0,(주)두산건설,A13377901,6,0222988871,29042.44,29.0,0.0,181.0,141.0,행당두산위브아파트,50182.0,0222988872,15,행당두산위브.apti.co.kr,20091203.0,12.0,351.0,15.0,26005.73,4716.0,24074510,0,0,108226,0,0,5773,0,6713360,0,202401,서울특별시 성동구 행당동 375-,37.5572723225298,127.030951065096
1120010700,아파트,복도식,개별난방,위탁관리,임대,서울특별시 성동구 행당로 79,1005.0,sh공사,서울특별시 성동구 행당동 347- 행당대림제2,0.0,대림산업,A13377902,4,0222950515,55164.45,0.0,0.0,1005.0,0.0,행당대림제2,56551.54,0222950501,15, ,20001230.0,9.0,1005.0,15.0,32923.8,4713.0,28347160,0,0,0,0,0,11787,0,13244150,0,202401,서울특별시 성동구 행당동 347-,37.5582053468995,127.027507006183
1120010700,아파트,복도식,개별난방,위탁관리,임대,서울특별시 성동구 행당로 82,728.0,금호1-6 재계발조합,서울특별시 성동구 행당동 346-1 행당한진타운제2,1.0,한진건설(주),A13377903,4,0222972058,29854.552,0.0,0.0,728.0,0.0,행당한진타운제2,41009.0,0222972057,25, ,20001107.0,8.0,728.0,25.0,23994.88,4717.0,21046125,0,0,131746,0,0,8467,0,7154190,0,202401,서울특별시 성동구 행당동 346-1,37.5548088817349,127.027399715208
1120011500,아파트,계단식,개별난방,위탁관리,분양,서울특별시 성동구 성수일로4길 26,445.0,kt,서울특별시 성동구 성수동2가 843- 서울숲힐스테이트,2.0,현대건설,A13378001,5,024659326,47463.94,132.0,137.0,97.0,79.0,서울숲힐스테이트,96113.72,024659324,29,www.sfhills.kr,20090601.0,11.0,445.0,29.0,47463.94,4780.0,61658854,0,0,200601,0,0,8688,0,6722600,0,202401,서울특별시 성동구 성수동2,37.541500373673,127.051508271285
1120011200,아파트,복도식,개별난방,위탁관리(직영+위탁),임대,서울특별시 성동구 독서당로 272,508.0,서울시,서울특별시 성동구 금호동4가 801- 금호대우임대,3.0,대우건설,A13378101,3,0222985074,30127.448,0.0,0.0,508.0,0.0,금호대우임대,30127.45,0222985073,21,happy.i-sh.co.kr/main.do?deptid=70164,20010503.0,6.0,508.0,21.0,16743.68,4738.0,16485220,0,0,95534,0,0,5874,0,5809690,0,202401,서울특별시 성동구 금호동4,37.5453300340479,127.017925368592
1120011200,아파트,계단식,개별난방,위탁관리,분양,서울특별시 성동구 금호로 17,586.0,정비사업조합,서울특별시 성동구 금호동4가 235- 서울숲2차푸르지오,2.0,대우건설,A13378102,11,0222819325,57694.57,58.0,0.0,271.0,257.0,서울숲2차푸르지오,57699.0,0222819323,15, ,20120816.0,23.0,586.0,15.0,44687.449,4737.0,53893140,0,0,191270,0,0,10189,0,11168000,0,202401,서울특별시 성동구 금호동4,37.5468826236179,127.024072726848
1120011200,아파트,복도식,개별난방,위탁관리,임대,서울특별시 성동구 금호로3길 11,121.0,SH공사,서울특별시 성동구 금호동4가 235-1 서울숲2차푸르지오임대,2.0,대우건설,A13378103,1,0222915132,5467.022,0.0,0.0,121.0,0.0,서울숲2차푸르지오임대,9911.39,0222915131,12,cs70294,20120816.0,2.0,121.0,12.0,3694.372,4737.0,4011860,0,0,25621,0,0,1421,0,1201960,0,202401,서울특별시 성동구 금호동4,37.5474513708768,127.023891738558
1120011100,아파트,혼합식,개별난방,위탁관리,혼합,서울특별시 성동구 금호산8길 14,403.0,금호자이,서울특별시 성동구 금호동3가 700- 금호자이2차,3.0,금호자이,A13379001,6,0232986692,37849.21,40.0,0.0,199.0,164.0,금호자이2차,59585.591,0232986691,22, ,20120705.0,0.0,403.0,22.0,28535.2676,4729.0,35646070,0,0,120045,0,0,12598,0,746690,0,202401,서울특별시 성동구 금호동3,37.5507159307073,127.022190308229
1120011400,주상복합,계단식,개별난방,위탁관리,분양,서울특별시 성동구 서울숲2길 32-14,230.0,갤러리아포레(주),서울특별시 성동구 성수동1가 685-696 성수갤러리아포레,6.0,(주)한화건설,A13379401,2,024692301,64396.6974,0.0,230.0,0.0,0.0,성수갤러리아포레,170841.46,024665509,44, ,20110729.0,8.0,230.0,44.0,46636.01,4769.0,78197697,0,0,162292,0,0,4714,0,8130120,0,202401,서울특별시 성동구 성수동1,37.5456773286722,127.042914714267
1120010900,아파트,혼합식,개별난방,위탁관리,분양,서울특별시 성동구 금호로 100,1707.0,재개발,서울특별시 성동구 금호동1가 633- 금호벽산,0.0,벽산,A13380104,20,0262134309,189860.641,498.0,0.0,507.0,702.0,금호벽산,267104.84,0262136301,20,www.intm.com/금호벽산/,20011203.0,39.0,1707.0,20.0,146968.8,4718.0,122835220,357920,0,478851,0,0,24905,0,28329280,0,202401,서울특별시 성동구 금호동1,37.5545314695033,127.026186636459
1120011000,아파트,계단식,개별난방,위탁관리,분양,서울특별시 성동구 금호로 117,401.0,금호17구역재개발조합,서울특별시 성동구 금호동2가 1215- 금호자이1차,4.0,GS건설,A13380301,4,0222567129,41708.72,30.0,0.0,140.0,231.0,금호자이1차,71038.19,0222567128,20,금호동자이1차apti.co.kr,20120518.0,18.0,401.0,20.0,31542.63,4728.0,37938127,0,0,179236,0,0,0,0,0,0,202401,서울특별시 성동구 금호동2,37.5530604673758,127.021435595291
1120011000,아파트,계단식,개별난방,위탁관리,분양,서울특별시 성동구 금호로 107,847.0,제19구역 재개발조합,서울특별시 성동구 금호동2가 1217- 래미안하이리버,4.0,삼성물산,A13380302,10,0222567139,88821.41,112.0,0.0,358.0,377.0,래미안하이리버,138528.32,0222567138,20,hiriver.co.kr,20120518.0,19.0,847.0,20.0,66318.48,4728.0,73968050,0,0,275163,0,0,13674,0,15033520,0,202401,서울특별시 성동구 금호동2,37.5522556007829,127.024255637712
1120011000,아파트,복도식,개별난방,위탁관리,임대,서울특별시 성동구 금호로 111,306.0,SH공사,서울특별시 성동구 금호동2가 1216- 래미안하이리버제2임대,4.0,삼성물산,A13380303,2,0222565133,16932.204,0.0,0.0,306.0,0.0,래미안하이리버제2임대,29659.0,0222565131,15,하이리버.apti.co.kr,20120518.0,4.0,306.0,15.0,11609.64,4728.0,12808360,0,0,71766,0,0,4034,0,4221010,0,202401,서울특별시 성동구 금호동2,37.5513725315125,127.022906964406
1120011100,아파트,계단식,개별난방,위탁관리,분양,서울특별시 성동구 금호산8길 5,336.0,대우건설(주),서울특별시 성동구 금호동3가 917- 금호1차푸르지오,3.0,대우건설(주),A13380602,8,0222357987,32950.86,57.0,0.0,142.0,137.0,금호1차푸르지오,40049.84,0222357986,15, ,20050531.0,14.0,336.0,15.0,26692.78,4726.0,21795849,0,0,93555,0,0,5065,0,6914130,0,202401,서울특별시 성동구 금호동3,37.5505579822553,127.020721706692
1120011100,아파트,혼합식,개별난방,위탁관리,분양,서울특별시 성동구 동호로 100,1267.0,금호5-1지구재개발조합,서울특별시 성동구 금호동3가 1331- 금호두산,0.0,두산건설,A13380703,16,0222375769,139154.01,397.0,0.0,335.0,535.0,금호두산,144393.75,0222363749,15,금호두산.apti.co.kr/,19940916.0,28.0,1267.0,15.0,111337.95,4724.0,67661761,982970,0,324934,0,0,0,0,3039340,0,202401,서울특별시 성동구 금호동3,37.5513284722706,127.016416476579
1120011200,아파트,혼합식,개별난방,위탁관리,분양,서울특별시 성동구 금호로 15,888.0,(주)대우건설,서울특별시 성동구 금호동4가 340- 서울숲푸르지오,3.0,(주)대우건설,A13380803,19,0222820063,86521.36,177.0,0.0,369.0,342.0,서울숲푸르지오,129857.85,0222820061,18, ,20070731.0,28.0,888.0,18.0,71398.35,4740.0,68681179,0,0,262015,0,0,13653,0,16824190,0,202401,서울특별시 성동구 금호동4,37.5438475070221,127.022764235413
1120011200,아파트,계단식,개별난방,위탁관리,분양,서울특별시 성동구 매봉길 24,217.0,(주)갑조건설,서울특별시 성동구 금호동4가 1507- 브라운스톤금호아파트,3.0,이수건설,A13380901,5,0222810522,22915.2,0.0,0.0,0.0,217.0,브라운스톤금호아파트,32531.0,0222810541,15, ,20070330.0,9.0,217.0,15.0,18409.846,4733.0,15688070,0,0,64759,0,0,0,0,0,0,202401,서울특별시 성동구 금호동4,37.547255958703,127.015755062829
1120010500,아파트,혼합식,개별난방,자치관리,분양,서울특별시 성동구 마장로 262,170.0,중앙건설,서울특별시 성동구 마장동 819- 왕십리중앙하이츠,2.0,중앙건설,A13381601,2,0222999778,16671.13,0.0,0.0,81.0,89.0,왕십리중앙하이츠,22238.24,0222999779,23, ,19990531.0,3.0,170.0,23.0,12407.2,4759.0,10728650,3330,0,44693,0,0,2829,0,3027250,0,202401,서울특별시 성동구 마장동 819-,37.5653568952724,127.039358530966
1120010500,아파트,계단식,개별난방,위탁관리,분양,서울특별시 성동구 마조로 57,367.0,"금호건설, 범우재건축조합",서울특별시 성동구 마장동 820- 마장동금호어울림,0.0,금호건설(주),A13381604,6,0264694889,40749.66,84.0,0.0,37.0,246.0,마장동금호어울림,57538.48,0222824889,24, ,20060927.0,9.0,367.0,24.0,32512.42,4759.0,25190560,0,0,144894,0,0,7683,0,8930380,0,202401,서울특별시 성동구 마장동 820-,37.5629873669583,127.039890271396
1120010500,아파트,혼합식,개별난방,위탁관리,분양,서울특별시 성동구 마장로35길 76,1017.0,고려산업개발(주),서울특별시 성동구 마장동 818- 청계현대아파트,0.0,고려산업개발(주),A13381608,11,0222954720,110636.516,165.0,44.0,474.0,334.0,청계현대아파트,110636.516,0222954035,28, ,19980414.0,18.0,1017.0,28.0,86258.13,4753.0,64857140,0,0,302185,0,0,0,0,0,0,202401,서울특별시 성동구 마장동 818-,37.5702626286176,127.041996762487
1120010600,아파트,복도식,개별난방,위탁관리,분양,서울특별시 성동구 사근동길 67,270.0,중앙건설,서울특별시 성동구 사근동 199- 사근중앙하이츠,1.0,중앙건설,A13381701,2,0222966726,25045.74,0.0,0.0,0.0,270.0,사근중앙하이츠,25045.74,0222966725,15, ,19890912.0,3.0,270.0,15.0,19399.5,4761.0,14096200,0,0,65917,0,0,0,0,214700,0,202401,서울특별시 성동구 사근동 199-,37.5613099624809,127.048377703832
1120011400,아파트,혼합식,개별난방,자치관리,분양,서울특별시 성동구 뚝섬로3길 6,219.0,현대건설,서울특별시 성동구 성수동1가 33-2 성수현대그린,2.0,현대건설,A13381902,1,024692204,23119.44,0.0,0.0,51.0,168.0,성수현대그린,26446.0,024692204,19, ,19940204.0,5.0,219.0,19.0,16594.11,4780.0,0,0,0,0,0,0,0,0,0,0,202401,서울특별시 성동구 성수동1,37.5405756526752,127.050312196257
1120011400,아파트,혼합식,개별난방,위탁관리,분양,서울특별시 성동구 뚝섬로 311,372.0,성수장미연립재건축조합,서울특별시 성동구 성수동1가 656-234 서울숲대림아파트,2.0,대림산업(주),A13382104,6,0262171817,36039.3,0.0,0.0,178.0,194.0,서울숲대림아파트,45557.76,024621817,15, ,20001027.0,10.0,372.0,15.0,26907.03,4778.0,26407030,0,0,99626,0,0,5993,0,6605550,0,202401,서울특별시 성동구 성수동1,37.5416640127033,127.045778906465
1120011400,아파트,복도식,개별난방,자치관리,분양,서울특별시 성동구 왕십리로 80-1,390.0,동아주택,서울특별시 성동구 성수동1가 656-320 성수동아,1.0,동아주택,A13382106,3,024621783,32759.779,200.0,0.0,190.0,0.0,성수동아,34021.47,024621788,10, ,19830903.0,5.0,390.0,10.0,29315.3,4778.0,18674550,0,0,114395,0,0,4517,0,5578440,0,202401,서울특별시 성동구 성수동1,37.5447066242781,127.045242478548
1120011400,아파트,혼합식,개별난방,자치관리,분양,서울특별시 성동구 서울숲길 25,217.0,현대건설(주),서울특별시 성동구 성수동1가 676-5 성수현대,1.0,현대건설(주),A13382502,3,024993992,20954.48,0.0,0.0,54.0,163.0,성수현대,21431.0,024993993,15, ,19900922.0,6.0,217.0,15.0,16138.02,4766.0,2213910,0,0,10733,0,0,0,0,0,0,202401,서울특별시 성동구 성수동1,37.5483987944414,127.040626087864
1120011500,아파트,복도식,개별난방,위탁관리,분양,서울특별시 성동구 성수이로 3,202.0,한신공영,서울특별시 성동구 성수동2가 442- 성수한강한신,3.0,한신공영,A13382802,2,0264674571,22036.3618,0.0,0.0,76.0,126.0,성수한강한신,29037.34,02-498-4571,19, ,20000919.0,6.0,202.0,19.0,15262.42,4775.0,14206930,0,0,55114,0,0,3136,0,3839010,0,202401,서울특별시 성동구 성수동2,37.535911068404,127.052013347604
1120011500,아파트,혼합식,개별난방,위탁관리,분양,서울특별시 성동구 둘레15길 7,246.0,000,서울특별시 성동구 성수동2가 712- 성수청구강변,2.0,000,A13383003,1,024611861,26413.2,0.0,0.0,36.0,210.0,성수청구강변,29906.0,024671340,21, ,19940404.0,7.0,246.0,21.0,19982.16,4776.0,14063760,0,0,63877,0,0,0,0,0,0,202401,서울특별시 성동구 성수동2,37.535250573518,127.054546043422
1120011500,아파트,혼합식,개별난방,위탁관리,분양,서울특별시 성동구 성수일로10길 3,221.0,우방건설,서울특별시 성동구 성수동2가 286- 성수우방2차,2.0,우방건설,A13383301,1,024696088,21596.28,0.0,0.0,103.0,118.0,성수우방2차,27354.0,024696087,18, ,19991208.0,5.0,221.0,18.0,16097.81,4793.0,14894750,0,0,61731,0,0,3740,0,4312210,0,202401,서울특별시 성동구 성수동2,37.5486617968778,127.05148128679
1120011800,아파트,혼합식,개별난방,위탁관리,분양,서울특별시 성동구 동일로 263,447.0,건영,서울특별시 성동구 송정동 90- 송정건영,0.0,건영,A13383702,3,024976107,45004.9544,32.0,0.0,199.0,216.0,송정건영,53703.07,024986108,25,송정건영.apti.co.kr/aptHome/,20000510.0,9.0,447.0,25.0,33700.59,4800.0,27430941,0,0,123707,0,0,6794,0,5104970,0,202401,서울특별시 성동구 송정동 90-,37.5562716907636,127.071436032611
1120011300,아파트,계단식,개별난방,위탁관리,분양,서울특별시 성동구 한림말길 50,536.0,중앙건설,서울특별시 성동구 옥수동 100- 옥수중앙하이츠,1.0,중앙건설,A13383801,9,0222942179,66451.498,288.0,0.0,0.0,248.0,옥수중앙하이츠,94933.5,0222942178,21, ,19980330.0,19.0,536.0,21.0,54099.88,4736.0,37555260,766670,0,173135,5914,0,0,0,1106265,0,202401,서울특별시 성동구 옥수동 100-,37.5399397859799,127.016822903142
1120011400,아파트,혼합식,개별난방,위탁관리,분양,서울특별시 성동구 상원1길 17,168.0,한양연립재건축조합,서울특별시 성동구 성수동1가 707- 한양현대아파트,2.0,현대건설(주),A13384301,1,024987739,16363.2,0.0,0.0,74.0,94.0,한양현대아파트,21985.89,024987789,19, ,19990113.0,4.0,168.0,19.0,12404.0,4779.0,10576060,0,0,44707,0,0,5276,0,6577510,0,202401,서울특별시 성동구 성수동1,37.5454391560957,127.047711015128
1120011400,아파트,계단식,개별난방,위탁관리,분양,서울특별시 성동구 상원길 47,256.0,중앙건설,서울특별시 성동구 성수동1가 715- 뚝섬중앙하이츠빌,0.0,중앙건설,A13384303,3,024624851,27640.32,0.0,0.0,0.0,256.0,뚝섬중앙하이츠빌,33907.0,024624850,23, ,20031027.0,6.0,256.0,23.0,21740.5678,4789.0,18411770,0,0,81167,0,0,4472,0,4873910,0,202401,서울특별시 성동구 성수동1,37.547843740667,127.04726623735
1120011400,아파트,혼합식,개별난방,위탁관리,분양,서울특별시 성동구 상원길 76,331.0,동아건설산업,서울특별시 성동구 성수동1가 708- 성수동아그린,2.0,동아건설산업,A13384304,2,024626562,33407.96,48.0,0.0,136.0,147.0,성수동아그린,44333.068,024626561,18, ,19990611.0,10.0,331.0,18.0,25793.41,4791.0,21245630,0,0,91633,0,0,0,0,0,0,202401,서울특별시 성동구 성수동1,37.5508599943308,127.048424929103
1120011300,아파트,혼합식,개별난방,위탁관리,혼합,서울특별시 성동구 독서당로 175,583.0,극동건설,서울특별시 성동구 옥수동 436- 옥수극동그린아파트,0.0,극동건설,A13384403,5,0222960058,56165.53,190.0,0.0,247.0,146.0,옥수극동그린아파트,69364.43,0222960443,19, ,19971002.0,11.0,583.0,19.0,43288.52,4732.0,38035247,375110,0,148818,0,0,7897,0,10611320,0,202401,서울특별시 성동구 옥수동 436-,37.5416160761673,127.009810204177
1120010800,아파트,복도식,개별난방,위탁관리,분양,서울특별시 성동구 독서당로 431,410.0,대림산업,서울특별시 성동구 응봉동 97- 응봉대림2차,1.0,대림산업,A13385202,3,0222966630,41441.3194,0.0,0.0,156.0,254.0,응봉대림2차,42692.0,0222927756,15, ,19890921.0,6.0,410.0,15.0,30816.58,4720.0,20507630,0,0,107894,0,0,0,0,102490,0,202401,서울특별시 성동구 응봉동 97-,37.553710048311,127.032948865882
1120010800,아파트,계단식,개별난방,위탁관리,분양,서울특별시 성동구 고산자로4길 34,375.0,행당구역3지구 주택재개발,서울특별시 성동구 응봉동 276- 서울숲리버그린동아,2.0,동아건설,A13385301,5,0222910454,39484.8514,71.0,0.0,162.0,142.0,서울숲리버그린동아,52278.9,0222910453,25, ,20030607.0,9.0,375.0,25.0,29909.4,4747.0,25003567,0,0,106830,0,0,6667,0,7844010,0,202401,서울특별시 성동구 응봉동 276-,37.5526533730412,127.036859978442
1120010800,아파트,혼합식,개별난방,위탁관리,분양,서울특별시 성동구 독서당로 375,434.0,금호 제 14지구,서울특별시 성동구 응봉동 275- 응봉신동아,1.0,신동아건설(주),A13385303,4,0222944192,43582.4136,28.0,0.0,210.0,196.0,응봉신동아,43949.37,0222941502,15, ,19960409.0,10.0,434.0,15.0,32040.06,4720.0,22533310,0,0,114319,0,0,6824,0,8125200,0,202401,서울특별시 성동구 응봉동 275-,37.5495375702385,127.029000872671
1120010200,아파트,계단식,개별난방,위탁관리,분양,서울특별시 성동구 왕십리로31나길 22,480.0,한신공영,서울특별시 성동구 하왕십리동 990- 한신무학,1.0,한신공영,A13385705,5,0222917288,41769.42,237.0,0.0,0.0,243.0,한신무학,58197.86,0222964820,15, ,19890330.0,17.0,480.0,15.0,41769.42,4710.0,27046800,0,0,142057,0,0,8030,0,10579750,0,202401,서울특별시 성동구 하왕십리동 990-,37.5623897051914,127.028483736629
1120010200,아파트,계단식,개별난방,위탁관리,분양,서울특별시 성동구 무학봉길 49,277.0,현대산업개발,서울특별시 성동구 하왕십리동 992- 무학현대,1.0,현대산업개발,A13385802,3,0222920234,23453.59,0.0,0.0,0.0,277.0,무학현대,30399.02,0222927852,15, ,19960315.0,10.0,277.0,15.0,23428.335,4711.0,17539700,0,0,83621,0,0,0,0,158700,0,202401,서울특별시 성동구 하왕십리동 992-,37.5615648576502,127.028045292728
1120010700,아파트,계단식,개별난방,위탁관리,분양,서울특별시 성동구 고산자로 164,1410.0,행당제2지구재개발아파트,서울특별시 성동구 행당동 349- 서울숲한신더휴아파트,3.0,한신공영(주),A13386702,19,0222816273,150675.98,310.0,0.0,470.0,630.0,서울숲한신더휴아파트,198941.13,0222816272,25,hdhanshin.apti.co.kr,20031223.0,34.0,1410.0,25.0,117322.54,4746.0,93843990,195920,0,536922,0,0,24258,0,29431410,0,202401,서울특별시 성동구 행당동 349-,37.5550687570722,127.035424100115
1120010200,아파트,복도식,개별난방,위탁관리,임대,서울특별시 성동구 무학로 50,510.0,청계벽산,서울특별시 성동구 하왕십리동 258- 청계벽산아파트제2관리사무소,0.0,청계벽산,A13388001,2,0222913531,20598.9,0.0,0.0,510.0,0.0,청계벽산아파트제2관리사무소,20598.9,0222913553,15,13388001,19960607.0,4.0,510.0,15.0,13719.0,4703.0,10355550,0,0,98153,0,0,3652,0,2319980,0,202401,서울특별시 성동구 하왕십리동 258-,37.5691096001774,127.032672663162
1120011400,아파트,계단식,개별난방,위탁관리,분양,서울특별시 성동구 왕십리로 36,580.0,LIG,서울특별시 성동구 성수동1가 710- 강변건영,2.0,(주)건영,A13392307,6,024627062,62545.504,0.0,0.0,0.0,580.0,강변건영,79252.997,024627061,25, ,20020219.0,15.0,580.0,25.0,48783.595,4773.0,37807299,0,0,176295,0,0,10452,0,10013900,0,202401,서울특별시 성동구 성수동1,37.5404656250355,127.044276890259
