bjdCode,codeAptNm,codeHallNm,codeHeatNm,codeMgrNm,codeSaleNm,address,hoCnt,kaptAcompany,kaptAddr,kaptBaseFloor,kaptBcompany,kaptCode,kaptDongCnt,kaptFax,kaptMarea,kaptMparea_135,kaptMparea_136,kaptMparea_60,kaptMparea_85,kaptName,kaptTarea,kaptTel,kaptTopFloor,kaptUrl,kaptUsedate,kaptdEcntp,kaptdaCnt,ktownFlrNo,privArea,zipcode,전기사용금액,가스사용금액,난방사용금액,전기사용량,가스사용량,난방사용량,냉수사용량,온수사용량,냉수사용금액,온수사용금액,집계날짜,cleaned_address,lat,lon
1171010600,아파트,혼합식,개별난방,위탁관리,분양,서울 송파구 백제고분로22길 37,1.0,현대산업개발,서울특별시 송파구 삼전동 39- 삼전현대아파트,1.0,현대산업개발,A10021157,1,024161722,12.0,0.0,1.0,0.0,0.0,삼전현대아파트,12.0,024202822,1, ,19891122.0,3.0,1.0,,,,0,0,0,0,0,0,0,0,0,0,202401,서울특별시 송파구 삼전동 39-,37.5005368580762,127.088174225102
1171011400,아파트,혼합식,개별난방,자치관리,분양,서울 송파구 마천로35길 12,107.0,(주)건원건설,서울특별시 송파구 마천동 21- 송파건원여미지아파트,1.0,(주)건원건설,A10021237,1,024315591,8420.579,0.0,0.0,0.0,107.0,송파건원여미지아파트,10495.0,024315591,20, ,20181008.0,3.0,107.0,,,,0,0,0,0,0,0,0,0,0,0,202401,서울특별시 송파구 마천동 21-,37.4999101173808,127.145627777884
1171010700,아파트,복도식,개별난방,위탁관리,분양,서울 송파구 동남로9길 39,105.0,조합,서울특별시 송파구 가락동 142- 가락풍림아파트,1.0,풍림건설,A10021256,1,0262872832,10157.4,63.0,0.0,0.0,42.0,가락풍림아파트,13508.0,024072831,1, ,19951130.0,,105.0,,,,0,0,0,0,0,0,0,0,0,0,202401,서울특별시 송파구 가락동 142-,37.4955569628157,127.126239074838
1171010700,주상복합,복도식,중앙난방,위탁관리,분양,서울 송파구 송파대로30길 16,113.0,주식회사 로쿠스,서울특별시 송파구 가락동 98- 송파가락두산위브센티움,3.0,주)두산건설,A10021390,1,0234020774,6295.7,0.0,0.0,64.0,49.0,송파가락두산위브센티움,14137.0,0234020773,1, ,20040329.0,2.0,113.0,,,,0,0,0,0,0,0,0,0,0,0,202401,서울특별시 송파구 가락동 98-,37.4945889149409,127.119131071387
1171011300,아파트,계단식,개별난방,위탁관리,분양,서울 송파구 오금로56길 28,140.0,어울림거여동아파트관리사무소,서울특별시 송파구 거여동 593- 어울림거여동아파트,2.0,어울림거여동아파트관리사무소,A10021407,3,0260128733,17572.56,124.0,16.0,0.0,0.0,어울림거여동아파트,,024081733,1, ,20031129.0,0.0,140.0,,,,0,0,0,0,0,0,0,0,0,0,202401,서울특별시 송파구 거여동 593-,37.4923459415164,127.143162803652
1171011200,아파트,계단식,개별난방,위탁관리,분양,서울 송파구 양재대로72길 42,110.0,오금쌍용1차입주자대표회의,서울특별시 송파구 오금동 29- 오금쌍용스윗닷홈1차,2.0,남광토건,A10021425,2, ,11788.7,110.0,0.0,0.0,0.0,오금쌍용스윗닷홈1차,17744.0,0234012821,1, ,20050913.0,5.0,110.0,,,,0,0,0,0,0,0,0,0,0,0,202401,서울특별시 송파구 오금동 29-,37.5077973274329,127.131418574451
1171011100,아파트,계단식,개별난방,위탁관리(직영+위탁),분양,서울 송파구 위례성대로8길 28,144.0,금호산업개발,서울특별시 송파구 방이동 157- 방이금호어울림아파트,2.0,금호산업개발,A10021457,1, ,14562.96,120.0,0.0,0.0,24.0,방이금호어울림아파트,20063.0,024245338,1, ,20010516.0,0.0,144.0,,,,0,0,0,0,0,0,0,0,0,0,202401,서울특별시 송파구 방이동 157-,37.5127315673452,127.118399698141
1171010400,아파트,계단식,개별난방,위탁관리,혼합,서울특별시 송파구 송파동 245-,102.0,송파101번지일대가로주택정비사업조합,서울특별시 송파구 송파동 245- 송파파밀리에더퍼스트아파트,0.0,신동아건설 주식회사,A10021504,3,0234318621,15028.9825,21.0,81.0,0.0,0.0,송파파밀리에더퍼스트아파트,15072.0,0234318620,1, ,20231219.0,6.0,102.0,,,,0,0,0,0,0,0,0,0,0,0,202401,서울특별시 송파구 송파동 245-,37.5029335500384,127.114422089429
1171010300,아파트,복도식,개별난방,위탁관리,분양,서울 송파구 풍성로14길 19,132.0,현대산업개발,서울특별시 송파구 풍납동 251-2 풍납현대사원아파트,1.0,현대산업개발,A10021523,1,024846103,6972.48,0.0,0.0,132.0,0.0,풍납현대사원아파트,6972.48,024748949,1, ,19860731.0,,132.0,,,,0,0,0,0,0,0,0,0,0,0,202401,서울특별시 송파구 풍납동 251-2,37.5326235922496,127.116436612914
1171011100,아파트,복도식,,위탁관리,분양,서울 송파구 백제고분로 497,138.0,효성건설,서울특별시 송파구 방이동 51-4 효성올림픽카운티,4.0,효성건설,A10022027,1, ,7970.04,0.0,0.0,110.0,28.0,효성올림픽카운티,13509.0,024168440,18, ,20030930.0,2.0,138.0,,,,0,0,0,0,0,0,0,0,0,0,202401,서울특별시 송파구 방이동 51-4,37.5148889925719,127.114590891857
1171010800,,계단식,개별난방,위탁관리,분양,서울 송파구 송이로34길 26,120.0,현대,서울특별시 송파구 문정동 104- 문정현대아파트,1.0,한국주택은행과 대한팔프 조합,A10022030,1,024097635,12616.4,120.0,0.0,0.0,0.0,문정현대아파트,12617.0,024087634,10, ,19910909.0,,120.0,,,,0,0,0,0,0,0,0,0,0,0,202401,서울특별시 송파구 문정동 104-,37.4857836881353,127.130352667149
1171011300,,복도식,개별난방,위탁관리,분양,서울 송파구 거마로9길 19,142.0,거여동 비둘기재건축 조합,서울특별시 송파구 거여동 136- 삼호아파트,2.0,삼호,A10022033,1,024069779,14630.32,76.0,0.0,0.0,66.0,삼호아파트,18028.0,024068232,19, ,19990612.0,,142.0,,,,0,0,0,0,0,0,0,0,0,0,202401,서울특별시 송파구 거여동 136-,37.4965721621785,127.143566326949
1171011400,,혼합식,개별난방,위탁관리,분양,서울 송파구 마천로35길 18,122.0,마천아남(주),서울특별시 송파구 마천동 9- 아남아파트,1.0,마천아남(주),A10022249,1,02430,9270.42,0.0,0.0,0.0,122.0,아남아파트,13282.0,024308073,0, ,19921214.0,2.0,122.0,,,,0,0,0,0,0,0,0,0,0,0,202401,서울특별시 송파구 마천동 9-,37.5004625158406,127.146072051276
1171010800,아파트,계단식,,위탁관리,혼합,서울 송파구 송이로31길 20,1265.0,"현대엔지니어링,디엘이엔씨",서울특별시 송파구 문정동 136- 힐스테이트 e편한세상 문정아파트,2.0,문정동136번지일원재건축정비사업조합,A10022403,14,024498587,108.0,410.0,0.0,0.0,855.0,힐스테이트 e편한세상 문정아파트,167.0,024498586,18, ,20240830.0,38.0,1265.0,,,,0,0,0,0,0,0,0,0,0,0,202401,서울특별시 송파구 문정동 136-,37.4899816541961,127.134301058163
1171010800,,복도식,개별난방,위탁관리,임대,서울특별시 송파구 문정로 1,438.0,문정역마에스트로프로젝트금융투자주식회사,서울특별시 송파구 문정동 55-6 문정동마에스트로청년주택,0.0,효성중공업,A10022621,1,0220431118,21318.2061,0.0,0.0,438.0,0.0,문정동마에스트로청년주택,27348.0,0220431117,21, ,20240119.0,4.0,438.0,21.0,9647.3938,5806.0,0,0,0,0,0,0,0,0,0,0,202401,서울특별시 송파구 문정동 55-6,37.486359565989,127.123087289463
1171011200,아파트,계단식,지역난방,위탁관리,분양,서울특별시 송파구 성내천로 50,328.0,아남아파트리모델링주택조합,서울특별시 송파구 오금동 67- 송파더플래티넘,3.0,주식회사쌍용,A10022649,2,024498331,36254.71,179.0,0.0,30.0,119.0,송파더플래티넘,50633.0,024498330,16, ,20240130.0,12.0,328.0,16.0,27600.63,5728.0,0,0,0,0,0,0,0,0,0,0,202401,서울특별시 송파구 오금동 67-,37.5032965871378,127.136305641914
1171010800,,복도식,개별난방,자치관리,분양,서울특별시 송파구 송파대로16길 12,108.0,현대건설,서울특별시 송파구 문정동 58- 문정동현대2차아파트,1.0,현대건설,A10022995,1, ,12148.2,0.0,0.0,58.0,50.0,문정동현대2차아파트,12957252.0,024480734,10, ,19951107.0,1.0,108.0,10.0,7646.76,5807.0,0,0,0,0,0,0,0,0,0,0,202401,서울특별시 송파구 문정동 58-,37.4841867132888,127.124617461138
1171010100,도시형 생활주택(아파트),복도식,개별난방,위탁관리,임대,서울특별시 송파구 백제고분로7길 42,217.0,제이제이앤주식회사,서울특별시 송파구 잠실동 187-10 잠실 센트럴파크,4.0,한일개발,A10023070,1,024126009,8153.5534,0.0,0.0,217.0,0.0,잠실 센트럴파크,14219.95,024126008,15, ,20230802.0,3.0,217.0,15.0,5805.5371,5559.0,10544550,0,0,16904,0,0,1385,0,2019590,0,202401,서울특별시 송파구 잠실동 187-10,37.5105455244799,127.083543016569
1171010200,주상복합,계단식,개별난방,위탁관리,분양,서울특별시 송파구 올림픽로 293-19,55.0,모름,서울특별시 송파구 신천동 7-28 현대타워아파트,7.0,현대건설,A10023169,1,024190467,13345.95,15.0,40.0,0.0,0.0,현대타워아파트,30818.14,024193722,30, ,19961230.0,1.0,55.0,30.0,8628.1,5510.0,0,0,0,0,0,0,0,0,0,0,202401,서울특별시 송파구 신천동 7-28,37.5151260924891,127.102480310867
1171010900,,계단식,개별난방,위탁관리,분양,서울특별시 송파구 송파대로8길 42,149.0,현대해상화재보험,서울특별시 송파구 장지동 855- 송파파인타운12단지,1.0,양우건설,A10023296,4,024001895,16797.39,0.0,0.0,0.0,149.0,송파파인타운12단지,22882.35,024001894,20, ,20110127.0,6.0,149.0,20.0,12640.96,5813.0,0,0,0,0,0,0,0,0,0,0,202401,서울특별시 송파구 장지동 855-,37.478757803696,127.132139433365
1171011200,아파트,혼합식,개별난방,위탁관리,분양,서울특별시 송파구 중대로 293,73.0,(주)한백티엔시4488,서울특별시 송파구 오금동 30-2 오금쌍용스윗닷홈2.3.4,0.0,남광토건,A10023333,3,0234010877,13118.8,0.0,73.0,0.0,0.0,오금쌍용스윗닷홈2.3.4,16552.97,0234010879,15, ,20050913.0,3.0,73.0,15.0,10888.56,5655.0,0,0,0,0,0,0,0,0,0,0,202401,서울특별시 송파구 오금동 30-2,37.5070935466612,127.132231549345
1171010100,아파트,복도식,개별난방,위탁관리,임대,서울특별시 송파구 석촌호수로 74,298.0,금강개발,서울특별시 송파구 잠실동 208-4 잠실엘타워,3.0,한양산업개발,A10023599,2, ,13504.7781,0.0,0.0,298.0,0.0,잠실엘타워,15521.0,024218878,25, ,20221013.0,5.0,298.0,25.0,5575.35,5559.0,7139250,0,0,50678,0,0,2522,0,2394310,0,202401,서울특별시 송파구 잠실동 208-4,37.5097918378467,127.085427739362
1171010400,,혼합식,개별난방,위탁관리,분양,서울특별시 송파구 송이로 27-1,106.0,보람지역주택조합,서울특별시 송파구 송파동 164- 송파kcc아파트,2.0,(주)금강종합건설,A10023610,1,024190114,10095.59,0.0,0.0,29.0,77.0,송파kcc아파트,15564.0,024198033,15, ,20030828.0,3.0,106.0,15.0,8087.08,5672.0,0,0,0,0,0,0,0,0,0,0,202401,서울특별시 송파구 송파동 164-,37.5030080206037,127.11740381587
1171011300,아파트,혼합식,지역난방,위탁관리,혼합,서울특별시 송파구 거마로 56,1945.0,거여2재정비촉진구역1지구 주택재개발정비사업조합,서울특별시 송파구 거여동 697- 송파 시그니처 롯데캐슬아파트,3.0,(주)롯데건설,A10023887,17,024311946,185905.29,38.0,0.0,920.0,987.0,송파 시그니처 롯데캐슬아파트,290795.61,024311945,33,https://splottecastle.aptner.com/v2,20211231.0,48.0,1945.0,33.0,136652.18,5767.0,180177819,0,236442490,555660,0,1068,27494,10347,34480640,0,202401,서울특별시 송파구 거여동 697-,37.4970454816341,127.147282077623
1171010900,아파트,계단식,지역난방,위탁관리,분양,서울특별시 송파구 위례광장로 120,311.0,MDM,서울특별시 송파구 장지동 896- 위례중앙푸르지오아파트,3.0,대우푸르지오,A10023897,4,024300048,39822.1,141.0,8.0,0.0,162.0,위례중앙푸르지오아파트,77754.0,024300046,19,xn--9n2b13ybqbv7u.apti.co.kr/aptHome/,20161223.0,0.0,311.0,19.0,30262.9076,5852.0,34766980,0,28291120,115838,0,267,5553,2213,6430420,15383020,202401,서울특별시 송파구 장지동 896-,37.4750100992712,127.141592563317
1171011300,아파트,계단식,지역난방,위탁관리,분양,서울특별시 송파구 위례송파로 80,700.0,호반건설(주),서울특별시 송파구 거여동 607- 송파레이크파크 호반 써밋2,4.0,호반건설( 주),A10023922,11,024497314,95938.4132,693.0,7.0,0.0,0.0,송파레이크파크 호반 써밋2,180155246.0,024497313,25, ,20220128.0,23.0,700.0,25.0,76533.412,5847.0,86978122,-18660,57494130,267654,8502,515,14401,6451,15383070,39794730,202401,서울특별시 송파구 거여동 607-,37.4849416151691,127.141918054498
1171011300,아파트,계단식,지역난방,위탁관리,분양,서울특별시 송파구 위례송파로 40,689.0,호반산업(주),서울특별시 송파구 거여동 597- 송파레이크파크호반써밋1차,3.0,호반산업(주),A10023927,10,0269515108,94009.1535,689.0,0.0,0.0,0.0,송파레이크파크호반써밋1차,175221.677,0269515107,25, ,20220128.0,21.0,689.0,25.0,74916.1371,5791.0,75850334,0,60914200,264733,0,501,13869,5890,14845740,32453900,202401,서울특별시 송파구 거여동 597-,37.4849723935519,127.137761661222
1171011300,아파트,계단식,지역난방,위탁관리,분양,서울특별시 송파구 위례송파로 124,494.0,(주)에스떠블유산업개발,서울특별시 송파구 거여동 654- 송파위례리슈빌,2.0,계룡건설산업(주),A10024085,8,024308456,54610.2302,494.0,0.0,0.0,0.0,송파위례리슈빌,106742.0,024308454,25, ,20211012.0,16.0,494.0,25.0,54610.2302,5847.0,55175960,0,69926020,186932,0,397,9539,3686,10201560,-101170,202401,서울특별시 송파구 거여동 654-,37.4843723736084,127.146627984376
1171011300,아파트,계단식,지역난방,위탁관리,분양,서울특별시 송파구 위례송파로 123,1282.0,서울주택도시공사,서울특별시 송파구 거여동 651- 포레나송파,2.0,한화건설외,A10024152,18,024002213,128943.65,0.0,0.0,0.0,1282.0,포레나송파,194551.27,024002212,25, ,20210806.0,43.0,1282.0,25.0,99936.9,5846.0,77169525,0,102833750,396067,0,805,23100,8563,23810050,49665400,202401,서울특별시 송파구 거여동 651-,37.4845655266198,127.147803459446
1171010800,아파트,혼합식,개별난방,위탁관리,분양,서울특별시 송파구 송파대로20길 28,120.0,한전주택조합,서울특별시 송파구 문정동 62-5 문정현대아파트,2.0,현대건설(주),A10024172,1,0264154761,12099.6,0.0,0.0,60.0,60.0,문정현대아파트,12460.0,024064761,15, ,19930928.0,2.0,120.0,15.0,8161.8,5807.0,0,0,0,0,0,0,0,0,0,0,202401,서울특별시 송파구 문정동 62-5,37.4856961889676,127.125876153683
1171011300,아파트,계단식,지역난방,위탁관리,분양,서울특별시 송파구 위례송파로 89,394.0,서울주택공사,서울특별시 송파구 거여동 606- 송파레이크힐아파트,2.0,진흥기업,A10024197,5,024009959,58031.35,0.0,0.0,0.0,394.0,송파레이크힐아파트,58033.0,024009958,24, ,20210810.0,15.0,394.0,24.0,30218.5,5790.0,30515260,0,25874040,120557,0,233,6748,2763,7481130,16688520,202401,서울특별시 송파구 거여동 606-,37.4862513377211,127.144578553375
1171010300,,혼합식,개별난방,자치관리,분양,서울특별시 송파구 한가람로 414,85.0,갑을건설,서울특별시 송파구 풍납동 214-6 풍납 갑을아파트,2.0,갑을건설,A10024358,1,024779060,84904994.91,3.0,0.0,50.0,32.0,풍납 갑을아파트,84904994.91,024881406,14, ,19960722.0,2.0,85.0,14.0,5834.85,5525.0,0,0,0,0,0,0,0,0,0,0,202401,서울특별시 송파구 풍납동 214-6,37.535196248653,127.112596363489
1171010300,,복도식,개별난방,위탁관리,분양,서울특별시 송파구 풍성로15길 10,93.0,주민재건축조합,서울특별시 송파구 풍납동 172- (풍납)대동아파트,2.0,대동,A10024379,1,024750532,8553.28,0.0,0.0,52.0,41.0,(풍납)대동아파트,11534.04,024750165,11, ,19990112.0,15.0,93.0,11.0,6048.6,5522.0,0,0,0,0,0,0,0,0,0,0,202401,서울특별시 송파구 풍납동 172-,37.5352956554233,127.117017795695
1171011300,아파트,복도식,지역난방,위탁관리,임대,서울특별시 송파구 위례서이로 25,560.0,SH공사,서울특별시 송파구 거여동 599- 위례포레샤인13단지아파트,2.0,계룡건설외,A10024492,8,024301646,66605.0,0.0,0.0,560.0,0.0,위례포레샤인13단지아파트,66974.41,024301645,27,foreshine13.aptner.com/,20201222.0,14.0,560.0,27.0,29343.59,5791.0,28398149,0,29005270,135999,0,221,9077,3491,8025320,21647920,202401,서울특별시 송파구 거여동 599-,37.4829031511882,127.137673742503
1171011300,아파트,계단식,지역난방,위탁관리,임대,서울특별시 송파구 위례북로4길 12,685.0,SH공사,서울특별시 송파구 거여동 648- 위례포레샤인18단지,2.0,대명건설,A10024577,13,024023009,100692.59,0.0,0.0,0.0,685.0,위례포레샤인18단지,101048.44,024023008,22, ,20201028.0,1.0,685.0,22.0,53533.99,5776.0,44459646,0,43425986,191445,0,378,12678,4878,15113190,30487500,202401,서울특별시 송파구 거여동 648-,37.4882055412238,127.151052962945
1171011300,아파트,계단식,개별난방,위탁관리,분양,서울특별시 송파구 오금로62길 10,95.0,(주)선월드,서울특별시 송파구 거여동 28- 쌍용스윗닷홈거여역1차아파트,2.0,쌍용건설,A10024655,2,024431101,10955.0,44.0,0.0,0.0,51.0,쌍용스윗닷홈거여역1차아파트,16369.76,024430115,12, ,20060418.0,5.0,95.0,12.0,8961.25,5773.0,0,0,0,0,0,0,0,0,0,0,202401,서울특별시 송파구 거여동 28-,37.4920277018462,127.14611001375
1171011300,아파트,혼합식,지역난방,위탁관리,혼합,서울특별시 송파구 오금로 551,1199.0,거여2재정비촉진구역 제2지구 주택재개발정비사업조합,서울특별시 송파구 거여동 696- 이편한세상 송파파크센트럴,3.0,대림산업(주),A10024787,12,024000931,117647.2,119.0,4.0,532.0,544.0,이편한세상 송파파크센트럴,180054.32,024000930,33, ,20210517.0,0.0,1199.0,33.0,88022.26,5764.0,85037763,7789150,86357660,330920,5516,741,18768,6924,21483920,34966200,202401,서울특별시 송파구 거여동 696-,37.4931824051771,127.150367774224
1171010300,아파트,계단식,지역난방,위탁관리,혼합,서울특별시 송파구 올림픽로43길 34,697.0,풍남우성아파트주택재건축정비사업조합,서울특별시 송파구 풍납동 388-7 잠실올림픽공원아이파크,3.0,현대산업개발,A10025185,7,024896994,67915.4353,26.0,0.0,339.0,332.0,잠실올림픽공원아이파크,113285.07,024890693,35, ,20191114.0,17.0,697.0,35.0,49378.19,5506.0,59234847,0,87073910,206398,0,578,10771,0,14818910,0,202401,서울특별시 송파구 풍납동 388-7,37.5249190964012,127.114443667858
1171011300,아파트,복도식,,위탁관리,임대,서울특별시 송파구 오금로53길 14,107.0,서울주택도시공사,서울특별시 송파구 거여동 12-1 거여리본타운 아파트,1.0,서일종합건설,A10025284,1,024498656,8440.66,0.0,0.0,128.0,0.0,거여리본타운 아파트,10739.54,024498655,8, ,20180510.0,2.0,128.0,8.0,4145.2,5744.0,0,0,0,0,0,0,0,0,0,0,202401,서울특별시 송파구 거여동 12-1,37.495678010236,127.142295032302
1171010400,아파트,계단식,개별난방,위탁관리,분양,서울특별시 송파구 석촌호수로 258,53.0,이든주택개발(주),서울특별시 송파구 송파동 7-1 잠실아르누보팰리스,3.0,삼환기업,A10025460,1,024121812,13609.93,17.0,36.0,0.0,0.0,잠실아르누보팰리스,15148.03,024121851,20, ,20071126.0,2.0,53.0,20.0,7271.91,5624.0,0,0,0,0,0,0,0,0,0,0,202401,서울특별시 송파구 송파동 7-1,37.5091087737557,127.10490290037
1171010300,아파트,혼합식,개별난방,위탁관리,분양,서울특별시 송파구 풍성로 52,140.0,대아건설,서울특별시 송파구 풍납동 163- 풍납대아아파트,2.0,대아건설,A10025467,1,024732751,14302.2,19.0,0.0,58.0,63.0,풍납대아아파트,745090.0,024732750,13, ,19980312.0,6.0,140.0,13.0,10831.03,5528.0,0,0,0,0,0,0,0,0,0,0,202401,서울특별시 송파구 풍납동 163-,37.5334814070449,127.118097938009
1171010300,,복도식,개별난방,위탁관리,분양,서울특별시 송파구 풍성로26길 47,114.0,동산대진연립주택재건축정비사업조합,서울특별시 송파구 풍납동 512- 송파해모로아파트,0.0,(주)한진중공업,A10025632,3,024792379,13391.0,35.0,0.0,3.0,76.0,송파해모로아파트,18184.74,024792379,11,cafe.daum.net/songpahaemoro,20060629.0,,114.0,11.0,10781.82,5531.0,0,0,0,0,0,0,0,0,0,0,202401,서울특별시 송파구 풍납동 512-,37.5299809169082,127.117023860486
1171011200,아파트,계단식,개별난방,위탁관리,분양,서울특별시 송파구 성내천로 103,269.0,천강개발,서울특별시 송파구 오금동 135- 송파 두산위브아파트,2.0,두산건설,A10025657,2,024095781,23594.2464,0.0,0.0,215.0,54.0,송파 두산위브아파트,35327.6121,024085781,28, ,20190227.0,5.0,269.0,28.0,17484.08,5738.0,24219883,0,0,81835,0,0,4109,0,4876610,0,202401,서울특별시 송파구 오금동 135-,37.5005338839775,127.1407207557
1171010700,아파트,혼합식,지역난방,위탁관리,혼합,서울특별시 송파구 송파대로 345,9510.0,가락시영아파트주택재건축정비사업조합,서울특별시 송파구 가락동 479- 헬리오시티아파트,3.0,"현대건설,삼성물산,현대산업개발",A10025850,84,024088736,969877.0,1500.0,24.0,2854.0,5132.0,헬리오시티아파트,971190.37,024038330,35,heliocity.com,20181228.0,183.0,9510.0,35.0,734780.75,5698.0,784982567,57155280,882822905,2832670,42322,7022,138767,57349,152624370,326889300,202401,서울특별시 송파구 가락동 479-,37.4976145695004,127.102531804188
1171011100,아파트,복도식,개별난방,위탁관리,분양,서울특별시 송파구 위례성대로 58,140.0,올림픽베어스타운,서울특별시 송파구 방이동 171- 올림픽베어스타운,3.0,상부종합건설(주),A10026209,2,0264710106,13380.0,0.0,0.0,80.0,60.0,올림픽베어스타운,17159.55,024233735,21, ,19960425.0,2.0,140.0,21.0,9804.0,5628.0,0,0,0,0,0,0,0,0,0,0,202401,서울특별시 송파구 방이동 171-,37.5147607136931,127.119120258928
1171011200,아파트,계단식,개별난방,위탁관리,혼합,서울특별시 송파구 동남로 341,818.0,서울주택도시공사,서울특별시 송파구 오금동 617- 송파레미니스2단지,1.0,"한신공영(주), 한양산업개발(주",A10026249,7,0220439922,69691.56,0.0,0.0,598.0,220.0,송파레미니스2단지,95867.81,0220439911,25,https://account.zigbang.com/login,20180605.0,17.0,818.0,25.0,47419.52,5721.0,44752566,393000,0,229756,0,0,12263,0,11753820,0,202401,서울특별시 송파구 오금동 617-,37.5063859322325,127.138029800548
1171011200,아파트,계단식,개별난방,위탁관리,분양,서울특별시 송파구 동남로 342,220.0,(주)티에스주택,서울특별시 송파구 오금동 619- 송파호반베르디움더퍼스트,2.0,(주)호반건설,A10026362,3,024004052,28607.766,220.0,0.0,0.0,0.0,송파호반베르디움더퍼스트,48124.88,024004051,20,송호베.apti.co.kr,20180223.0,0.0,220.0,20.0,22321.904,5730.0,25720526,0,0,80848,0,0,3679,0,4579520,0,202401,서울특별시 송파구 오금동 619-,37.5049807019033,127.139659656149
1171010900,아파트,혼합식,지역난방,위탁관리,임대,서울특별시 송파구 위례순환로 477,2200.0,서울주택도시공사,서울특별시 송파구 장지동 905- 위례포레샤인아파트,2.0,계룡건설,A10026682,23,024013360,260035.98,0.0,0.0,1758.0,442.0,위례포레샤인아파트,261685.0,024013352,21, ,20170928.0,57.0,2200.0,21.0,121619.37,5814.0,99098640,0,116517200,484469,0,827,30028,12346,31886290,82722500,202401,서울특별시 송파구 장지동 905-,37.4751100001573,127.136558093148
1171011400,아파트,혼합식,개별난방,자치관리,분양,서울특별시 송파구 성내천로21길 11,134.0,신동아건설(주),서울특별시 송파구 마천동 20- 마천동신동아아파트,1.0,"신동아건설(주), 재건축 조합",A10026717,2,024006221,12786.12,0.0,0.0,60.0,74.0,마천동신동아아파트,16486.0,024006220,20, ,20010529.0,3.0,134.0,20.0,9861.34,5733.0,0,0,0,0,0,0,0,0,0,0,202401,서울특별시 송파구 마천동 20-,37.5000562361609,127.144326060959
1171011200,아파트,혼합식,개별난방,위탁관리,혼합,서울특별시 송파구 성내천로 6,575.0,서울도시주택공사,서울특별시 송파구 오금동 616- 송파레미니스아파트,2.0,한신공영(주),A10026734,5,024065900,46916.71,0.0,0.0,439.0,136.0,송파레미니스아파트,69081.0,024035100,20,송파레미니스.apti.co.kr,20171102.0,14.0,575.0,20.0,31913.81,5720.0,28459199,38982800,0,139755,45224,0,7870,0,8062170,0,202401,서울특별시 송파구 오금동 616-,37.5083372409238,127.134828192603
1171010300,아파트,계단식,지역난방,위탁관리,분양,서울특별시 송파구 한가람로 402,104.0,현대조합외2,서울특별시 송파구 풍납동 299-1 강변현대아파트,1.0,현대사업개발,A10026804,1,024718037,11345.36,0.0,0.0,0.0,104.0,강변현대아파트,12065.07,024718037,13, ,19911018.0,5.0,104.0,13.0,8651.76,5525.0,0,0,0,0,0,0,0,0,0,0,202401,서울특별시 송파구 풍납동 299-1,37.5338976028599,127.111492533487
1171011400,아파트,복도식,,위탁관리,임대,서울특별시 송파구 성내천로47길 22,148.0,서울주택도시공사,서울특별시 송파구 마천동 605- 송파파크데일3단지아파트,1.0,서일종합건설(주),A10026961,3,0264150607,8090.7,0.0,0.0,148.0,0.0,송파파크데일3단지아파트,8091.75,0264150605,7, ,20170327.0,0.0,148.0,7.0,3666.68,5748.0,0,0,0,0,0,0,0,0,0,0,202401,서울특별시 송파구 마천동 605-,37.4947993914041,127.157865051555
1171010800,아파트,혼합식,지역난방,위탁관리,분양,서울특별시 송파구 송파대로 111,999.0,다함하비오주식회사,서울특별시 송파구 문정동 618- 파크하비오푸르지오아파트,5.0,대우건설주식회사,A10027346,10,0234020440,169516.2877,76.0,4.0,0.0,919.0,파크하비오푸르지오아파트,169516.31,0234020400,19, ,20160929.0,20.0,999.0,19.0,87608.5699,5837.0,85570490,0,93300460,323586,0,794,10917,6479,14278780,52803850,202401,서울특별시 송파구 문정동 618-,37.4796870553794,127.124979804141
1171010900,아파트,계단식,지역난방,위탁관리,분양,서울특별시 송파구 위례광장로 170,490.0,현대건설(주),서울특별시 송파구 장지동 170- 힐스테이트 송파위례아파트,3.0,현대건설(주),A10027461,8,024495911,64356.4934,488.0,2.0,0.0,0.0,힐스테이트 송파위례아파트,111137.11,024495910,29, ,20160719.0,14.0,490.0,29.0,50110.1,5849.0,53232700,13480,60453010,172753,0,504,10232,4185,12418770,25282530,202401,서울특별시 송파구 장지동 170-,37.4798960212267,127.142324795699
1171010100,주상복합,계단식,개별난방,위탁관리,분양,서울특별시 송파구 올림픽로 74,96.0,(주)시우개발,서울특별시 송파구 잠실동 175-4 월드메르디앙주상복합아파트,3.0,월드건설,A10027523,2,0222031286,8996.1,0.0,0.0,52.0,44.0,월드메르디앙주상복합아파트,11617.82,0222021286,15, ,20050829.0,3.0,96.0,15.0,6666.94,5556.0,0,0,0,0,0,0,0,0,0,0,202401,서울특별시 송파구 잠실동 175-4,37.511340114419,127.07883210332
1171010900,아파트,계단식,지역난방,위탁관리,분양,서울특별시 송파구 위례광장로 193,495.0,네오밸류,서울특별시 송파구 장지동 884- 위례2차아이파크아파트,3.0,현대산업개발,A10027553,7,024499169,64599.4982,495.0,0.0,0.0,0.0,위례2차아이파크아파트,116553.0,024499170,29, ,20160526.0,12.0,495.0,29.0,49502.1502,5849.0,51527805,0,55736820,181457,0,462,8769,3927,10385600,19635000,202401,서울특별시 송파구 장지동 884-,37.4817394651186,127.142191034933
1171010900,아파트,계단식,지역난방,위탁관리,분양,서울특별시 송파구 위례광장로 270,390.0,에이엠플러스자산개발(주),서울특별시 송파구 장지동 895- 송파 와이즈더샵,2.0,(주)포스코건설,A10027632,6,024016041,50078.591,390.0,0.0,0.0,0.0,송파 와이즈더샵,75116.027,024016040,24,songpayz-thesharp.com,20160226.0,0.0,390.0,24.0,37822.5226,5852.0,40580580,0,46216250,138485,0,393,6912,2813,7621850,17159300,202401,서울특별시 송파구 장지동 895-,37.4770954347659,127.14372351448
1171010900,주상복합,계단식,지역난방,위탁관리,분양,서울특별시 송파구 위례광장로 136,400.0,하나자산신탁,서울특별시 송파구 장지동 894- 위례아이파크아파트,3.0,현대산업개발 주,A10027744,6,024499805,51057.7378,400.0,0.0,0.0,0.0,위례아이파크아파트,82424.9934,024499804,24,.,20151130.0,0.0,400.0,24.0,38889.5158,5852.0,40605196,0,42406860,143811,0,388,7117,3020,8290100,21195670,202401,서울특별시 송파구 장지동 894-,37.4771958181254,127.142374845651
1171010500,도시형 생활주택(주상복합),복도식,개별난방,위탁관리,분양,서울특별시 송파구 석촌호수로 210,257.0,SCLPFV(주),서울특별시 송파구 석촌동 24-3 석촌호수 효성해링턴타워,5.0,(주)효성 PU,A10027881,1,024210038,4443.5163,0.0,0.0,257.0,0.0,석촌호수 효성해링턴타워,13055.763,024210037,21,석촌호수해링턴타워.apti.co.kr,20150826.0,3.0,257.0,21.0,4443.5163,5611.0,15776630,0,0,85272,0,0,1985,0,2257350,0,202401,서울특별시 송파구 석촌동 24-3,37.5065726243764,127.100341668262
1171010400,아파트,계단식,지역난방,위탁관리,분양,서울특별시 송파구 송이로 50,71.0,은행연합주택조합,서울특별시 송파구 송파동 170- 송파SK아파트,2.0,SK건설,A10028083,1,024148019,5950.1,0.0,0.0,0.0,71.0,송파SK아파트,9777.0,024148900,15, ,20011120.0,,71.0,15.0,5950.1,5678.0,0,0,0,0,0,0,0,0,0,0,202401,서울특별시 송파구 송파동 170-,37.5005987877625,127.118161481683
1171010900,아파트,계단식,지역난방,위탁관리,분양,서울특별시 송파구 위례광장로 185,549.0,대우건설,서울특별시 송파구 장지동 878- 위례 송파푸르지오,2.0,대우건설,A10028086,7,024099281,77554.9387,549.0,0.0,0.0,0.0,위례 송파푸르지오,125353.052,024099280,29,http://www.wrsp.co.kr/,20150123.0,0.0,549.0,29.0,59596.5326,5848.0,65841341,0,58229470,218823,0,511,11088,4457,15669870,28558750,202401,서울특별시 송파구 장지동 878-,37.4804774688545,127.14004016241
1171010300,아파트,혼합식,지역난방,위탁관리,분양,서울특별시 송파구 올림픽로45길 11,415.0,극동,서울특별시 송파구 풍납동 391- 풍납극동,0.0,극동건설,A13804001,4,024778016,38413.57,0.0,0.0,183.0,232.0,풍납극동,38413.789,024736614,15, ,19871215.0,10.0,415.0,15.0,29455.525,5539.0,22273650,0,60335680,103342,0,20014,5778,1852,7450020,0,202401,서울특별시 송파구 풍납동 391-,37.5268104959684,127.116088187018
1171010300,아파트,계단식,개별난방,위탁관리,분양,서울특별시 송파구 올림픽로47길 9,417.0,쌍용건설주식회사,서울특별시 송파구 풍납동 401-1 풍납쌍용,3.0,쌍용건설주식회사,A13804002,3,024712041,51004.938,0.0,0.0,0.0,417.0,풍납쌍용,52635.25,024792848,20, ,19940727.0,11.0,417.0,20.0,35382.39,5538.0,27557050,0,0,121300,0,0,8065,0,9907160,0,202401,서울특별시 송파구 풍납동 401-1,37.52741655661,127.118040521722
1171010300,아파트,계단식,개별난방,위탁관리,분양,서울특별시 송파구 한가람로 478,442.0,풍납동 재건축 조합,서울특별시 송파구 풍납동 509- 풍납시티극동,1.0,극동건설,A13804003,3,024744665,46284.0,81.0,10.0,204.0,147.0,풍납시티극동,53700.559,024734664,23, ,19980527.0,16.0,442.0,23.0,35287.34,5514.0,29221590,0,0,125842,0,0,0,0,0,0,202401,서울특별시 송파구 풍납동 509-,37.5397992762347,127.117950737029
1171010300,아파트,계단식,지역난방,위탁관리,분양,서울특별시 송파구 올림픽로 525,708.0,지역조합연합주택,서울특별시 송파구 풍납동 413-1 풍납현대,1.0,현대건설(주),A13804004,6,024868497,75956.44,0.0,0.0,0.0,708.0,풍납현대,77537.0,024747342,20, ,19951114.0,19.0,708.0,20.0,57949.9,5530.0,38597400,0,147128560,177192,0,0,8011,4507,13257330,19154750,202401,서울특별시 송파구 풍납동 413-1,37.5301130130253,127.119355326822
1171010300,아파트,혼합식,개별난방,위탁관리,분양,서울특별시 송파구 토성로 38-6,895.0,풍납동우일재건축조합,서울특별시 송파구 풍납동 508- 풍납한강극동,1.0,극동건설,A13804206,9,024835113,99554.72,251.0,0.0,315.0,329.0,풍납한강극동,105425.1,024727159,18, ,19950731.0,24.0,895.0,18.0,75357.7,5536.0,10834740,776990,0,0,0,0,0,0,51430,0,202401,서울특별시 송파구 풍납동 508-,37.5294607910398,127.114054184816
1171011100,아파트,계단식,지역난방,자치관리,분양,서울특별시 송파구 양재대로 1109,480.0,대림건설,서울특별시 송파구 방이동 217- 방이대림가락,0.0,대림건설,A13805001,6,024251341,67298.94,242.0,90.0,0.0,148.0,방이대림가락,67298.94,024172038,15, ,19850223.0,16.0,480.0,15.0,56601.06,5647.0,38662899,0,111656330,197314,0,34674,0,3166,4022560,0,202401,서울특별시 송파구 방이동 217-,37.5081717528478,127.125057476641
1171011100,아파트,혼합식,지역난방,위탁관리,분양,서울특별시 송파구 양재대로 1218,5540.0,서울특별시,서울특별시 송파구 방이동 89- 올림픽선수기자촌아파트,1.0,한신공영(주) 외,A13805002,122,024011927,634678.6476,2728.0,778.0,0.0,2034.0,올림픽선수기자촌아파트,854994.0,024011921,24,www.olympicapt.apti.co.kr,19880614.0,207.0,5540.0,24.0,589196.33,5649.0,454874132,0,982700800,1643383,0,7850,108733,47832,121325060,401213680,202401,서울특별시 송파구 방이동 89-,37.5166909917264,127.137712375583
1171011100,아파트,계단식,개별난방,위탁관리,분양,서울특별시 송파구 위례성대로12길 25,104.0,신구,서울특별시 송파구 방이동 197- 신구블레스밸리,1.0,신구,A13805003,2,024140211,12892.08,74.0,30.0,0.0,0.0,신구블레스밸리,22565.47,024147893,12, ,20040520.0,0.0,104.0,12.0,12892.08,5640.0,0,0,0,0,0,0,0,0,0,0,202401,서울특별시 송파구 방이동 197-,37.5112698356674,127.122670441774
1171011300,아파트,복도식,지역난방,위탁관리,임대,서울특별시 송파구 양산로2길 38,660.0,SH공사,서울특별시 송파구 거여동 295- 거여6단지,1.0,삼우종합건설,A13811001,5,024000933,46091.6,0.0,0.0,660.0,0.0,거여6단지,47207.85,024000934,15,www.i-sh.co.kr/,19970410.0,8.0,660.0,15.0,25582.47,5789.0,19367535,0,46653696,0,0,0,0,0,227324,11143700,202401,서울특별시 송파구 거여동 295-,37.4884642152141,127.146186520149
1171011300,아파트,계단식,지역난방,위탁관리,분양,서울특별시 송파구 양산로8길 24,478.0,동아. 효성,서울특별시 송파구 거여동 291- 동아효성아파트(거여2단지),0.0,"동아,효성",A13811202,11,024486790,68317.3462,473.0,5.0,0.0,0.0,동아효성아파트(거여2단지),90784.607,024319686,15, ,19971215.0,16.0,478.0,15.0,58549.24,5778.0,41608897,0,111555350,152455,0,747015,5417,3965,11769650,0,202401,서울특별시 송파구 거여동 291-,37.4896475718443,127.146643722593
1171011300,아파트,복도식,지역난방,자치관리,분양,서울특별시 송파구 양산로4길 8,546.0,서울시 도시개발공사,서울특별시 송파구 거여동 293- 거여4단지,1.0,삼익주택(주),A13811203,6,024097357,40584.55,0.0,0.0,546.0,0.0,거여4단지,43710.8,024097356,12,거여4단지.apti.co.kr,19970703.0,9.0,546.0,12.0,27346.75,5787.0,5102060,0,49672000,0,0,31178,7370,2787,9666960,15916000,202401,서울특별시 송파구 거여동 293-,37.4895629768608,127.14325778872
1171011300,아파트,복도식,지역난방,위탁관리,임대,서울특별시 송파구 양산로2길 44,598.0,sh공사,서울특별시 송파구 거여동 292- 거여3단지,0.0,자유건설,A13811204,5,024488698,37395.0464,0.0,0.0,598.0,0.0,거여3단지,52376.0,024006950,15, ,20001009.0,10.0,598.0,15.0,28026.842,5778.0,16921030,0,48496690,108248,0,43978,3284,2284,3951610,9730320,202401,서울특별시 송파구 거여동 292-,37.4904631255137,127.147542455133
1171011300,아파트,혼합식,지역난방,위탁관리,분양,서울특별시 송파구 양산로4길 16,605.0,도시개발공사,서울특별시 송파구 거여동 294- 거여5단지,1.0,라이프주택,A13811205,6,024005761,60966.1,0.0,0.0,516.0,89.0,거여5단지,61834.14,024005760,15, ,19970703.0,10.0,605.0,15.0,38307.11,5788.0,8119480,0,72136790,0,0,42912,8544,2957,10625070,10349500,202401,서울특별시 송파구 거여동 294-,37.4892096827534,127.144964294087
1171011300,아파트,복도식,지역난방,위탁관리,분양,서울특별시 송파구 양산로8길 8,1004.0,도시개발공사,서울특별시 송파구 거여동 290- 거여1단지,1.0,미주실업주식회사,A13811206,6,024318354,78124.72,0.0,0.0,1004.0,0.0,거여1단지,78124.72,024318353,12,거여1단지.apti.co.kr,19971125.0,14.0,1004.0,12.0,48410.32,5779.0,33867238,9990,97033620,190684,0,78826,8281,4888,10241700,21996000,202401,서울특별시 송파구 거여동 290-,37.4909161360666,127.144566964221
1171011400,아파트,계단식,개별난방,위탁관리,분양,서울특별시 송파구 성내천로 314,173.0,금호건설,서울특별시 송파구 마천동 319- 마천금호어울림2차,1.0,금호건설,A13812001,3,024002958,18779.72,33.0,0.0,22.0,118.0,마천금호어울림2차,25549.46,024002957,12, ,20060424.0,8.0,173.0,12.0,14980.45,5763.0,12351800,0,0,54337,0,0,2890,0,3615090,0,202401,서울특별시 송파구 마천동 319-,37.4928491855811,127.155607287778
1171011400,아파트,계단식,개별난방+기타,위탁관리,분양,서울특별시 송파구 마천로57길 16,199.0,지하철공사직장조합외연합주택조합,서울특별시 송파구 마천동 304- 마천금호,2.0,금호산업,A13812002,1,024438862,17557.5981,0.0,0.0,100.0,99.0,마천금호,25233.0,024308862,18, ,19980529.0,6.0,199.0,18.0,14373.4,5759.0,12904610,0,0,55393,0,0,3514,0,3964960,0,202401,서울특별시 송파구 마천동 304-,37.4946881823838,127.153369488514
1171011400,아파트,계단식,개별난방,위탁관리,분양,서울특별시 송파구 성내천로 245,215.0,금호산업주식회사,서울특별시 송파구 마천동 575- 금호어울림1차,2.0,금호산업주식회사,A13812003,3,024002454,27061.8842,101.0,0.0,0.0,114.0,금호어울림1차,34990.91,024004066,19, ,20020326.0,7.0,215.0,19.0,20467.13,5747.0,20396040,0,0,0,0,0,3921,0,4711420,0,202401,서울특별시 송파구 마천동 575-,37.4983951671492,127.15476917182
1171011400,아파트,혼합식,개별난방,위탁관리,분양,서울특별시 송파구 성내천로 211,247.0,우신연립 재건축조합,서울특별시 송파구 마천동 576- 마천우방,2.0,(주)우방,A13812004,4,024077292,24211.76,17.0,0.0,105.0,125.0,마천우방,33396.67,024319334,19,없음,20021129.0,7.0,247.0,19.0,17512.0,5746.0,16284530,228890,0,68306,0,0,4197,0,4978510,0,202401,서울특별시 송파구 마천동 576-,37.5000222059464,127.152060868729
1171011400,아파트,혼합식,개별난방,위탁관리,혼합,서울특별시 송파구 성내천로47길 38,889.0,SH공사,서울특별시 송파구 마천동 607- 송파파크데일2단지,2.0,(주)신일건업,A13812005,13,024301999,79297.4427,110.0,0.0,581.0,198.0,송파파크데일2단지,116106.55,024301998,15, ,20110127.0,25.0,889.0,15.0,60280.11,5748.0,59309700,0,0,259367,0,0,15794,0,17809100,0,202401,서울특별시 송파구 마천동 607-,37.4963409744022,127.158162993388
1171011200,아파트,혼합식,개별난방,위탁관리,분양,서울특별시 송파구 성내천로 87,196.0,신범화연립재건축조합,서울특별시 송파구 오금동 138- 오금우방,2.0,우방,A13813002,3,024482584,20710.7423,43.0,0.0,44.0,109.0,오금우방,29079.0,024482583,19, ,20010312.0,6.0,196.0,19.0,16215.55,5738.0,13832630,0,0,57188,0,0,6773,0,7767930,0,202401,서울특별시 송파구 오금동 138-,37.5012704457093,127.139742539875
1171011200,아파트,계단식,개별난방,위탁관리,분양,서울특별시 송파구 문정로 197,215.0,삼성주택조합,서울특별시 송파구 오금동 160- 오금삼성,0.0,삼성물산,A13813003,2,024045336,21170.2476,0.0,0.0,0.0,215.0,오금삼성,22540.46,024045335,12, ,19890515.0,9.0,215.0,12.0,16904.73,5742.0,13605540,0,0,59776,0,0,0,0,900000,0,202401,서울특별시 송파구 오금동 160-,37.4965547540795,127.139215599972
1171011200,아파트,혼합식,지역난방,위탁관리,분양,서울특별시 송파구 오금로 405,226.0,동성건설,서울특별시 송파구 오금동 166- 가락상아1차,0.0,동성건설,A13813004,3,024315827,26915.698,154.0,0.0,0.0,72.0,가락상아1차,44892.764,024025827,12,가락상아1차.apti.co.kr,19841212.0,8.0,226.0,12.0,21494.98,5741.0,18875140,0,29534760,71158,0,12886,2382,1167,4475710,9837810,202401,서울특별시 송파구 오금동 166-,37.4982621819191,127.135162341976
1171011200,아파트,계단식,지역난방,위탁관리,분양,서울특별시 송파구 동남로24길 6,264.0,(주)우창건설,서울특별시 송파구 오금동 164- 가락우창,1.0,(주)우창건설,A13813005,4,024305886,34030.32,192.0,0.0,0.0,72.0,가락우창,34030.32,024048772,12, ,19851007.0,11.0,264.0,12.0,27679.2,5740.0,25844380,0,47981220,0,0,0,0,0,5785390,5464800,202401,서울특별시 송파구 오금동 164-,37.4994375502061,127.13711139539
1171011200,아파트,혼합식,기타,위탁관리,분양,서울특별시 송파구 양재대로72길 15,285.0,오금제2구역 주택개량재개발조합,서울특별시 송파구 오금동 11- 오금현대백조,2.0,현대건설,A13813006,2,024011897,28064.39,84.0,0.0,79.0,122.0,오금현대백조,34216.14,024011896,19, ,19970124.0,7.0,285.0,19.0,21962.14,5652.0,14979340,0,35245420,57592,0,0,3126,1314,5782130,6570000,202401,서울특별시 송파구 오금동 11-,37.5093643015493,127.129096588722
1171011200,아파트,계단식,지역난방,위탁관리,분양,서울특별시 송파구 위례성대로 176,749.0,오금재개발조합,서울특별시 송파구 오금동 19- 오금대림,0.0,대림산업(주),A13813008,7,024489380,92228.0677,360.0,0.0,0.0,389.0,오금대림,94110.0,024082156,15,오금대림.apti.co.kr,19881210.0,25.0,749.0,15.0,78314.39,5652.0,49765223,0,150132830,209856,0,45766,11982,4386,15288420,0,202401,서울특별시 송파구 오금동 19-,37.5106367079515,127.128758558501
1171011200,아파트,계단식,지역난방,위탁관리,분양,서울특별시 송파구 오금로35길 17,1316.0,현대산업개발(주),서울특별시 송파구 오금동 43- 오금현대아파트,1.0,현대산업개발(주),A13813010,21,024431762,196192.962,672.0,280.0,0.0,364.0,오금현대아파트,202977.908,024022104,14, ,19841226.0,47.0,1316.0,14.0,166663.98,5658.0,111029870,0,266384880,559775,0,99224,16207,8024,19943880,40120000,202401,서울특별시 송파구 오금동 43-,37.5063971034072,127.127363436377
1171010700,아파트,복도식,기타,위탁관리,분양,서울특별시 송파구 오금로 370,210.0,현대시멘트조합주택,서울특별시 송파구 가락동 161-2 가락현대5차,0.0,현대산업개발,A13816001,3,024089529,21024.892,0.0,0.0,44.0,166.0,가락현대5차,21360.9,024089527,15, ,19861216.0,3.0,210.0,15.0,15626.86,5819.0,0,0,0,0,0,0,0,0,0,0,202401,서울특별시 송파구 가락동 161-2,37.5000311346249,127.130262531326
1171010700,아파트,계단식,지역난방,위탁관리,분양,서울특별시 송파구 송파대로32길 33,264.0,동부건설,서울특별시 송파구 가락동 95- 가락동부센트레빌,2.0,동부건설,A13816002,5,0220433163,44625.39,135.0,129.0,0.0,0.0,가락동부센트레빌,63270.34,0220433162,23, ,20011126.0,8.0,264.0,23.0,34100.13,5709.0,25760133,0,54244030,87311,0,429,4942,1809,5714190,13748400,202401,서울특별시 송파구 가락동 95-,37.4983324066007,127.116337209066
1171010700,주상복합,,,기타,,서울특별시 송파구 중대로 121,, ,서울특별시 송파구 가락동 79- 송파롯데캐슬파인힐,, ,A13816005,1,024049862,,0.0,102.0,0.0,0.0,송파롯데캐슬파인힐,,024049861,1, ,,0.0,102.0,29.0,18172.372,5718.0,0,0,0,0,0,0,0,0,0,0,202401,서울특별시 송파구 가락동 79-,37.4943520603963,127.121412444385
1171010700,아파트,계단식,개별난방,위탁관리,분양,서울특별시 송파구 송파대로37길 29,206.0,동부건설,서울특별시 송파구 가락동 478- 송파동부센트레빌,1.0,동부건설,A13816101,4,024040359,21934.88,0.0,0.0,0.0,206.0,송파동부센트레빌,29357.61,024040331,15, ,20041215.0,0.0,206.0,15.0,17505.88,5698.0,16692543,0,0,89415,0,0,3860,0,4553360,0,202401,서울특별시 송파구 가락동 478-,37.5004006710789,127.108569766181
1171010700,아파트,혼합식,중앙난방,위탁관리,분양,서울특별시 송파구 동남로18길 9,555.0,극동건설(주),서울특별시 송파구 가락동 192- 가락극동,0.0,극동건설(주),A13816202,7,024486471,61628.4,210.0,150.0,105.0,90.0,가락극동,74865.82,024037885,15, ,19841210.0,16.0,555.0,15.0,61628.4,5783.0,51579417,0,119361120,183120,6858,0,0,3251,4008850,22757000,202401,서울특별시 송파구 가락동 192-,37.494851086928,127.13283790488
1171010400,아파트,계단식,지역난방,위탁관리(직영+위탁),혼합,서울특별시 송파구 오금로32길 31,794.0,반도아파트주택재건축정비사업조합,서울특별시 송파구 송파동 243- 래미안송파파인탑,2.0,삼성물산,A13817001,9,024220168,73940.5102,179.0,0.0,171.0,444.0,래미안송파파인탑,117966.39,024220167,28, ,20120106.0,18.0,794.0,28.0,54704.09,5673.0,66054291,0,75246640,238805,0,696,14647,5758,17193420,47230650,202401,서울특별시 송파구 송파동 243-,37.5029836751039,127.119488892903
1171010400,아파트,혼합식,개별난방,위탁관리,분양,서울특별시 송파구 송파대로48길 29,227.0,조합,서울특별시 송파구 송파동 33- 송파호수임광,2.0,남광토건,A13817101,2,0264288650,24565.29,0.0,0.0,119.0,108.0,송파호수임광,28268.38,024238650,12, ,19951017.0,7.0,227.0,12.0,15950.29,5623.0,3464440,0,215010,0,0,0,0,0,0,0,202401,서울특별시 송파구 송파동 33-,37.5103427659692,127.107137210321
1171010500,아파트,계단식,개별난방,위탁관리,분양,서울특별시 송파구 백제고분로 348,393.0,재건축조합,서울특별시 송파구 석촌동 285- 잠실한솔,2.0,한솔건설,A13819001,7,0220429231,40474.67,0.0,0.0,86.0,307.0,잠실한솔,53498.0,024169640,19, ,20001010.0,11.0,393.0,19.0,31208.09,5684.0,25925070,0,0,116694,0,0,7284,0,9876590,0,202401,서울특별시 송파구 석촌동 285-,37.5040827777916,127.105219660796
1171010800,아파트,계단식,개별난방,위탁관리,분양,서울특별시 송파구 송이로 257,150.0,(주)대우,서울특별시 송파구 문정동 117- 문정3차푸르지오,2.0,(주)대우건설,A13820001,2,024043379,15952.065,0.0,0.0,0.0,150.0,문정3차푸르지오,16059.39,024044117,15,없음,20020813.0,5.0,150.0,15.0,12744.0,5798.0,11807623,0,0,51775,0,0,3345,0,3635090,0,202401,서울특별시 송파구 문정동 117-,37.487459356122,127.132963213694
1171010800,아파트,계단식,개별난방,위탁관리,분양,서울특별시 송파구 송이로31길 66,157.0,세양지역주택조합,서울특별시 송파구 문정동 146- 문정세양청마루,1.0,세양건설,A13820002,2,024032523,12158.08,0.0,0.0,157.0,0.0,문정세양청마루,14742.7,024032521,14, ,20040501.0,6.0,157.0,14.0,9405.87,5781.0,11107090,0,0,45496,0,0,0,0,0,0,202401,서울특별시 송파구 문정동 146-,37.4926832255276,127.136975791889
1171010800,아파트,계단식,지역난방,위탁관리,분양,서울특별시 송파구 동남로 160,514.0,한국도시개발(주),서울특별시 송파구 문정동 3- 가락1차현대아파트,0.0,현대산업개발,A13820004,8,024022338,66648.63,286.0,0.0,0.0,228.0,가락1차현대아파트,67951.591,024082336,14, ,19841114.0,20.0,514.0,14.0,54727.9,5795.0,40181090,0,89164640,163253,0,34218,0,3535,63200,18350800,202401,서울특별시 송파구 문정동 3-,37.491466228576,127.128481171986
1171010800,아파트,계단식,지역난방,위탁관리,분양,서울특별시 송파구 새말로8길 12,545.0,7개주택조합연합,서울특별시 송파구 문정동 72-3 문정건영,1.0,건영,A13820005,5,024032704,64249.5,0.0,0.0,0.0,545.0,문정건영,66903.0,024307450,15, ,19961010.0,18.0,545.0,15.0,45793.65,5817.0,39223065,0,96710890,155353,0,23580,5809,4390,5633200,0,202401,서울특별시 송파구 문정동 72-3,37.4814504706559,127.125949530845
1171010800,아파트,계단식,지역난방,위탁관리,분양,서울특별시 송파구 문정로 83,1696.0,문정주공재건축조합,서울특별시 송파구 문정동 1- 문정래미안,0.0,삼성물산,A13820006,31,024495878,255669.54,966.0,388.0,0.0,342.0,문정래미안,381065.0,024024023,22,www.moonjungraemian.com,20040930.0,46.0,1696.0,22.0,211278.78,5794.0,153930040,0,346188470,545541,0,2907,31666,12698,39660990,82537000,202401,서울특별시 송파구 문정동 1-,37.4892043157404,127.130231968818
1171010800,아파트,복도식,지역난방,위탁관리,분양,서울특별시 송파구 송이로31길 56,1316.0,서울시 건설본부,서울특별시 송파구 문정동 145- 문정시영,0.0,"태영건설, 현대산업개발",A13820007,10,024032653,79608.564,0.0,0.0,1316.0,0.0,문정시영,81117.288,024067588,14, ,19890330.0,20.0,1316.0,14.0,50581.44,5786.0,36021800,0,107428250,202058,0,55668,0,2878,37490,18332860,202401,서울특별시 송파구 문정동 145-,37.4908616244741,127.136383679953
1171010800,아파트,계단식,지역난방,위탁관리,분양,서울특별시 송파구 중대로 24,4494.0,"대우,럭키개발,롯데건설,선경건설,태평양건설",서울특별시 송파구 문정동 150- 올림픽훼밀리타운,0.0,"대우,럭키개발,롯데건설,선경건설,태평양건설",A13820201,56,024304043,646257.474,900.0,2094.0,0.0,1500.0,올림픽훼밀리타운,667132.0,024046006,15,www.oftapt.com,19881221.0,151.0,4494.0,15.0,537573.39,5834.0,273962983,16587070,805886770,1326122,13465,6818225,53990,29360,77927800,185261600,202401,서울특별시 송파구 문정동 150-,37.488125746629,127.111059136873
1171010900,아파트,계단식,개별난방,위탁관리,혼합,서울특별시 송파구 새말로12길 16,181.0,SH공사,서울특별시 송파구 장지동 837- 송파파인타운4단지,1.0,신한종합건설(주),A13821001,4,024313717,17349.805,0.0,0.0,75.0,106.0,송파파인타운4단지,23655.19,024492431,15, ,20080403.0,0.0,181.0,15.0,13479.87,5811.0,10493470,0,0,54711,0,0,3264,0,4181770,0,202401,서울특별시 송파구 장지동 837-,37.4820278121959,127.130129401329
1171010900,아파트,혼합식,개별난방,위탁관리,혼합,서울특별시 송파구 송파대로8길 58,333.0,SH공사,서울특별시 송파구 장지동 854- 송파파인타운11단지,1.0,(주)일성건설,A13821002,9,024086145,32744.2,0.0,0.0,124.0,209.0,송파파인타운11단지,43661.66,024016145,19, ,20070731.0,14.0,333.0,19.0,25187.5,5813.0,21779220,0,0,130945,0,0,5985,0,6560610,0,202401,서울특별시 송파구 장지동 854-,37.4802321585331,127.133790214493
1171010900,아파트,혼합식,개별난방,위탁관리,혼합,서울특별시 송파구 충민로4길 5,455.0,SH공사,서울특별시 송파구 장지동 845- 송파파인타운5단지,2.0,(주)진흥기업,A13821003,6,024035504,40090.6,0.0,0.0,225.0,230.0,송파파인타운5단지,57373.49,024035503,21, ,20080822.0,12.0,455.0,21.0,30770.04,5812.0,24782290,0,0,154987,0,0,8577,0,9210150,0,202401,서울특별시 송파구 장지동 845-,37.4796206706018,127.129726468504
1171010900,아파트,혼합식,개별난방,위탁관리,혼합,서울특별시 송파구 충민로4길 19,537.0,sh,서울특별시 송파구 장지동 844- 송파파인타운7단지,2.0,극동건설,A13821004,6,024007741,47668.186,0.0,0.0,300.0,237.0,송파파인타운7단지,68286.133,024007749,17, ,20071224.0,14.0,537.0,17.0,35108.58,5812.0,30773293,0,1213560,155050,0,0,9246,0,9907890,0,202401,서울특별시 송파구 장지동 844-,37.4792099224867,127.129952666259
1171010900,아파트,혼합식,개별난방,위탁관리,혼합,서울특별시 송파구 송파대로8길 20,545.0,sh공사,서울특별시 송파구 장지동 856- 송파파인타운10단지,2.0,중앙건설,A13821005,9,024044552,41874.525,0.0,0.0,545.0,0.0,송파파인타운10단지,58785.64,024044556,18, ,20070820.0,14.0,545.0,18.0,30048.26,5813.0,27428399,0,0,179046,0,0,8654,0,9103490,0,202401,서울특별시 송파구 장지동 856-,37.4781340156972,127.131186737728
1171010900,아파트,혼합식,개별난방,위탁관리,혼합,서울특별시 송파구 충민로4길 6,700.0,SH공사,서울특별시 송파구 장지동 842- 송파파인타운8단지,0.0,(주)신창건설,A13821006,5,0220439991,48249.69,0.0,0.0,700.0,0.0,송파파인타운8단지,72535.03,0220439990,20, ,20081020.0,15.0,700.0,20.0,34503.12,5815.0,31683372,0,0,212718,0,0,11822,0,11570160,0,202401,서울특별시 송파구 장지동 842-,37.4796538239777,127.128078127392
1171010900,아파트,혼합식,개별난방,위탁관리,혼합,서울특별시 송파구 송파대로8길 17,796.0,sh공사,서울특별시 송파구 장지동 843- 송파파인타운9단지,2.0,신일산업,A13821007,7,0260126228,54298.78,0.0,0.0,796.0,0.0,송파파인타운9단지,81605.38,024003801,17, ,20071224.0,18.0,796.0,17.0,38576.72,5815.0,33837560,0,0,236511,0,0,11357,0,11261630,0,202401,서울특별시 송파구 장지동 843-,37.4780152934722,127.12936100839
1171010100,아파트,계단식,지역난방,위탁관리,분양,서울특별시 송파구 잠실로 88,2678.0,"삼성물산건설부문, GS건설",서울특별시 송파구 잠실동 44- 잠실레이크팰리스,2.0,"삼성, gs",A13822001,35,0221471005,335910.32,678.0,452.0,536.0,1012.0,잠실레이크팰리스,492205.05,0221471000,32,lakepalace.kr,20061228.0,56.0,2678.0,32.0,258281.7,5607.0,237063418,0,429073710,860595,0,3224,52179,21373,60683620,128238000,202401,서울특별시 송파구 잠실동 44-,37.5075341594038,127.093214315872
1171010100,아파트,계단식,지역난방,위탁관리,분양,서울특별시 송파구 잠실로 62,3696.0,잠실3단지 재건축조합,서울특별시 송파구 잠실동 35- 잠실동트리지움,2.0,"GS건설,현대건설,현대산업개발",A13822002,46,024257161,410089.2274,330.0,224.0,740.0,2402.0,잠실동트리지움,597873.0,024257157,32,jamsil3zium.com,20070824.0,75.0,3696.0,32.0,319527.2,5555.0,344367897,0,586598630,1169664,0,323757,70094,28290,75720040,113160000,202401,서울특별시 송파구 잠실동 35-,37.5080150494419,127.090283544652
1171010100,아파트,혼합식,지역난방,위탁관리,분양,서울특별시 송파구 올림픽로 135,5563.0,"우방,삼성,대우,대림",서울특별시 송파구 잠실동 22- 잠실리센츠,2.0,"우방,삼성,대우,대림",A13822003,65,024190039,581999.09,860.0,0.0,1113.0,3590.0,잠실리센츠,935053.0,024190035,33,www.movill.net/05502,20080731.0,119.0,5563.0,33.0,447329.99,5502.0,433231202,0,928113440,1649819,0,569468,101281,40820,118831420,196344200,202401,서울특별시 송파구 잠실동 22-,37.516733284228,127.089889095677
1171010100,아파트,계단식,지역난방,위탁관리,분양,서울특별시 송파구 올림픽로 99,5678.0,잠실1단지재건축조합,서울특별시 송파구 잠실동 19- 잠실엘스아파트,2.0,"대림,삼성,현대,현산",A13822004,72,024162280,618665.76,486.0,0.0,1150.0,4042.0,잠실엘스아파트,935380.36,024162883,34,www.jsls.co.kr,20080930.0,117.0,5678.0,34.0,470139.94,5501.0,491857204,0,877749420,1785462,0,459947,116168,42973,133867350,236351500,202401,서울특별시 송파구 잠실동 19-,37.5151252476966,127.078130036923
1171010100,주상복합,혼합식,지역난방,위탁관리,분양,서울특별시 송파구 올림픽로 212,741.0,한화건설,서울특별시 송파구 잠실동 40- 갤러리아팰리스,5.0,"삼성물산,한화건설",A13822301,3,0221454901,142343.816,137.0,556.0,0.0,48.0,갤러리아팰리스,265791.63,0221454900,46,www.cvnet.co.kr,20050111.0,22.0,741.0,46.0,109302.774,5553.0,133392275,0,154979718,600332,0,1385,11233,3785,14265030,28387500,202401,서울특별시 송파구 잠실동 40-,37.5107067799275,127.094231575378
1171010100,아파트,계단식,지역난방,위탁관리,분양,서울특별시 송파구 올림픽로4길 15,1356.0,서울특별시,서울특별시 송파구 잠실동 86- 잠실아시아선수촌,1.0,"신성, 우성건설",A13822701,18,024165032,236425.206,636.0,720.0,0.0,0.0,잠실아시아선수촌,236718.0,0222020086,18,www.yesvill.com/asia86/,19860614.0,52.0,1356.0,18.0,189531.564,5572.0,148116160,7816550,323746820,445697,6081,183424,24151,8266,29012650,36453060,202401,서울특별시 송파구 잠실동 86-,37.5086743363441,127.074777283239
1171010100,아파트,혼합식,지역난방,위탁관리,분양,서울특별시 송파구 올림픽로4길 42,1842.0,우성,"서울특별시 송파구 잠실동 101-1 잠실우성1,2,3차",0.0,우성,A13822702,26,024254712,219002.52,1230.0,267.0,0.0,345.0,"잠실우성1,2,3차",233187.0,024180332,15,woosung123.apti.co.kr,19811208.0,64.0,1842.0,15.0,201359.49,5571.0,0,0,0,0,0,0,0,0,0,0,202401,서울특별시 송파구 잠실동 101-1,37.5083255540399,127.072027874321
1171010100,아파트,혼합식,지역난방,위탁관리,분양,서울특별시 송파구 백제고분로18길 30,555.0,우성,서울특별시 송파구 잠실동 320- 잠실우성4차,0.0,우성건설,A13822902,7,024188105,61443.42,449.0,0.0,0.0,106.0,잠실우성4차,63326.889,024188104,15, ,19830831.0,17.0,555.0,15.0,54654.67,5580.0,41729500,0,83007500,244013,0,29384,3268,3268,4678765,22876000,202401,서울특별시 송파구 잠실동 320-,37.5026914276423,127.082183474009
1171010200,주상복합,계단식,개별난방,자치관리,분양,서울특별시 송파구 올림픽로35길 93,189.0,프리즘,서울특별시 송파구 신천동 11-8 포스코더샵스타리버,4.0,포스코,A13824001,2,024151926,53091.27,11.0,178.0,0.0,0.0,포스코더샵스타리버,76448.64,024151925,39, ,20060929.0,6.0,189.0,39.0,29694.4,5510.0,28386233,0,0,124913,0,0,3741,0,4451440,0,202401,서울특별시 송파구 신천동 11-8,37.5177732771804,127.10439265685
1171010200,주상복합,계단식,개별난방,자치관리,분양,서울특별시 송파구 올림픽로35가길 10,213.0,포스코건설,서울특별시 송파구 신천동 7-14 잠실더샵스타파크,4.0,포스코건설,A13824002,3,024182727,46066.1193,0.0,213.0,0.0,0.0,잠실더샵스타파크,99828.45,024182730,39,www.jsthesharp.co.kr,20080912.0,7.0,213.0,39.0,38108.61,5510.0,63547870,666760,0,236156,0,0,9300,0,10322440,0,202401,서울특별시 송파구 신천동 7-14,37.516940130045,127.102633008407
1171010200,아파트,복도식,중앙난방,위탁관리,분양,서울특별시 송파구 올림픽로35가길 11,493.0,한신공영,서울특별시 송파구 신천동 11-9 한신코아,2.0,한신공영,A13824003,1,024144056,34937.4086,0.0,0.0,452.0,41.0,한신코아,34949.774,024162203,15,cafe.naver.com/hanshincore,19881230.0,3.0,493.0,15.0,23856.36,5510.0,17456025,0,39677125,0,0,0,0,0,1374575,6622000,202401,서울특별시 송파구 신천동 11-9,37.5163298028991,127.104060465697
1171010200,아파트,혼합식,지역난방,자치관리,분양,서울특별시 송파구 올림픽로35길 104,3402.0,라이프주택개발,서울특별시 송파구 신천동 11- 신천장미1차2차,1.0,라이프주택개발,A13824005,31,024248146,412192.168,1162.0,252.0,0.0,1988.0,신천장미1차2차,412227.0,024230274,14,jsrose.kr,19790124.0,41.0,3402.0,14.0,320135.9,5504.0,286411359,0,664870387,1446641,0,271334,0,16956,3567915,84780000,202401,서울특별시 송파구 신천동 11-,37.5198173607856,127.099297662181
1171010200,아파트,계단식,지역난방,위탁관리,분양,서울특별시 송파구 올림픽로 435,6864.0,"두산,쌍용,삼성,대림,코오롱,현대",서울특별시 송파구 신천동 17- 잠실파크리오,2.0,6개 시공사,A13824006,66,0234317415,770030.04,642.0,574.0,1388.0,4260.0,잠실파크리오,1142141.05,0234317411,36,jsparkrio.com,20080829.0,111.0,6864.0,36.0,597298.22,5507.0,551958459,0,1094652670,2206199,0,528509,137535,50412,146589140,246479800,202401,서울특별시 송파구 신천동 17-,37.5213592954462,127.104971745978
1171010200,주상복합,복도식,중앙난방,위탁관리,분양,서울특별시 송파구 올림픽로 269,400.0,롯데쇼핑,서울특별시 송파구 신천동 7-18 롯데캐슬골드,0.0,롯데건설,A13872502,2,0221430108,93291.16,8.0,392.0,0.0,0.0,롯데캐슬골드,243460.86,02-2143-0100,36,www.lottecastlegold.com,20051122.0,16.0,400.0,36.0,69171.24,5510.0,109559001,0,66881910,214339,0,555650,7516,2828,9388300,29089770,202401,서울특별시 송파구 신천동 7-18,37.5144273491608,127.100611434725
1171010200,주상복합,타워형,지역난방,자치관리,분양,서울특별시 송파구 올림픽로35가길 9,288.0,잠실프로젝트금융투자(주),서울특별시 송파구 신천동 11-4 잠실푸르지오월드마크,4.0,주)대우건설,A13872503,2,024216006,62328.36,226.0,8.0,0.0,54.0,잠실푸르지오월드마크,62328.36,024218700,39, ,20130619.0,6.0,288.0,39.0,32391.62,5510.0,36873290,0,27855100,106579,0,223,5259,1917,6566540,14343570,202401,서울특별시 송파구 신천동 11-4,37.5174846188512,127.103444795508
1171010200,아파트,계단식,개별난방,자치관리,분양,서울특별시 송파구 올림픽로35길 94,120.0,라이프 주택개발,서울특별시 송파구 신천동 11- 장미3차,1.0,라이프 주택개발,A13872504,2,024158558,16099.2,120.0,0.0,0.0,0.0,장미3차,19331.0,024150588,12, ,19840817.0,5.0,120.0,12.0,16099.2,5504.0,10855200,34320,0,12160,1326,0,249,0,275000,0,202401,서울특별시 송파구 신천동 11-,37.5185199463929,127.10397493598
1171011200,아파트,복도식,개별난방,위탁관리,임대,서울특별시 송파구 양재대로72길 20,153.0,현대건설,서울특별시 송파구 오금동 11- 오금현대백조(임대),1.0,현대건설,A13873701,1,024000497,4743.0,0.0,0.0,153.0,0.0,오금현대백조(임대),7317.76,024000298,14, ,19970124.0,2.0,153.0,14.0,4743.0,5656.0,1414420,195500,0,0,0,0,1263,0,1425060,0,202401,서울특별시 송파구 오금동 11-,37.5088591919527,127.128855148945
1171010900,아파트,혼합식,개별난방,위탁관리,혼합,서울특별시 송파구 충민로6길 14,564.0,sh공사,서울특별시 송파구 장지동 847- 송파파인타운6단지,0.0,경남기업,A13876108,7,024491490,52799.025,0.0,0.0,225.0,339.0,송파파인타운6단지,72224.0,024491489,20, ,20080825.0,15.0,564.0,20.0,42285.52,5812.0,36168944,0,0,171277,0,0,10201,0,13234210,0,202401,서울특별시 송파구 장지동 847-,37.4806977349833,127.131439613448
1171010900,아파트,혼합식,개별난방,위탁관리,혼합,서울특별시 송파구 충민로 151,374.0,sh공사,서울특별시 송파구 장지동 835- 송파파인타운2단지,2.0,울트라건설(주),A13876109,9,024098985,30484.02,0.0,0.0,263.0,111.0,송파파인타운2단지,43248.7,024098984,15, ,20080925.0,13.0,374.0,15.0,22522.79,5799.0,19174613,0,0,98326,0,0,6159,0,6205980,0,202401,서울특별시 송파구 장지동 835-,37.4835171379025,127.13130638729
1171010900,아파트,계단식,개별난방,위탁관리,분양,서울특별시 송파구 충민로 152,625.0,신일건업,서울특별시 송파구 장지동 849- 송파파인타운3단지,0.0,sh공사,A13876110,10,024032513,65701.975,0.0,0.0,0.0,625.0,송파파인타운3단지,91403.76,024032511,19, ,20080718.0,19.0,625.0,19.0,53093.74,5792.0,43647740,0,0,199433,0,0,11508,0,14000110,0,202401,서울특별시 송파구 장지동 849-,37.4834422171547,127.131834041645
1171010900,아파트,계단식,개별난방,위탁관리,혼합,서울특별시 송파구 충민로 188,221.0,sh공사,서울특별시 송파구 장지동 833- 송파파인타운1단지,1.0,삼중종합건설(주),A13876111,7,024310073,23480.334,0.0,0.0,0.0,221.0,송파파인타운1단지,31808.37,024310070,10, ,20100119.0,0.0,221.0,10.0,18773.18,5792.0,17385660,0,0,92705,0,0,4043,0,4693230,0,202401,서울특별시 송파구 장지동 833-,37.4862288583572,127.134547727039
1171010900,아파트,계단식,개별난방,위탁관리,분양,서울특별시 송파구 송파대로8길 10,197.0,SH공사,서울특별시 송파구 장지동 857- 송파파인타운13단지,1.0,양우건설(주),A13876112,4,024002668,22520.26,0.0,0.0,0.0,197.0,송파파인타운13단지,30646.47,024002658,17, ,20110127.0,6.0,197.0,17.0,16719.63,5813.0,12905640,0,294220,61405,0,0,3351,0,4278250,0,202401,서울특별시 송파구 장지동 857-,37.4768967101472,127.129178644934
1171010900,아파트,계단식,지역난방,위탁관리,분양,서울특별시 송파구 위례광장로 163,1139.0,LH,서울특별시 송파구 장지동 879- 송파더센트레아파트,2.0,(주)한라,A13876113,12,024492212,89541.3223,0.0,0.0,1139.0,0.0,송파더센트레아파트,130136.74,024492210,25,cafe.daum.net/hallavivaldi22,20131101.0,33.0,1139.0,25.0,62698.71,5848.0,70300130,0,86425930,288578,0,626772,16980,5832,20955300,44964370,202401,서울특별시 송파구 장지동 879-,37.4796684004455,127.139322763666
1171010900,아파트,계단식,지역난방,위탁관리,분양,서울특별시 송파구 위례광장로 121,1810.0,LH공사,서울특별시 송파구 장지동 901- 송파꿈에그린아파트,2.0,한화건설,A13876114,22,024066777,159040.226,0.0,0.0,1210.0,600.0,송파꿈에그린아파트,229029.0,07042220891,21,http://songpadreamapt.co.kr/,20131108.0,53.0,1810.0,21.0,116176.44,5853.0,118707150,0,142687650,536265,0,1290,31488,13017,37187060,67037550,202401,서울특별시 송파구 장지동 901-,37.476865039892,127.138216293782
1171010400,아파트,계단식,지역난방,위탁관리,분양,서울특별시 송파구 오금로32길 14,845.0,송파성원재건축주택조합,서울특별시 송파구 송파동 162- 송파삼성래미안,2.0,삼성물산,A13877501,13,024233959,113055.345,476.0,42.0,0.0,327.0,송파삼성래미안,158011.0,024233973,23, ,20011221.0,22.0,845.0,23.0,84616.9,5672.0,75146964,0,137781785,269913,0,1063884,10603,6505,12892930,43574740,202401,서울특별시 송파구 송파동 162-,37.5052537370259,127.117804530879
1171010100,아파트,복도식,지역난방,자치관리,분양,서울특별시 송파구 송파대로 567,3930.0,LH,서울특별시 송파구 잠실동 27- 잠실5단지아파트,0.0,LH공사,A13879102,30,024127452,451636.431,0.0,0.0,0.0,3930.0,잠실5단지아파트,455033.0,024224005,15,https://xn--5-4t8e822brse23c.apti.co.kr/aptHome/,19780415.0,55.0,3930.0,15.0,310408.5,5503.0,323150941,0,620576310,1268770,0,316108,0,24211,-16994350,111370600,202401,서울특별시 송파구 잠실동 27-,37.5131381759342,127.09304868009
1171010700,아파트,계단식,개별난방,위탁관리,분양,서울특별시 송파구 송이로15길 31,492.0,쌍용건설,서울특별시 송파구 가락동 21-6 가락2차쌍용아파트,2.0,쌍용건설,A13880105,5,024082271,49644.67,0.0,0.0,175.0,317.0,가락2차쌍용아파트,61165.0,024082270,26, ,19991027.0,10.0,492.0,26.0,37240.14,5705.0,32256980,0,827620,147029,0,0,9096,0,10509790,0,202401,서울특별시 송파구 가락동 21-6,37.5021716517865,127.122168125123
1171010700,아파트,계단식,개별난방,위탁관리,분양,서울특별시 송파구 송이로19길 8,160.0,한미은행 연합조합,서울특별시 송파구 가락동 55- 가락현대6차,0.0,현대건설,A13880201,2,024496408,17454.544,0.0,0.0,0.0,160.0,가락현대6차,17689.84,024496408,10, ,19911214.0,8.0,160.0,10.0,13568.0,5716.0,10177570,0,0,46734,0,0,0,0,920000,0,202401,서울특별시 송파구 가락동 55-,37.4973323263979,127.122799739829
1171010700,아파트,혼합식,지역난방,위탁관리,분양,서울특별시 송파구 송이로 88,443.0,가락대림아파트입주자대표회의,서울특별시 송파구 가락동 70-19 가락대림아파트,1.0,1,A13880204,4, ,49190.41,140.0,0.0,30.0,273.0,가락대림아파트,49190.98,024032259,15, ,19881118.0,13.0,443.0,15.0,38894.96,5707.0,32407140,0,56479470,118453,0,20305,0,2492,708800,16198000,202401,서울특별시 송파구 가락동 70-19,37.4994910318586,127.118311048913
1171010700,아파트,혼합식,지역난방,위탁관리,분양,서울특별시 송파구 송파대로32길 8,838.0,가락제1구역 재개발 조합,서울특별시 송파구 가락동 96-1 가락우성1차,0.0,(주)우성건설,A13880406,7,024048467,72518.75,210.0,0.0,629.0,0.0,가락우성1차,73785.386,024006608,15, ,19861206.0,14.0,839.0,15.0,55919.14,5711.0,48344890,4873490,92046110,205063,0,28316,11041,3912,13769540,12275850,202401,서울특별시 송파구 가락동 96-1,37.4968570896254,127.117711388833
1171010700,아파트,혼합식,지역난방,위탁관리,분양,서울특별시 송파구 송파대로32길 15,915.0,금호건설,서울특별시 송파구 가락동 95-1 가락금호,0.0,금호건설,A13880407,8,024436475,88359.863,0.0,0.0,458.0,457.0,가락금호,105825.258,024073582,26, ,19970811.0,17.0,915.0,26.0,66271.23,5710.0,54156330,0,112476470,241039,0,897,16895,6646,17470280,49845000,202401,서울특별시 송파구 가락동 95-1,37.4965824118518,127.11575708533
1171010700,아파트,혼합식,개별난방,위탁관리,분양,서울특별시 송파구 중대로12길 35,162.0,가락동조합아파트,서울특별시 송파구 가락동 120-4 가락우성2차아파트,2.0,우성건설,A13880602,2,024487459,19536.42,0.0,0.0,82.0,80.0,가락우성2차아파트,20701.15,024007459,20, ,20000614.0,4.0,162.0,20.0,11490.5,5832.0,10307690,0,0,45376,0,0,0,0,0,0,202401,서울특별시 송파구 가락동 120-4,37.4920155636208,127.125471424252
1171010700,아파트,계단식,중앙난방,위탁관리,분양,서울특별시 송파구 송파대로 220,256.0,포철직장조합,서울특별시 송파구 가락동 102- 가락한신,0.0,한신공영,A13880603,2,024481544,29619.2,0.0,0.0,0.0,256.0,가락한신,30283.19,024481558,15, ,19930429.0,9.0,256.0,15.0,21636.24,5831.0,16492700,0,48315870,72724,2397,0,4214,1150,6081310,5750000,202401,서울특별시 송파구 가락동 102-,37.4898704122647,127.12162681587
1171010700,아파트,혼합식,지역난방,위탁관리,분양,서울특별시 송파구 동남로11길 4,435.0,농협중앙회재무부주택조합,서울특별시 송파구 가락동 138- 가락미륭아파트,0.0,동부건설,A13880701,4,024020013,39024.7845,0.0,0.0,75.0,360.0,가락미륭아파트,42976.642,024037719,15,garakmirungapt.co.kr,19861107.0,9.0,435.0,15.0,29993.54,5826.0,25729840,0,45246120,111727,0,12841,0,2276,91020,0,202401,서울특별시 송파구 가락동 138-,37.4939189176892,127.128011905847
1171010700,아파트,계단식,중앙난방,위탁관리,분양,서울특별시 송파구 동남로 193,2064.0,쌍용건설 주식회사,서울특별시 송파구 가락동 140- 가락쌍용1차,0.0,쌍용건설 주식회사,A13880806,14,0234021039,231986.7888,0.0,0.0,1032.0,1032.0,가락쌍용1차,248144.0,0234021037,24, ,19970320.0,49.0,2064.0,24.0,149237.52,5823.0,121950936,0,328244810,566910,0,2204534,25584,13099,31832470,65495000,202401,서울특별시 송파구 가락동 140-,37.4946982310161,127.129223095507
1171010700,아파트,혼합식,지역난방,위탁관리,분양,서울특별시 송파구 동남로 225,919.0,삼성물산,서울특별시 송파구 가락동 165- 가락래미안파크팰리스,2.0,삼성물산,A13881005,14,024008014,100315.858,176.0,0.0,194.0,549.0,가락래미안파크팰리스,149684.0,024008013,27,openapt.seoul.go.kr/openApt/index.do,20071115.0,22.0,919.0,27.0,78446.21,5820.0,62782660,0,104901910,348205,0,989,17688,6818,20184120,60642000,202401,서울특별시 송파구 가락동 165-,37.4980047341751,127.130868208485
1171010700,아파트,혼합식,지역난방,위탁관리,분양,서울특별시 송파구 오금로 432,648.0,(주)삼환까뮤,서울특별시 송파구 가락동 176- 삼환가락,1.0,(주)삼환까뮤,A13881103,9,024028284,78364.224,265.0,0.0,0.0,383.0,삼환가락,78364.224,0264868798,12, ,19841128.0,19.0,648.0,12.0,62233.816,5770.0,56209870,0,108394640,209518,0,36392,10417,3669,12749250,0,202401,서울특별시 송파구 가락동 176-,37.4961832762292,127.136818891265
1171010700,아파트,계단식,지역난방,위탁관리,분양,서울특별시 송파구 문정로 125,673.0,태평양건설,서울특별시 송파구 가락동 199- 가락프라자,1.0,태평양건설,A13881204,11,0264780699,92093.65,336.0,48.0,0.0,288.0,가락프라자,92093.65,024008412,12, ,19850731.0,28.0,672.0,12.0,76876.8,5785.0,94696310,0,95420620,488725,0,37774,17350,4553,30055400,25092270,202401,서울특별시 송파구 가락동 199-,37.4923791209484,127.134003319293
1171011300,아파트,계단식,개별난방,위탁관리,분양,서울특별시 송파구 거마로 41,303.0,현대건설,서울특별시 송파구 거여동 46- 거여현대3차,2.0,현대건설,A13881302,3,024434562,33471.012,0.0,0.0,0.0,303.0,거여현대3차,34827.72,024037436,15, ,19930719.0,11.0,303.0,15.0,25730.66,5735.0,21308209,404700,0,88689,0,0,0,0,0,0,202401,서울특별시 송파구 거여동 46-,37.4974112939546,127.144874298492
1171011300,아파트,계단식,개별난방,위탁관리,분양,서울특별시 송파구 오금로61길 20,280.0,현대건설,서울특별시 송파구 거여동 44- 거여현대2차,1.0,현대건설,A13881401,3,024310063,31296.72,0.0,0.0,0.0,280.0,거여현대2차,31296.732,024313666,12, ,19920420.0,13.0,280.0,12.0,23228.8,5768.0,3502210,114550,0,0,0,0,0,0,0,0,202401,서울특별시 송파구 거여동 44-,37.4947593188475,127.146517453377
1171011300,아파트,혼합식,개별난방,위탁관리,분양,서울특별시 송파구 오금로56길 16,257.0,(주)우방,서울특별시 송파구 거여동 356- 거여우방,2.0,(주)우방,A13881601,3,024074723,26636.78,36.0,0.0,129.0,92.0,거여우방,37122.675,024040726,18, ,19990909.0,7.0,257.0,18.0,19669.11,5771.0,18397300,125150,0,78743,0,0,10280,0,11330460,0,202401,서울특별시 송파구 거여동 356-,37.4929094146795,127.141981752976
1171011300,아파트,계단식,지역난방,위탁관리,분양,서울특별시 송파구 오금로54길 10,497.0,남산직장조합,서울특별시 송파구 거여동 362- 거여현대1차,0.0,남산직장조합,A13881603,5,024048490,55505.705,0.0,0.0,0.0,497.0,거여현대1차,55661.0,024498490,15, ,19920326.0,18.0,497.0,15.0,41111.1,5771.0,29585267,0,78684260,135678,0,0,6014,0,10547760,0,202401,서울특별시 송파구 거여동 362-,37.4936148255753,127.141068384979
1171011400,아파트,혼합식,개별난방,위탁관리,혼합,서울특별시 송파구 성내천로37길 37,812.0,SH,서울특별시 송파구 마천동 582- 송파파크데일1단지,2.0,우방건설,A13881701,15,024091998,74166.18,101.0,0.0,487.0,224.0,송파파크데일1단지,105770.07,024071998,15,www.songpaparkdale.com/,20110127.0,22.0,812.0,15.0,57032.74,5748.0,47104300,0,0,233552,0,0,13222,0,16378760,0,202401,서울특별시 송파구 마천동 582-,37.4987850346578,127.158101313303
1171010800,아파트,혼합식,개별난방,위탁관리,분양,서울특별시 송파구 송이로32길 37,165.0,제일은행 직장주택조합외 4개조합,서울특별시 송파구 문정동 19- 문정푸르지오2차,2.0,(주)대우,A13882401,2,0264552178,16731.0,0.0,0.0,53.0,112.0,문정푸르지오2차,24261.17,024072178,18, ,20010523.0,5.0,165.0,18.0,12652.85,5797.0,11389700,0,0,58883,0,0,2669,0,3060290,0,202401,서울특별시 송파구 문정동 19-,37.4869810920009,127.127244307271
1171010800,아파트,계단식,개별난방,위탁관리,분양,서울특별시 송파구 문정로 55,233.0,주택조합,서울특별시 송파구 문정동 18- 문정푸르지오1차,2.0,대우,A13882402,4,024072180,17745.76,0.0,0.0,81.0,152.0,문정푸르지오1차,30283.62,024072179,19, ,19991020.0,7.0,233.0,19.0,17745.76,5797.0,17083070,0,351580,0,0,0,0,0,4944860,0,202401,서울특별시 송파구 문정동 18-,37.4867641985951,127.127597847225
1171011100,아파트,계단식,중앙난방,위탁관리(직영+위탁),분양,서울특별시 송파구 양재대로 1089,252.0,(주)한양,서울특별시 송파구 방이동 225- 잠실한양3차,0.0,(주)한양,A13883601,3,024232937,29575.84,112.0,56.0,0.0,84.0,잠실한양3차,36811.52,024232936,14,www.jshapt3.co.kr,19850221.0,9.0,252.0,14.0,29575.84,5647.0,21112234,0,55461130,78645,0,0,0,1586,104420,7612800,202401,서울특별시 송파구 방이동 225-,37.5058510304045,127.122482653015
1171011100,아파트,계단식,지역난방,위탁관리,분양,서울특별시 송파구 오금로31길 27,758.0,성북전화국 외 10개 조합,서울특별시 송파구 방이동 212-8 방이코오롱,1.0,코오롱건설,A13883602,6,024139786,64365.76,0.0,0.0,0.0,758.0,방이코오롱,83235.0,024155810,15,방이코오롱아파트.apti.co.kr,19911018.0,27.0,758.0,15.0,64369.54,5646.0,48280423,0,103610610,223744,0,37794,14789,5225,20221170,31350000,202401,서울특별시 송파구 방이동 212-8,37.509011455707,127.122596508904
1171010400,아파트,혼합식,지역난방,위탁관리,분양,서울특별시 송파구 가락로 187,576.0,(주)한양건설,서울특별시 송파구 송파동 119- 한양아파트,0.0,(주)한양건설,A13885102,6,024143783,76553.04,143.0,288.0,0.0,145.0,한양아파트,76553.04,0264122228,12, ,19831221.0,17.0,576.0,12.0,67216.68,5664.0,44210158,0,81715000,182529,0,29663,0,3737,0,15321700,202401,서울특별시 송파구 송파동 119-,37.5057007966661,127.113310825576
1171010400,아파트,혼합식,개별난방,자치관리,분양,서울특별시 송파구 오금로32길 42,243.0,현대건설(주),서울특별시 송파구 송파동 163-14 송파현대1차,2.0,현대건설(주),A13885301,2,0234316152,24030.63,0.0,0.0,124.0,119.0,송파현대1차,30454.0,0234316153,22, ,19970516.0,5.0,243.0,22.0,17538.28,5672.0,15399320,0,0,67451,0,0,0,0,0,0,202401,서울특별시 송파구 송파동 163-14,37.5033642528101,127.117700794714
1171010400,아파트,혼합식,지역난방,자치관리,분양,서울특별시 송파구 오금로32길 10,378.0,라이프(주),서울특별시 송파구 송파동 161- 송파미성,1.0,라이프(주),A13885303,5,024178100,55125.434,168.0,112.0,42.0,56.0,송파미성,56766.0,024170097,14, ,19850112.0,13.0,378.0,14.0,45857.56,5672.0,37054550,0,81081800,127609,0,42998,4357,2546,3468400,10133080,202401,서울특별시 송파구 송파동 161-,37.5059294983467,127.11985686026
1171010400,아파트,계단식,지역난방,위탁관리,분양,서울특별시 송파구 가락로 192,744.0,(주)한양,서울특별시 송파구 송파동 151- 송파한양2차,1.0,(주)한양,A13885304,10,024208288,80604.96,311.0,145.0,0.0,288.0,송파한양2차,98677.53,024237427,12, ,19841023.0,28.0,744.0,12.0,80631.31,5670.0,62290672,0,125869880,245060,0,38112,0,4940,2160470,24700000,202401,서울특별시 송파구 송파동 151-,37.5047253336291,127.115946879188
1171010400,아파트,계단식,지역난방,위탁관리,분양,서울특별시 송파구 오금로32길 5,936.0,주식회사 삼익주택,서울특별시 송파구 송파동 166- 가락삼익맨숀,0.0,주식회사 삼익주택,A13885306,14,0264136400,118773.36,432.0,96.0,0.0,408.0,가락삼익맨숀,118773.36,024156401,12,가락삼익.apti.co.kr/,19841220.0,39.0,936.0,12.0,98770.397,5673.0,97552159,0,146876930,323725,0,44790,11595,6463,21807310,28764000,202401,서울특별시 송파구 송파동 166-,37.5048868696507,127.122478363524
1171011200,아파트,혼합식,지역난방,위탁관리,분양,서울특별시 송파구 오금로 407,750.0,동성개발,서울특별시 송파구 오금동 165- 상아2차아파트,1.0,동성개발,A13886009,6,024010008,62752.1726,0.0,0.0,504.0,246.0,상아2차아파트,62753.0,024086508,14, ,19881102.0,15.0,750.0,14.0,46918.2,5741.0,35942736,184940,72314290,167594,0,35791,7140,3384,13075470,17596800,202401,서울특별시 송파구 오금동 165-,37.4986413987929,127.136586683882
1171010100,아파트,계단식,지역난방,위탁관리,분양,서울특별시 송파구 백제고분로18길 7,336.0,현대,서울특별시 송파구 잠실동 331- 잠실현대,0.0,현대,A13886701,3,0222031134,27595.66,0.0,0.0,0.0,336.0,잠실현대,34058.15,024211979,15,잠실현대.apti.co.kr,19900817.0,12.0,336.0,15.0,27595.51,5577.0,20944980,0,52379360,95972,0,17928,4004,2118,5123290,10194750,202401,서울특별시 송파구 잠실동 331-,37.5042791756217,127.085489428416
1171010300,아파트,혼합식,지역난방,자치관리,분양,서울특별시 송파구 한가람로 468,236.0,신성,서울특별시 송파구 풍납동 510- 풍납신성노바빌,0.0,신성,A13887301,2,024717007,23870.48,38.0,0.0,124.0,74.0,풍납신성노바빌,31154.964,0264127006,19,풍납신성노뱌빌.apti.co.kr,20000930.0,0.0,236.0,19.0,18054.56,5515.0,16395410,0,26645700,64813,0,18963,2172,1302,4174000,8921390,202401,서울특별시 송파구 풍납동 510-,37.5383136020392,127.116879267066
1171010300,아파트,계단식,개별난방,위탁관리,분양,서울특별시 송파구 한가람로 448,782.0,동아건설외 9개 연합,서울특별시 송파구 풍납동 506- 풍납동아한가람,2.0,동아건설,A13887302,7,024723575,82564.4,0.0,0.0,83.0,699.0,풍납동아한가람,95001.0,024850844,18,cafe.daum.net/dahangaram,19950613.0,24.0,782.0,18.0,63979.03,5516.0,48156250,0,0,231132,0,0,12882,0,16423530,0,202401,서울특별시 송파구 풍납동 506-,37.5375052267279,127.115227202621
1171010300,아파트,혼합식,지역난방,위탁관리,분양,서울특별시 송파구 풍성로24길 42,384.0,현대건설,서울특별시 송파구 풍납동 261- 현대리버빌2차아파트,2.0,현대건설,A13887403,4,024779987,35645.24,20.0,0.0,182.0,182.0,현대리버빌2차아파트,46653.0,024779989,19, ,19991130.0,5.0,384.0,19.0,26616.76,5532.0,21254688,0,42450030,92467,0,343425,3918,2559,4422920,15507540,202401,서울특별시 송파구 풍납동 261-,37.5316299523255,127.116726962458
1171010300,아파트,혼합식,지역난방,위탁관리,분양,서울특별시 송파구 토성로 37,557.0,풍납동 제1지구 재건축 조합,서울특별시 송파구 풍납동 260- 풍납 현대리버빌1차,2.0,현대건설(주),A13887405,7,024762542,61601.55,45.0,108.0,277.0,127.0,풍납 현대리버빌1차,82390.4463,024764224,20, ,19991115.0,9.0,557.0,20.0,48459.45,5532.0,33467145,0,76322800,140501,0,529217,5761,3059,7360250,26783810,202401,서울특별시 송파구 풍납동 260-,37.5310977136334,127.115553699492
1171010300,아파트,혼합식,지역난방,위탁관리,분양,서울특별시 송파구 풍성로 14,275.0,라이프주택,서울특별시 송파구 풍납동 219- 풍납미성,0.0,라이프주택,A13887702,4,0264789071,35922.326,220.0,0.0,0.0,55.0,풍납미성,35922.33,024869071,11, ,19850617.0,11.0,275.0,11.0,28864.04,5525.0,24137580,0,45360470,93577,0,5535,0,1519,0,8559925,202401,서울특별시 송파구 풍납동 219-,37.5344946245068,127.113833983206
1171010300,아파트,계단식,개별난방,위탁관리,분양,서울특별시 송파구 풍성로26길 31,166.0,우신.재경연립주택및강동연립주택 재건축정비사업조합,서울특별시 송파구 풍납동 511- 송파현대힐스테이트,1.0,현대건설(주),A13887901,2,024722765,19120.0,48.0,0.0,12.0,106.0,송파현대힐스테이트,26573.41,024722760,12, ,20060224.0,8.0,166.0,12.0,15540.94,5531.0,14099057,0,0,60574,0,0,3253,0,4291100,0,202401,서울특별시 송파구 풍납동 511-,37.5308498276741,127.118304561274
1171010700,주상복합,계단식,개별난방,위탁관리,분양,서울특별시 송파구 송파대로28길 27,324.0,성원건설,서울특별시 송파구 가락동 80- 송파성원상떼빌,0.0,(주)성원아이컴,A13895501,2,0220439428,68199.76,228.0,96.0,0.0,0.0,송파성원상떼빌,68203.0,024093300,24, ,20060609.0,8.0,324.0,24.0,37765.39,5718.0,34571222,0,0,117925,0,0,4819,0,5477360,0,202401,서울특별시 송파구 가락동 80-,37.4948121610825,127.120132764747
1171010700,아파트,계단식,개별난방,위탁관리,분양,서울특별시 송파구 송이로19길 15,206.0,쌍용건설,서울특별시 송파구 가락동 52- 가락3차쌍용스윗닷홈(1~4동),1.0,쌍용건설,A13895502,4,024317021,22263.76,41.0,0.0,45.0,120.0,가락3차쌍용스윗닷홈(1~4동),28338.0,024317464,15,ssangyong3.aptgate.co.kr,20050228.0,11.0,206.0,15.0,17896.43,5714.0,17491758,0,0,91951,0,0,7976,0,4856740,0,202401,서울특별시 송파구 가락동 52-,37.4981160673895,127.122755449268
1171010700,주상복합,복도식,개별난방,위탁관리(직영+위탁),분양,서울특별시 송파구 중대로 127,160.0,한화건설,서울특별시 송파구 가락동 78-1 한화오벨리스크,4.0,한화건설,A13895503,1,024305753,11417.92,0.0,0.0,160.0,0.0,한화오벨리스크,11417.92,024305752,22, ,20041130.0,2.0,160.0,22.0,4704.0,5717.0,3327720,0,0,20337,0,0,0,0,0,0,202401,서울특별시 송파구 가락동 78-1,37.4948527624475,127.121924950047
1171010700,아파트,,,기타,,서울특별시 송파구 송파대로 220,, ,서울특별시 송파구 가락동 102- 아주,, ,A44377203,1,0312114137,,0.0,0.0,0.0,256.0,아주,,0312120510,1, ,,,256.0,15.0,21636.24,5831.0,0,0,0,0,0,0,0,0,0,0,202401,서울특별시 송파구 가락동 102-,37.4898704122647,127.12162681587
