bjdCode,codeAptNm,codeHallNm,codeHeatNm,codeMgrNm,codeSaleNm,address,hoCnt,kaptAcompany,kaptAddr,kaptBaseFloor,kaptBcompany,kaptCode,kaptDongCnt,kaptFax,kaptMarea,kaptMparea_135,kaptMparea_136,kaptMparea_60,kaptMparea_85,kaptName,kaptTarea,kaptTel,kaptTopFloor,kaptUrl,kaptUsedate,kaptdEcntp,kaptdaCnt,ktownFlrNo,privArea,zipcode,전기사용금액,가스사용금액,난방사용금액,전기사용량,가스사용량,난방사용량,냉수사용량,온수사용량,냉수사용금액,온수사용금액,집계날짜,cleaned_address,lat,lon
1117012500,주상복합,복도식,개별난방,위탁관리,분양,서울 용산구 한강대로 109,110.0,프리즘산업개발,서울특별시 용산구 한강로2가 2-11 한강로대우아이빌,0.0,대우건설,A10021269,1,027951793,6354.542,0.0,0.0,74.0,36.0,한강로대우아이빌,20923.0,027951792,15, ,20040922.0,2.0,110.0,,,,0,0,0,0,0,0,0,0,0,0,202401,서울특별시 용산구 한강로2,37.5300046920783,126.968166439864
1117013100,아파트,복도식,개별난방,자치관리(직영),분양,서울 용산구 독서당로 73-4,125.0,불명,서울특별시 용산구 한남동 29-4 한성아파트,1.0,불명,A10021339,2,027977362,6450.0,0.0,0.0,125.0,0.0,한성아파트,6889.0,027977361,6, ,19740808.0,1.0,125.0,,,,0,0,0,0,0,0,0,0,0,0,202401,서울특별시 용산구 한남동 29-4,37.5346122886722,127.009211897616
1117013100,주상복합,복도식,개별난방,자치관리,분양,서울 용산구 독서당로 22,129.0,이우식외131인,서울특별시 용산구 한남동 522-1 동원베네스트,4.0,동원시스템즈,A10021637,1,027960227,12645.6,107.0,0.0,0.0,22.0,동원베네스트,21810.39,027960226,13, ,20100302.0,2.0,129.0,,,,0,0,0,0,0,0,0,0,0,0,202401,서울특별시 용산구 한남동 522-1,37.5301631563664,127.007801799645
1117013300,아파트,혼합식,,위탁관리,분양,서울 용산구 서빙고로51길 64,123.0,서빙고재건축주택조합,서울특별시 용산구 서빙고동 293- 서빙고 그린파크 아파트,2.0,코오롱건설,A10022221,1,027492913,18.0,45.0,78.0,0.0,0.0,서빙고 그린파크 아파트,19.0,027492933,1, ,20000331.0,0.0,123.0,,,,0,0,0,0,0,0,0,0,0,0,202401,서울특별시 용산구 서빙고동 293-,37.5227430862454,126.991506654552
1117013100,,계단식,개별난방,위탁관리,분양,서울 용산구 서빙고로 413,122.0,현대건설,서울특별시 용산구 한남동 805- 한남동현대하이페리온아파트,3.0,현대건설,A10022228,2, ,30128.86,0.0,122.0,0.0,0.0,한남동현대하이페리온아파트,,027975989,17, ,20021227.0,,122.0,,,,0,0,0,0,0,0,0,0,0,0,202401,서울특별시 용산구 한남동 805-,37.5272954501599,127.004219892518
1117012800,아파트,타워형,,위탁관리,임대,서울특별시 용산구 한강로3,162.0,한신공영,서울특별시 용산구 한강로3가 100- 에피소드용산241,6.0,한신공영,A10022504,1,0262722252,12995.8541,0.0,0.0,162.0,0.0,에피소드용산241,18230.0,0262722250,20, ,20240226.0,,162.0,,,,0,0,0,0,0,0,0,0,0,0,202401,서울특별시 용산구 한강로3,37.5376077659829,126.974370079468
1117012900,,계단식,개별난방,자치관리,분양,서울특별시 용산구 이촌로14길 7,103.0,동원시스템즈,서울특별시 용산구 이촌동 434- 동원베네스트 아파트,2.0,동원시스템즈,A10022800,2,027017839,8749.541,0.0,0.0,0.0,103.0,동원베네스트 아파트,14804855.0,027017838,14, ,20051118.0,3.0,103.0,14.0,8752.141,4374.0,0,0,0,0,0,0,0,0,0,0,202401,서울특별시 용산구 이촌동 434-,37.5270731316613,126.954965585803
1117012500,아파트,계단식,개별난방,위탁관리,분양,서울특별시 용산구 한강대로53길 16,146.0,랜드마크 앤드 파트너,서울특별시 용산구 한강로2가 417- 용산파크 이편한세상,2.0,(주) 삼호,A10023195,2, ,16968.38,54.0,0.0,0.0,92.0,용산파크 이편한세상,23031.0,027495528,28, ,20070613.0,3.0,146.0,28.0,13908.38,4375.0,0,0,0,0,0,0,0,0,0,0,202401,서울특별시 용산구 한강로2,37.5342236014392,126.970847000039
1117012900,아파트,,,,분양,서울특별시 용산구 이촌로 156,, ,서울특별시 용산구 이촌동 302-86 빌라맨션아파트,, ,A10023360,1, ,,0.0,68.0,2.0,0.0,빌라맨션아파트,,027944735,1, ,19740404.0,0.0,70.0,18.0,13784.38,4427.0,0,0,0,0,0,0,0,0,0,0,202401,서울특별시 용산구 이촌동 302-86,37.5215258311472,126.964147760101
1117013100,아파트,혼합식,개별난방,위탁관리,분양,서울특별시 용산구 독서당로6길 16,119.0,신영토건주식회사,서울특별시 용산구 한남동 802- 한남리버탑아파트,2.0,신영토건주식회사,A10023379,1,027943728,11656.2508,15.0,0.0,54.0,50.0,한남리버탑아파트,16642.0,027943727,15, ,20010403.0,3.0,119.0,15.0,9176.76,4410.0,0,0,0,0,0,0,0,0,0,0,202401,서울특별시 용산구 한남동 802-,37.5297888647806,127.00803368655
1117011600,아파트,,,,분양,서울특별시 용산구 삼개로 58,, ,서울특별시 용산구 청암동 64-1 sk청암대아파트,0.0, ,A10023464,1, ,,0.0,27.0,0.0,0.0,sk청암대아파트,,027066926,1, ,20010726.0,,27.0,14.0,6605.53,4359.0,0,0,0,0,0,0,0,0,0,0,202401,서울특별시 용산구 청암동 64-1,37.5353251305067,126.947947572466
1117011200,아파트,복도식,개별난방,위탁관리,임대,서울특별시 용산구 원효로97길 15,752.0,롯데건설(주),서울특별시 용산구 원효로1가 134- 용산원효루미니,6.0,롯데건설(주).서울주택도시공사,A10023798,1,027046003,61784.5995,0.0,0.0,752.0,0.0,용산원효루미니,64083.954,027046002,29, ,20220428.0,12.0,752.0,29.0,24377.0491,4314.0,38842320,0,0,137480,0,0,5799,0,7361620,0,202401,서울특별시 용산구 원효로1,37.5414178959126,126.969372542271
1117011900,아파트,혼합식,개별난방,위탁관리,혼합,서울특별시 용산구 효창원로 227,384.0,효창제6구역주택재개발정비사업조합,서울특별시 용산구 효창동 288- 용산데시앙포레아파트,3.0,태영건설,A10023858,7,027178009,32297.3957,0.0,0.0,295.0,89.0,용산데시앙포레아파트,55633.2594,027178006,14, ,20220328.0,19.0,384.0,14.0,24126.7417,4311.0,34306290,0,0,117061,0,0,5359,0,6549180,0,202401,서울특별시 용산구 효창동 288-,37.5473793002411,126.96203907111
1117012500,아파트,복도식,개별난방,위탁관리,임대,서울특별시 용산구 백범로99길 40,1086.0,(주)용산피에프브이,서울특별시 용산구 한강로2가 426- 용산 베르디움 프렌즈,7.0,(주)호반건설,A10024333,2,027949981,62496.8872,0.0,0.0,1086.0,0.0,용산 베르디움 프렌즈,91040.0,027949980,37, ,20210305.0,14.0,1086.0,37.0,42029.6186,4375.0,41781201,0,0,278413,0,0,9976,0,11022790,0,202401,서울특별시 용산구 한강로2,37.5358258637822,126.971639287338
1117013100,아파트,계단식,개별난방,위탁관리,분양,서울특별시 용산구 서빙고로 413,122.0,(주)한국일보,서울특별시 용산구 한남동 805- 한남동현대하이페리온A,3.0,현대건설,A10024641,2,027901846,30128.86,0.0,122.0,0.0,0.0,한남동현대하이페리온A,55823.66,027975989,17, ,20021227.0,4.0,122.0,17.0,25288.96,4416.0,0,0,0,0,0,0,0,0,0,0,202401,서울특별시 용산구 한남동 805-,37.5272954501599,127.004219892518
1117012800,아파트,혼합식,지역난방,위탁관리,혼합,서울특별시 용산구 서빙고로 17,1140.0,국제빌딩 주변 제4구역 도시환경 정비사업조합,서울특별시 용산구 한강로3가 63-70 용산센트럴파크,5.0,효성,A10024691,5,027923689,159602.8322,868.0,78.0,194.0,0.0,용산센트럴파크,364262.86,027923679,43,yscentralpark.com/,20200820.0,21.0,1140.0,43.0,113864.48,4387.0,148914646,1648850,137195210,370461,8415,1121,15004,4980,19189130,31025400,202401,서울특별시 용산구 한강로3,37.5269056148241,126.966566172294
1117013100,아파트,계단식,개별난방,위탁관리,분양,서울특별시 용산구 한남대로 91,341.0,디에스한남(주),서울특별시 용산구 한남동 680-1 나인원 한남,4.0,(주)롯데건설,A10025192,9,027980094,94150.4248,0.0,341.0,0.0,0.0,나인원 한남,206931.8502,027970091,9, ,20191113.0,55.0,341.0,9.0,78071.9863,4401.0,156625213,0,0,262122,0,0,6999,0,11825910,0,202401,서울특별시 용산구 한남동 680-1,37.5365601416483,127.002134137393
1117011900,아파트,계단식,개별난방,위탁관리,혼합,서울특별시 용산구 백범로 313,478.0,효창5구역 주택재개발정비사업조합,서울특별시 용산구 효창동 13-2 용산롯데캐슬센터포레아파트,4.0,롯데건설,A10025533,7,027156008,44658.5826,12.0,0.0,260.0,206.0,용산롯데캐슬센터포레아파트,72233.9987,027156007,22,용산롯데캐슬센터포레.apti.co.kr,20190429.0,15.0,478.0,22.0,32777.66,4317.0,38468313,0,0,138804,0,0,6994,0,8307970,0,202401,서울특별시 용산구 효창동 13-2,37.5393023092398,126.962948470932
1117012800,아파트,혼합식,개별난방,위탁관리,분양,서울특별시 용산구 한강대로10길 14,98.0,남광토건,서울특별시 용산구 한강로3가 89- 한강로쌍용스윗닷홈아파트,0.0,남광토건,A10025626,2,027955388,11465.86,9.0,0.0,0.0,89.0,한강로쌍용스윗닷홈아파트,17595.65,07088716928,13, ,20030930.0,0.0,98.0,13.0,8460.34,4389.0,0,0,0,0,0,0,0,0,0,0,202401,서울특별시 용산구 한강로3,37.5232943947564,126.963804824524
1117011900,아파트,계단식,개별난방,위탁관리,분양,서울특별시 용산구 백범로 275,199.0,효창제4구역주택재개뱔정비조합,서울특별시 용산구 효창동 286- 용산kcc스위첸,3.0,KCC건설,A10025898,3,0232752983,19903.33,0.0,0.0,81.0,118.0,용산kcc스위첸,31176.0,0232752981,18,000000,20180921.0,0.0,199.0,18.0,14876.98,4318.0,20296505,0,0,69476,0,0,2987,0,3466320,0,202401,서울특별시 용산구 효창동 286-,37.5403166625675,126.959671470587
1117012200,주상복합,복도식,개별난방,위탁관리,분양,서울특별시 용산구 백범로 346,72.0,(주)대안하우징,서울특별시 용산구 문배동 17-1 용산지오베르크,4.0,고려개발(주),A10026183,1,027070843,5905.92,0.0,0.0,0.0,72.0,용산지오베르크,14078.14,027070840,15, ,20041230.0,3.0,72.0,15.0,5903.88,4368.0,0,0,0,0,0,0,0,0,0,0,202401,서울특별시 용산구 문배동 17-1,37.5374081633172,126.967311189724
1117012500,주상복합,타워형,,위탁관리,분양,서울특별시 용산구 한강대로30길 25,128.0,국제빌딩 주변제3구역조합,서울특별시 용산구 한강로2가 419- 아스테리움용산,7.0,동부건설,A10026719,1,027972380,89364.88,0.0,128.0,0.0,0.0,아스테리움용산,89465.49,027971690,36, ,20121214.0,11.0,128.0,,,4386.0,0,0,0,0,0,0,0,0,0,0,202401,서울특별시 용산구 한강로2,37.527358545339,126.968861735609
1117012500,주상복합,복도식,개별난방,위탁관리,분양,서울특별시 용산구 한강대로 69,151.0,용산역전면제2구역도시환경정비사업조합,서울특별시 용산구 한강로2가 391- 용산푸르지오써밋,9.0,대우건설(주),A10026759,1,027926911,47211.4883,63.0,88.0,0.0,0.0,용산푸르지오써밋,47211.4883,027926910,37, ,20170801.0,4.0,151.0,37.0,21533.8365,4378.0,34952338,0,0,150011,0,0,3781,0,3460760,0,202401,서울특별시 용산구 한강로2,37.5270404595814,126.964892234354
1117012500,주상복합,혼합식,중앙난방,위탁관리,분양,서울특별시 용산구 한강대로 95,195.0,용산역전면제3구역도시환경정비사업조합,서울특별시 용산구 한강로2가 422- 래미안용산아파트,9.0,삼성물산,A10026922,2,027906044,60390.0979,0.0,195.0,0.0,0.0,래미안용산아파트,60390.0979,027906033,40, ,20170531.0,6.0,195.0,40.0,30636.01,4378.0,19565559,0,3048610,0,0,0,0,0,1227880,0,202401,서울특별시 용산구 한강로2,37.5288173852679,126.966653789116
1117013100,아파트,복도식,개별난방,위탁관리,분양,서울특별시 용산구 독서당로 46,280.0,만강건설,서울특별시 용산구 한남동 93- 한남아이파크,7.0,현대산업개발,A10027071,1,027946953,27473.3232,8.0,0.0,270.0,2.0,한남아이파크,27473.3232,025886953,18, ,20170308.0,2.0,280.0,18.0,14028.9373,4410.0,13690060,0,0,62019,0,0,2052,0,2943860,0,202401,서울특별시 용산구 한남동 93-,37.532381186051,127.007257834517
1117013000,아파트,계단식,개별난방,위탁관리,분양,서울 용산구 녹사평대로 286,130.0,대한주택공사,서울특별시 용산구 이태원동 728- 이태원주공아파트,1.0,대한주택공사,A10027425,8,027920525,13857.35,0.0,0.0,0.0,130.0,이태원주공아파트,14211.93,027920487,5, ,19930424.0,,130.0,5.0,10999.95,,0,0,0,0,0,0,0,0,0,0,202401,서울특별시 용산구 이태원동 728-,37.5431278955359,126.98951451659
1117012200,주상복합,계단식,개별난방,위탁관리,분양,서울특별시 용산구 백범로90길 90,232.0,(주)무궁화신탁,서울특별시 용산구 문배동 11-10 용산 KCC 웰츠타워,6.0,(주) KCC 건설,A10027901,2,027188810,41585.9304,56.0,0.0,0.0,176.0,용산 KCC 웰츠타워,41585.95,027188800,39, ,20150327.0,4.0,232.0,39.0,20304.16,4315.0,27931477,3880,0,84204,0,0,3913,0,4570760,0,202401,서울특별시 용산구 문배동 11-10,37.5377465400136,126.96883309004
1117012900,아파트,계단식,지역난방,위탁관리,분양,서울특별시 용산구 이촌로 300,460.0,렉스주택재건축정비사업,서울특별시 용산구 이촌동 300-3 래미안첼리투스,3.0,삼성물산,A10027908,3,027924232,76247.99,460.0,0.0,0.0,0.0,래미안첼리투스,135082.72,027924230,56, ,20150730.0,0.0,460.0,56.0,57084.84,4425.0,90766107,0,74474260,412134,0,45506,8861,3315,10950710,24531000,202401,서울특별시 용산구 이촌동 300-3,37.5178439903271,126.980323377172
1117012400,주상복합,복도식,개별난방,위탁관리,분양,서울특별시 용산구 한강대로 211,160.0,(주)프리즘지앤시,서울특별시 용산구 한강로1가 64- 대우월드마크용산,6.0,(주)대우건설,A14001101,1,027903811,37731.01,120.0,40.0,0.0,0.0,대우월드마크용산,37771.068,027903883,37,대우월드마크용산-아파트.apti.co.kr,20071015.0,3.0,160.0,37.0,19950.578,4322.0,24392910,0,0,67589,0,0,3021,0,3612020,0,202401,서울특별시 용산구 한강로1,37.5371833578375,126.972600285793
1117012500,주상복합,혼합식,개별난방,위탁관리,분양,서울특별시 용산구 한강대로43길 8,248.0,벽산건설,서울특별시 용산구 한강로2가 2-8 한강로벽산메가트리움,4.0,벽산건설,A14001201,2,0232158004,31945.2,62.0,0.0,0.0,186.0,한강로벽산메가트리움,93696.33,0232158000,33,megatrium.apti.co.kr,20050506.0,0.0,248.0,33.0,23292.16,4376.0,28990500,0,0,125369,0,0,5117,0,5614370,0,202401,서울특별시 용산구 한강로2,37.5325823332194,126.969753021045
1117012800,주상복합,혼합식,중앙난방,위탁관리,분양,서울특별시 용산구 서빙고로 35,421.0,세계일보,서울특별시 용산구 한강로3가 63-389 용산시티파크1단지,3.0,(주)대우건설,A14001303,3,027492695,78402.17,102.0,319.0,0.0,0.0,용산시티파크1단지,126765.29,027492689,42,용산시티파크1단지.apti.co.kr,20070821.0,10.0,421.0,42.0,62339.19,4385.0,67382710,0,77098140,164291,0,59471,7779,3007,9932160,0,202401,서울특별시 용산구 한강로3,37.5247975716804,126.96865238376
1117012700,주상복합,계단식,지역난방,위탁관리,분양,서울특별시 용산구 서빙고로 67,888.0,용산공원남측 도시확경정비사업조합,서울특별시 용산구 용산동5가 24- 파크타워,4.0,"삼성물산,현대건설",A14002501,6,027953425,155179.74,567.0,317.0,0.0,4.0,파크타워,272512.0,027953423,40,PARKTOWER.co.kr,20090515.0,25.0,888.0,40.0,117044.86,4385.0,153265074,0,150837105,376197,0,1282,14984,6517,18258377,37135500,202401,서울특별시 용산구 용산동5,37.5248628078572,126.970412727842
1117012900,아파트,혼합식,지역난방,위탁관리,분양,서울특별시 용산구 이촌로 193,243.0,공무원 조합,서울특별시 용산구 이촌동 399-1 동부이촌동우성,2.0,우성건설(주),A14003001,2,027958249,25407.0,72.0,0.0,153.0,18.0,동부이촌동우성,30398.0,027958254,20, ,19951223.0,0.0,243.0,20.0,18693.36,4421.0,17320630,0,27372250,54788,0,168476,3402,1293,4453040,7628700,202401,서울특별시 용산구 이촌동 399-1,37.5215939878211,126.968392298696
1117012900,아파트,계단식,지역난방,자치관리,분양,서울특별시 용산구 이촌로88길 15,250.0,삼익건설,서울특별시 용산구 이촌동 300-11 이촌왕궁,0.0,삼익건설,A14003002,5,0267491991,25867.5,250.0,0.0,0.0,0.0,이촌왕궁,26757.0,027941991,5, ,19741223.0,0.0,250.0,5.0,25620.0,4425.0,20701810,0,100889600,0,0,0,2918,0,7063600,11018000,202401,서울특별시 용산구 이촌동 300-11,37.5172554559563,126.978273197353
1117012900,아파트,혼합식,지역난방,자치관리,분양,서울특별시 용산구 이촌로 264,252.0,삼익건설,서울특별시 용산구 이촌동 300-301 한강삼익,1.0,삼익건설,A14003003,2,027965755,33396.0,156.0,96.0,0.0,0.0,한강삼익,33600.0,027946405,12, ,19791217.0,6.0,252.0,12.0,30337.87,4426.0,25691724,0,52852260,125086,0,0,4542,1786,5611928,12680600,202401,서울특별시 용산구 이촌동 300-301,37.5190291185881,126.976133728575
1117012900,아파트,계단식,지역난방,자치관리,분양,서울특별시 용산구 이촌로 174,309.0,동부건설,서울특별시 용산구 이촌동 418- 이촌동부센트레빌,2.0,동부건설,A14003004,4,027907524,40359.89,296.0,0.0,6.0,7.0,이촌동부센트레빌,53804.02,027951353,25, ,20010602.0,9.0,309.0,25.0,30817.11,4427.0,31246326,0,43444190,92492,0,429400,6468,2802,5412630,21380590,202401,서울특별시 용산구 이촌동 418-,37.5211131374957,126.966804389151
1117012900,아파트,혼합식,지역난방,위탁관리,분양,서울특별시 용산구 이촌로 100-8,499.0,동아건설,서울특별시 용산구 이촌동 411- 이촌동아그린아파트,2.0,동아건설,A14003006,6,0267498576,50507.08,104.0,0.0,228.0,167.0,이촌동아그린아파트,66057.61,027128574,22, ,19990531.0,11.0,499.0,22.0,38075.95,4381.0,36153309,0,65616060,127553,0,468,10108,2601,10346420,22085590,202401,서울특별시 용산구 이촌동 411-,37.5244879118315,126.957968161392
1117012900,아파트,계단식,지역난방,위탁관리,분양,서울특별시 용산구 이촌로64길 15,656.0,이수건설,서울특별시 용산구 이촌동 430- LG한강자이,2.0,LG건설,A14003007,10,027938240,138309.05,152.0,458.0,0.0,46.0,LG한강자이,193954.86,027938293,25,LG한강자이.ma-um.co.kr,20030428.0,20.0,656.0,25.0,107575.09,4427.0,84821014,0,150717110,269200,0,100186,14550,5297,17202350,31782000,202401,서울특별시 용산구 이촌동 430-,37.5203555055461,126.971360759273
1117012900,아파트,계단식,지역난방,자치관리,분양,서울특별시 용산구 이촌로 248,660.0,주택공사,서울특별시 용산구 이촌동 300-101 이촌한강맨션,0.0,주택공사,A14003008,23,027958016,78467.4,600.0,60.0,0.0,0.0,이촌한강맨션,78467.0,027942036,5,www.hankangmansion.com,19710322.0,0.0,660.0,5.0,73099.18,4426.0,60757732,0,209340470,173296,0,0,0,3855,7002620,18559200,202401,서울특별시 용산구 이촌동 300-101,37.5193865878083,126.975025954742
1117012900,아파트,계단식,지역난방,위탁관리,분양,서울특별시 용산구 이촌로 324-10,192.0,삼익주택,서울특별시 용산구 이촌동 301-170 이촌반도,1.0,삼익주택,A14003101,2,027959788,30207.24,0.0,192.0,0.0,0.0,이촌반도,35955.0,027959778,12, ,19770112.0,8.0,192.0,12.0,30197.16,4425.0,25597760,0,59286620,77306,0,0,3892,1351,4822630,9592100,202401,서울특별시 용산구 이촌동 301-170,37.5172852105915,126.982167988487
1117012900,아파트,혼합식,지역난방,위탁관리,분양,서울특별시 용산구 이촌로 303,653.0,현대건설,서울특별시 용산구 이촌동 301-160 이촌현대,1.0,현대건설,A14003103,8,027934193,88271.474,370.0,278.0,0.0,5.0,이촌현대,92195.29,027934192,15,hd653.com,19741209.0,16.0,653.0,15.0,83361.61,4424.0,0,0,0,0,0,0,0,0,0,0,202401,서울특별시 용산구 이촌동 301-160,37.5189128959625,126.98115440183
1117012900,아파트,계단식,지역난방,자치관리,분양,서울특별시 용산구 이촌로88길 30,244.0,청탑.한신재건축조합,서울특별시 용산구 이촌동 426- 이촌동삼성리버스위트,2.0,삼성물산(주),A14003104,6,027976729,47339.248,80.0,164.0,0.0,0.0,이촌동삼성리버스위트,68371.07,027976728,18,삼성리버스위트.apti.co.kr,20020430.0,8.0,244.0,18.0,39044.72,4426.0,29581465,0,52751230,101622,0,446,5445,2181,6568290,11951880,202401,서울특별시 용산구 이촌동 426-,37.516879547214,126.975899020674
1117012900,아파트,계단식,지역난방,위탁관리,분양,서울특별시 용산구 이촌로 181,834.0,(주)대우건설,서울특별시 용산구 이촌동 415- 한강대우,0.0,(주)대우건설,A14003105,10,027975301,100690.21,156.0,115.0,206.0,357.0,한강대우,135574.51,027495298,24,www.hangangdw.com,20000331.0,19.0,834.0,24.0,79214.06,4421.0,71090600,0,153746180,231608,0,101485,15335,5600,17914050,31360000,202401,서울특별시 용산구 이촌동 415-,37.5221513034071,126.970663574293
1117012900,아파트,혼합식,지역난방,위탁관리,분양,서울특별시 용산구 이촌로81길 14,1001.0,공무원재건축조합,서울특별시 용산구 이촌동 402- 이촌강촌아파트,2.0,건영,A14003106,9,027971135,86762.05,368.0,0.0,306.0,327.0,이촌강촌아파트,136080.666,027971134,22,용산강촌.apti.co.kr,19980108.0,23.0,1001.0,22.0,86762.05,4423.0,65149837,0,163813750,275683,0,1376296,10666,7066,21118960,30984800,202401,서울특별시 용산구 이촌동 402-,37.5196486041968,126.976816771637
1117011500,아파트,복도식,개별난방,위탁관리,분양,서울특별시 용산구 새창로8길 157,289.0,산천시민재건축조합,서울특별시 용산구 산천동 204- 한강타운,3.0,한진건설(주),A14004001,3,0263566078,17250.41,0.0,0.0,289.0,0.0,한강타운,29114.0,0232736078,14,hangangtown.com,20010222.0,4.0,289.0,14.0,17250.41,4358.0,14528510,0,0,65541,0,0,0,0,0,0,202401,서울특별시 용산구 산천동 204-,37.5356870205155,126.949722428965
1117011500,아파트,혼합식,개별난방,위탁관리,분양,서울특별시 용산구 효창원로 17,1102.0,삼성관련,서울특별시 용산구 산천동 193- 리버힐삼성아파트,4.0,삼성물산,A14004002,14,0232752362,114459.5158,290.0,0.0,383.0,429.0,리버힐삼성아파트,148404.6,0232752361,20,member.uasis.com,20010110.0,23.0,1102.0,20.0,92477.46,4358.0,69643482,1396410,0,320795,0,0,0,0,0,0,202401,서울특별시 용산구 산천동 193-,37.5344326622037,126.950182625895
1117011600,아파트,계단식,개별난방,위탁관리,분양,서울특별시 용산구 삼개로 60,170.0,GS건설,서울특별시 용산구 청암동 181- 청암자이,0.0,부곡레저,A14005001,5,027060320,61529.06,0.0,170.0,0.0,0.0,청암자이,61529.33,027065533,15, ,20050818.0,6.0,170.0,15.0,34291.58,4359.0,30723280,0,8461230,83880,0,0,3144,0,4427860,0,202401,서울특별시 용산구 청암동 181-,37.5350715443607,126.947642942696
1117011400,아파트,계단식,개별난방,위탁관리,분양,서울특별시 용산구 효창원로15길 16,176.0,세방건설,서울특별시 용산구 신창동 102- 신창세방리버하이빌,1.0,세방건설,A14006001,3,027031842,18155.476,0.0,0.0,16.0,160.0,신창세방리버하이빌,23403.98,027031841,15, ,20050411.0,8.0,176.0,15.0,14445.87,4357.0,13892101,0,0,49096,0,0,3968,0,4199020,0,202401,서울특별시 용산구 신창동 102-,37.5363283010538,126.954249134108
1117012000,아파트,복도식,개별난방,위탁관리,임대,서울특별시 용산구 새창로8길 7,534.0,삼성물산,서울특별시 용산구 도원동 25- 도원삼성제2,2.0,삼성물산,A14007001,2,027120746,26479.3512,0.0,0.0,534.0,0.0,도원삼성제2,37663.42,027120647,20,없음,20010803.0,6.0,534.0,20.0,17493.84,4354.0,15978320,0,0,100809,0,0,5846,0,6061330,0,202401,서울특별시 용산구 도원동 25-,37.5396768258994,126.956277329878
1117012000,아파트,계단식,개별난방,위탁관리,분양,서울특별시 용산구 새창로 70,1458.0,삼성,서울특별시 용산구 도원동 23- 도원삼성래미안,4.0,삼성,A14007002,15,0263524748,158556.972,386.0,0.0,462.0,610.0,도원삼성래미안,202945.67,0263524746,22,도원삼성래미안.apti.co.kr/,20010803.0,39.0,1458.0,22.0,123754.5,4354.0,89519374,0,0,459236,0,0,22699,0,25896710,0,202401,서울특별시 용산구 도원동 23-,37.5386030532321,126.954943490673
1117012300,아파트,계단식,중앙난방,위탁관리,혼합,서울특별시 용산구 원효로 216,867.0,대림산업,서울특별시 용산구 신계동 48- 용산e편한세상,2.0,대림산업,A14009001,13,027012146,92031.91,124.0,46.0,252.0,445.0,용산e편한세상,132440.73,027012144,25,yse.aptner.com/,20110401.0,21.0,867.0,25.0,71064.41,4368.0,99733022,0,82019350,301802,0,775,14918,5382,17806230,40903200,202401,서울특별시 용산구 신계동 48-,37.536723363574,126.966527167157
1117012200,주상복합,혼합식,개별난방,위탁관리,분양,서울특별시 용산구 백범로90길 26,208.0,대림산업,서울특별시 용산구 문배동 24-21 용산아크로타워,3.0,고려개발,A14010001,2,027158116,38753.62,104.0,0.0,0.0,104.0,용산아크로타워,46836.0,027158114,32, ,20070122.0,5.0,208.0,32.0,21972.08,4369.0,22102270,0,0,74183,0,0,3933,0,4707470,28080,202401,서울특별시 용산구 문배동 24-21,37.5366148713952,126.968448189546
1117012200,주상복합,계단식,개별난방,위탁관리,분양,서울특별시 용산구 청파로 213,188.0,(주)효진테크,서울특별시 용산구 문배동 3-3 이안용산프리미어,5.0,(주)대우자동차판매,A14010002,2,027070925,38913.18,141.0,0.0,0.0,47.0,이안용산프리미어,38913.18,027070924,34, ,20070724.0,4.0,188.0,34.0,19452.83,4315.0,18654080,0,0,0,0,0,0,0,3639070,0,202401,서울특별시 용산구 문배동 3-3,37.5385969340715,126.970349257166
1117012200,주상복합,복도식,개별난방,위탁관리,분양,서울특별시 용산구 백범로90다길 12,280.0,선진공간,서울특별시 용산구 문배동 24-6 용산CJ나인파크,3.0,CJ건설,A14010003,2,027024793,28564.9,188.0,0.0,0.0,92.0,용산CJ나인파크,67910.25,027024792,32, ,20070702.0,6.0,280.0,32.0,28564.9,4369.0,34397970,0,0,165819,0,0,8658,0,9937930,0,202401,서울특별시 용산구 문배동 24-6,37.5363523414327,126.969212704338
1117012200,주상복합,혼합식,개별난방,위탁관리,분양,서울특별시 용산구 백범로90길 74,418.0,효명테크,서울특별시 용산구 문배동 11-29 용산대우이안,0.0,대우자동차 판매(주),A14010004,3,0232736032,56544.75,35.0,1.0,14.0,216.0,용산대우이안,56544.98,0232736031,15, ,20051130.0,10.0,266.0,15.0,22700.98,4315.0,0,0,0,0,0,0,0,0,0,0,202401,서울특별시 용산구 문배동 11-29,37.5380767541768,126.969865080417
1117010100,아파트,복도식,개별난방,자치관리,분양,서울특별시 용산구 후암로 71-1,226.0,라이프주택,서울특별시 용산구 후암동 423-1 후암미주,1.0,라이프주택,A14019001,5,027789709,14238.0,0.0,0.0,0.0,226.0,후암미주,16909.62,027789708,7, ,19800722.0,5.0,226.0,7.0,14228.28,4325.0,8127930,0,0,43810,0,0,0,0,0,0,202401,서울특별시 용산구 후암동 423-1,37.5519881673922,126.97566104405
1117013100,주상복합,혼합식,개별난방+기타,위탁관리(직영+위탁),분양,서울특별시 용산구 한남대로 60,371.0,(주)금호산업,서울특별시 용산구 한남동 72-1 한남동리첸시아,3.0,(주)금호산업,A14021001,3,027957463,39890.81,18.0,0.0,183.0,170.0,한남동리첸시아,44413.97,027957461,15, ,20040409.0,5.0,371.0,15.0,21651.61,4419.0,5740786,0,0,0,0,0,0,0,893300,0,202401,서울특별시 용산구 한남동 72-1,37.5344843315796,127.008192362263
1117013300,아파트,계단식,개별난방,위탁관리,분양,서울특별시 용산구 서빙고로51길 68-14,172.0,우진조합,서울특별시 용산구 서빙고동 296- 서빙고금호베스트빌,2.0,금호건설,A14024001,3,027980443,25589.72,0.0,74.0,0.0,98.0,서빙고금호베스트빌,33017.55,027980444,18, ,20021014.0,5.0,172.0,18.0,19458.65,4384.0,19298650,0,0,59264,0,0,6404,0,7256390,0,202401,서울특별시 용산구 서빙고동 296-,37.5227503396191,126.992162659523
1117013300,아파트,계단식,지역난방,자치관리,분양,서울특별시 용산구 이촌로 347,1326.0,모름,서울특별시 용산구 서빙고동 241-21 서빙고신동아,1.0,신동아건설,A14024002,15,027945263,219461.6788,260.0,1066.0,0.0,0.0,서빙고신동아,219461.701,027949571,13, ,19840628.0,51.0,1326.0,13.0,200757.02,4428.0,124911250,0,265561730,449385,0,0,0,9084,14111900,44423400,202401,서울특별시 용산구 서빙고동 241-21,37.5191002810313,126.989737216338
1117011200,주상복합,혼합식,개별난방,위탁관리,분양,서울특별시 용산구 백범로 341,260.0,시디에스피에프브이원㈜,서울특별시 용산구 원효로1가 133-3 리첸시아용산,5.0,금호건설,A14070301,3,027013085,56588.12,144.0,48.0,0.0,68.0,리첸시아용산,56588.12,027013083,24,richy.apti.co.kr,20100429.0,11.0,260.0,24.0,29647.98,4315.0,15052632,0,0,63300,0,0,252,0,406100,0,202401,서울특별시 용산구 원효로1,37.5379386735674,126.967973433167
1117011200,아파트,혼합식,개별난방,위탁관리,분양,서울특별시 용산구 원효로90길 11,559.0,앤모드하우스,서울특별시 용산구 원효로1가 41- 용산더프라임,6.0,동아건설,A14070302,3,0232750366,76539.369,176.0,95.0,112.0,176.0,용산더프라임,160844.909,0232750364,37, ,20140217.0,9.0,559.0,37.0,55935.483,4315.0,72161860,241340,0,223236,0,0,8895,0,10270000,0,202401,서울특별시 용산구 원효로1,37.5403958008247,126.969718522289
1117010700,주상복합,계단식,중앙난방,위탁관리,분양,서울특별시 용산구 한강대로 372,278.0,동자동 제4구역 도시환경조합,서울특별시 용산구 동자동 45- 동부센트레빌아스테리움서울,8.0,동부건설,A14070901,3,027559116,88753.9,116.0,162.0,0.0,0.0,동부센트레빌아스테리움서울,107031.48,027559114,35, ,20130909.0,17.0,278.0,35.0,40513.68,4323.0,54133447,0,81276640,127478,0,438,3768,1608,5302116,14477400,202401,서울특별시 용산구 동자동 45-,37.5516315844006,126.972912206176
1117012900,아파트,혼합식,지역난방,자치관리,분양,서울특별시 용산구 이촌로 201,2036.0,동부이촌동 공무원아파트 A지구 재건축조합,서울특별시 용산구 이촌동 404- 한가람아파트,3.0,(주) 건영,A14072701,19,027965879,218984.27,509.0,0.0,895.0,632.0,한가람아파트,271619.0,027976450,22,동부이촌한가람.apti.co.kr/,19980918.0,48.0,2036.0,22.0,165716.65,4421.0,125008980,0,321213920,511184,0,2333510,34086,14086,39507270,42258000,202401,서울특별시 용산구 이촌동 404-,37.5213483828264,126.970156197885
1117012900,아파트,혼합식,지역난방,위탁관리,분양,서울특별시 용산구 이촌로87길 21,834.0,코오롱건설,서울특별시 용산구 이촌동 412- 이촌,2.0,코오롤건설,A14072702,10,027954692,89143.77,194.0,0.0,377.0,263.0,이촌,117647.37,027954696,22,ichon.apti.co.kr/,19991101.0,19.0,834.0,22.0,67099.14,4423.0,54705833,0,123831250,211984,0,866,14887,5268,16365810,33612800,202401,서울특별시 용산구 이촌동 412-,37.5203009135294,126.978638484584
1117012900,아파트,계단식,지역난방,위탁관리,분양,서울특별시 용산구 이촌로2가길 66,340.0,시민아파트 재건축조합,서울특별시 용산구 이촌동 422- 북한강성원아파트,1.0,성원건설,A14072901,2,027063593,30347.108,0.0,0.0,340.0,0.0,북한강성원아파트,31103.0,027063592,22, ,20010807.0,8.0,340.0,22.0,20247.0,4374.0,21821371,0,48894390,77417,0,296294,1763,1763,1686860,0,202401,서울특별시 용산구 이촌동 422-,37.5275799081747,126.953704659794
1117011900,아파트,계단식,개별난방,위탁관리,분양,서울특별시 용산구 백범로 260,307.0,효창제3구역 재개발조합,서울특별시 용산구 효창동 274- 효창파크푸르지오,4.0,대우건설(주),A14074101,7,027010549,31257.63,46.0,0.0,123.0,138.0,효창파크푸르지오,46941.75,027010548,24,"hcprugio,apti.co.kr",20100831.0,9.0,307.0,24.0,24238.53,4355.0,29277860,313560,0,106401,0,0,5150,0,6802900,0,202401,서울특별시 용산구 효창동 274-,37.5404959369857,126.957796352972
1117011900,아파트,계단식,개별난방,자치관리,분양,서울 용산구 백범로45길 9-11,120.0,한신공영,서울특별시 용산구 효창동 5-145 효창한신,0.0,한신공영,A14074102,4,027166541,13302.66,42.0,0.0,0.0,78.0,효창한신,13303.0,027166540,1, ,19871030.0,0.0,120.0,6.0,10551.89,,0,0,0,0,0,0,0,0,0,0,202401,서울특별시 용산구 효창동 5-145,37.5422805642886,126.958097466727
1117012800,아파트,계단식,개별난방,위탁관리,분양,서울특별시 용산구 이촌로29길 21-7,144.0,재건축조합,서울특별시 용산구 한강로3가 91- 한강로우림필유,1.0,우림,A14074501,4,027901806,15095.44,0.0,0.0,0.0,144.0,한강로우림필유,19825.0,027901805,12, ,20060915.0,,144.0,12.0,12160.8,4380.0,0,0,0,0,0,0,0,0,0,0,202401,서울특별시 용산구 한강로3,37.5250938524559,126.959301820711
1117012400,주상복합,계단식,개별난방,자치관리,분양,서울특별시 용산구 한강대로 205,310.0,모건아담스코리아,서울특별시 용산구 한강로1가 50-1 용산파크자이,5.0,GS건설,A14075201,3,0220718118,69726.97,246.0,64.0,0.0,0.0,용산파크자이,148969.29,0220718113,34, ,20051223.0,8.0,310.0,34.0,40423.73,4322.0,48576039,0,4384690,231220,0,192681,6178,0,7209330,0,202401,서울특별시 용산구 한강로1,37.5366835309492,126.972808655459
1117011500,아파트,복도식,개별난방,위탁관리,임대,서울특별시 용산구 효창원로13길 7,363.0,삼성물산,서울특별시 용산구 산천동 194- 산천리버힐제2,2.0,삼성물산,A14076401,2,027145941,21427.89,0.0,0.0,363.0,0.0,산천리버힐제2,21502.98,027145940,20, ,20010110.0,5.0,363.0,20.0,11975.37,4358.0,12423220,0,0,72541,0,0,4026,0,3359220,0,202401,서울특별시 용산구 산천동 194-,37.5356967470594,126.952096399226
1117012900,아파트,계단식,지역난방,자치관리,사택 및 관사 등,서울특별시 용산구 이촌로88길 3,144.0,삼익주택,서울특별시 용산구 이촌동 300-10 점보,0.0,삼익주택,A14077401,1,027941082,30056.4,0.0,144.0,0.0,0.0,점보,30818.0,027941282,18, ,19740708.0,4.0,144.0,18.0,26975.01,4425.0,0,0,0,0,0,0,0,0,0,0,202401,서울특별시 용산구 이촌동 300-10,37.5180294947051,126.978694898683
1117013100,아파트,계단식,개별난방,위탁관리,분양,서울특별시 용산구 장문로 141,283.0,현대건설,서울특별시 용산구 한남동 807- 한남힐스테이트,2.0,현대건설,A14077901,6,027497038,31934.146,136.0,27.0,0.0,120.0,한남힐스테이트,56722.888,027497037,15, ,20031002.0,2.0,283.0,15.0,31933.876,4411.0,30386290,0,28870,145423,0,0,9772,0,11056920,0,202401,서울특별시 용산구 한남동 807-,37.5289897960706,127.003869953309
1117013100,아파트,계단식,개별난방,위탁관리,분양,서울특별시 용산구 독서당로 111,600.0,한스자람(주),서울특별시 용산구 한남동 810- 한남더힐,2.0,금호건설,A14077902,32,027980414,112633.948,0.0,467.0,133.0,0.0,한남더힐,211772.0,027980050,12, ,20110107.0,61.0,600.0,12.0,112633.948,4419.0,167721612,0,0,618879,0,0,11464,0,13442880,0,202401,서울특별시 용산구 한남동 810-,37.5361228594578,127.007307641122
1117013200,아파트,계단식,,위탁관리,사택 및 관사 등,서울특별시 용산구 장문로6길 76,,푸른한강타운(주),서울특별시 용산구 동빙고동 315- 용산푸르지오파크타운,0.0,대우건설 등,A14080901,14,027958554,0.0,,,,,용산푸르지오파크타운,115545.66,027958551,16, ,20110509.0,,,,80676.0,4393.0,0,0,0,0,0,0,0,0,0,0,202401,서울특별시 용산구 동빙고동 315-,37.5255103808064,126.995669116221
1117013600,아파트,혼합식,개별난방,위탁관리,분양,서울특별시 용산구 보광로5길 40,242.0,주택조합,서울특별시 용산구 보광동 151- 보광삼성리버빌,3.0,삼성중공업,A14082302,2,027936787,25092.36,0.0,0.0,82.0,160.0,보광삼성리버빌,31764.856,027936786,15,www.bsrapt.com,20001031.0,8.0,242.0,15.0,18456.44,4396.0,28376090,166220,0,64478,0,0,7569,0,8116380,0,202401,서울특별시 용산구 보광동 151-,37.5240693901126,127.001282735069
1117013600,아파트,계단식,개별난방,자치관리,분양,서울특별시 용산구 보광로 14,226.0,신동아건설(주),서울특별시 용산구 보광동 448- 신동아아파트,0.0,신동아건설(주),A14082601,2,027900764,25401.722,0.0,0.0,0.0,226.0,신동아아파트,26776.2,027954058,15, ,19920919.0,9.0,226.0,15.0,19192.47,4416.0,14721170,0,0,83002,0,0,4198,0,5080150,0,202401,서울특별시 용산구 보광동 448-,37.5258490359653,127.002220488758
1117012100,아파트,계단식,개별난방,위탁관리,분양,서울특별시 용산구 효창원로 88,195.0,용문구역주택재개발조합,서울특별시 용산구 용문동 90- 브라운스톤용산,2.0,이수건설(주),A14083101,4,0232736385,19912.98,38.0,0.0,78.0,79.0,브라운스톤용산,29220.0,0232736384,10,브라운스톤용산.apti.co.kr,20110705.0,10.0,195.0,10.0,15753.38,4363.0,16974913,0,0,60760,0,0,2880,0,3489040,0,202401,서울특별시 용산구 용문동 90-,37.5366511744323,126.959034062588
1117011800,아파트,복도식,지역난방,위탁관리,분양,서울특별시 용산구 원효로 66,554.0,한양,서울특별시 용산구 원효로4가 118-16 원효산호,0.0,한양건설,A14085002,6,0232723162,55471.324,311.0,0.0,76.0,167.0,원효산호,63238.25,0232723161,12, ,19770404.0,9.0,554.0,12.0,46298.11,4365.0,37709180,0,153390770,151674,0,0,7803,2087,11298740,0,202401,서울특별시 용산구 원효로4,37.5327880536079,126.950368928526
1117011800,아파트,복도식,개별난방,위탁관리,분양,서울특별시 용산구 원효로 40,300.0,삼성중공업,서울특별시 용산구 원효로4가 178- 원효로강변삼성스위트,2.0,삼성중공업,A14085101,3,027153442,28590.262,0.0,0.0,151.0,149.0,원효로강변삼성스위트,37340.22,027153377,22, ,19991224.0,6.0,300.0,22.0,21461.48,4365.0,17851390,0,253680,76677,0,0,4066,0,4918210,0,202401,서울특별시 용산구 원효로4,37.5339160142404,126.949302620967
1117012900,아파트,계단식,지역난방,위탁관리,분양,서울특별시 용산구 이촌로34길 29,516.0,현대아파트 재건축조합,서울특별시 용산구 이촌동 400- 현대한강,0.0,현대건설(주),A14085501,4,027131890,50397.96,0.0,0.0,198.0,318.0,현대한강,57479.69,027145650,22, ,19970307.0,13.0,516.0,22.0,38782.74,4381.0,34734970,0,76935290,127911,0,491352,4919,3245,9408810,0,202401,서울특별시 용산구 이촌동 400-,37.5236377056864,126.956665435109
1117013000,아파트,혼합식,중앙난방,위탁관리,분양,서울특별시 용산구 장문로 27,578.0,청화기업,서울특별시 용산구 이태원동 22-2 청화아파트,0.0,청화기업,A14086001,9,027939883,89586.1868,194.0,384.0,0.0,0.0,청화아파트,94188.775,027954420,12, ,19820918.0,20.0,578.0,12.0,81503.93,4392.0,46709107,0,134073436,325178,0,145620,7154,3740,12574920,27135030,202401,서울특별시 용산구 이태원동 22-2,37.5291071806126,126.993672893038
1117013000,아파트,복도식,중앙난방,자치관리,분양,서울특별시 용산구 녹사평대로 254,400.0,대림산업(주),서울특별시 용산구 이태원동 729- 이태원남산대림,1.0,대림산업(주),A14086101,16,027969778,42842.974,40.0,60.0,160.0,140.0,이태원남산대림,49963.45,027986806,5, ,19941231.0,0.0,400.0,5.0,35811.2,4343.0,37107834,0,95495130,119812,0,0,0,2101,6542420,14076700,202401,서울특별시 용산구 이태원동 729-,37.5415810456425,126.988404255609
1117012800,주상복합,타워형,중앙난방,위탁관리,분양,서울특별시 용산구 서빙고로 31,208.0,세계일보,서울특별시 용산구 한강로3가 63-387 시티파크2단지,5.0,롯데건설,A14088201,2,027490658,40473.46,52.0,156.0,0.0,0.0,시티파크2단지,70638.18,027490657,33, ,20070821.0,8.0,208.0,33.0,31220.08,4385.0,34708943,0,31870150,157182,0,231,3900,1506,4549690,9879360,202401,서울특별시 용산구 한강로3,37.5262000079325,126.969790668144
1117012800,주상복합,혼합식,중앙난방,위탁관리,분양,서울특별시 용산구 한강대로 26,123.0,대우,서울특별시 용산구 한강로3가 65-230 한강트럼프월드3차,3.0,대우건설,A14088302,1,027956824,31420.96,24.0,99.0,0.0,0.0,한강트럼프월드3차,52742.0,027956823,30, ,20040428.0,7.0,123.0,29.0,18939.98,4389.0,0,0,0,0,0,0,0,0,0,0,202401,서울특별시 용산구 한강로3,37.5231469938916,126.962943339203
1117012900,아파트,혼합식,지역난방,자치관리,분양,서울특별시 용산구 이촌로2가길 122,638.0,대림산업,서울특별시 용산구 이촌동 395- 이촌대림,2.0,대림산업,A14090902,4,027133202,72465.8,176.0,0.0,198.0,264.0,이촌대림,94207.41,027142816,22, ,19941129.0,12.0,638.0,22.0,54340.44,4374.0,34174414,0,110536470,158077,0,478391,0,3196,3210200,0,202401,서울특별시 용산구 이촌동 395-,37.5254656474891,126.954478744002
1117013100,아파트,,,기타,,서울 용산구 소월로 377,, ,서울특별시 용산구 한남동 726-74 남산맨션,, ,A54016001,1, ,,87.0,27.0,0.0,15.0,남산맨션,,027453414,1, ,,,129.0,16.0,15368.86,,0,0,0,0,0,0,0,0,0,0,202401,서울특별시 용산구 한남동 726-74,37.5443094716075,127.00150769747
