bjdCode,codeAptNm,codeHallNm,codeHeatNm,codeMgrNm,codeSaleNm,address,hoCnt,kaptAcompany,kaptAddr,kaptBaseFloor,kaptBcompany,kaptCode,kaptDongCnt,kaptFax,kaptMarea,kaptMparea_135,kaptMparea_136,kaptMparea_60,kaptMparea_85,kaptName,kaptTarea,kaptTel,kaptTopFloor,kaptUrl,kaptUsedate,kaptdEcntp,kaptdaCnt,ktownFlrNo,privArea,zipcode,전기사용금액,가스사용금액,난방사용금액,전기사용량,가스사용량,난방사용량,냉수사용량,온수사용량,냉수사용금액,온수사용금액,집계날짜,cleaned_address,lat,lon
1138010700,아파트,복도식,개별난방,위탁관리,임대,서울 은평구 백련산로 146-30,136.0,서울시,서울특별시 은평구 응암동 176-1 응암sh빌아파트,2.0,우응조동산건설,A10020935,1,023539104,6578.32,0.0,0.0,136.0,0.0,응암sh빌아파트,9919.57,023539103,14, ,20080717.0,,136.0,,,,0,0,0,0,0,0,0,0,0,0,202401,서울특별시 은평구 응암동 176-1,37.5980401983599,126.926865459421
1138010800,아파트,,,,혼합,서울 은평구 갈현로7길 25,, ,서울특별시 은평구 역촌동 189-1 센트레빌아스테리움시그니처아파트,, ,A10021056,1, ,0.0,,,,,센트레빌아스테리움시그니처아파트,0.0,02-2138-0601,1, ,20241125.0,,,,,,0,0,0,0,0,0,0,0,0,0,202401,서울특별시 은평구 역촌동 189-1,37.6041057910281,126.907409235632
1138011000,아파트,,,,분양,서울 은평구 증산로 333,, ,서울특별시 은평구 증산동 250- DMC월드아파트,, ,A10021150,1, ,0.0,,,,,DMC월드아파트,0.0,023060246,1, ,20020702.0,,,,,,0,0,0,0,0,0,0,0,0,0,202401,서울특별시 은평구 증산동 250-,37.5861942017317,126.911677057515
1138010700,아파트,계단식,개별난방,자치관리,분양,서울 은평구 은평로 160,124.0,(주)엘엔씨산업개발,서울특별시 은평구 응암동 96-18 경향렉스빌아파트,4.0,(주)엘엔씨산업개발,A10021263,1, ,14911.43,80.0,44.0,0.0,0.0,경향렉스빌아파트,26426.0,023582299,1, ,20040802.0,3.0,124.0,,,,0,0,0,0,0,0,0,0,0,0,202401,서울특별시 은평구 응암동 96-18,37.6007900164073,126.925702377167
1138010400,아파트,복도식,개별난방,자치관리,분양,서울 은평구 갈현로29길 61,123.0,시행특경대주택조합외 1개회사,서울특별시 은평구 갈현동 267-1 라이프시티아파트,1.0,주식회사 라이프,A10021288,1,023876093,12957.71,123.0,0.0,0.0,0.0,라이프시티아파트,13098.0,023875093,15, ,19911118.0,2.0,123.0,,,,0,0,0,0,0,0,0,0,0,0,202401,서울특별시 은평구 갈현동 267-1,37.6230217417807,126.910402990599
1138010900,아파트,,,,분양,서울 은평구 증산로15길 50,, ,서울특별시 은평구 신사동 368- 신사대주파크빌,, ,A10021335,1, ,,,,,,신사대주파크빌,,023720669,1, ,20040629.0,,,,,,0,0,0,0,0,0,0,0,0,0,202401,서울특별시 은평구 신사동 368-,37.5906823864537,126.908112134355
1138010400,아파트,혼합식,개별난방,위탁관리,분양,서울 은평구 갈현로45길 57,140.0,(주)건영,서울특별시 은평구 갈현동 541-1 갈현동건영아파트,2.0,(주)건영,A10021391,1,023566845,13170.689,101.0,0.0,0.0,39.0,갈현동건영아파트,20336.0,023556845,17, ,20010403.0,4.0,140.0,,,,0,0,0,0,0,0,0,0,0,0,202401,서울특별시 은평구 갈현동 541-1,37.628975972544,126.913380555986
1138010900,,복도식,개별난방,자치관리,분양,서울 은평구 증산로21길 11,116.0,삼부토건,서울특별시 은평구 신사동 361- 신사삼부아파트,1.0,삼부토건,A10022090,1,07073452514,11262.89,67.0,0.0,0.0,49.0,신사삼부아파트,11263.0,023722514,16, ,20010628.0,,116.0,,,,0,0,0,0,0,0,0,0,0,0,202401,서울특별시 은평구 신사동 361-,37.5957074100985,126.913495001001
1138010300,아파트,혼합식,,위탁관리,분양,서울 은평구 불광로 98-8,100.0,대호건설,서울특별시 은평구 불광동 629- 대호103동  아파트,1.0,대호건설,A10022158,1,023537352,10.0,15.0,32.0,0.0,53.0,대호103동  아파트,10.0,023537352,16, ,19991201.0,1.0,100.0,,,,0,0,0,0,0,0,0,0,0,0,202401,서울특별시 은평구 불광동 629-,37.6147632328943,126.93331346676
1138011400,아파트,계단식,,위탁관리,분양,서울 은평구 진관3로 21,146.0,DS네트웍스,서울특별시 은평구 진관동 65- 은평뉴타운엘크루,4.0,대우조선해양건설주식회사,A10022206,3,023896351,19.0,146.0,0.0,0.0,0.0,은평뉴타운엘크루,38.0,023896375,20, ,20170214.0,9.0,146.0,,,,0,0,0,0,0,0,0,0,0,0,202401,서울특별시 은평구 진관동 65-,37.6396025010646,126.919014455213
1138010300,,계단식,개별난방,자치관리,분양,서울 은평구 불광로6길 20,100.0,남해건설,서울특별시 은평구 불광동 632- 남해그린힐아파트,0.0,남해건설,A10022256,1, ,9702.28,60.0,0.0,0.0,40.0,남해그린힐아파트,12727.0,023584350,10, ,20011115.0,5.0,100.0,,,,0,0,0,0,0,0,0,0,0,0,202401,서울특별시 은평구 불광동 632-,37.6138700286669,126.934828914715
1138010500,아파트,계단식,,위탁관리,분양,서울 은평구 서오릉로 253,146.0,연희빌라재건축조합,서울특별시 은평구 구산동 548- 은평서해그랑블,1.0,서해종합건설,A10022261,2,023568382,11917.6,16.0,0.0,0.0,130.0,은평서해그랑블,11923.0,023568381,20, ,20220203.0,4.0,146.0,,,,0,0,0,0,0,0,0,0,0,0,202401,서울특별시 은평구 구산동 548-,37.616970838696,126.906390536717
1138011400,아파트,혼합식,,위탁관리,혼합,서울 은평구 진관2로 67,143.0,두산건설(주),서울특별시 은평구 진관동 82- 은평뉴타운2단지제1아파트(우물골4단지),0.0,SH서울주택도시공사,A10022263,3, ,14404.94,141.0,2.0,0.0,0.0,은평뉴타운2단지제1아파트(우물골4단지),22639.0,023531453,1,SH서울주택도시공사,20091223.0,9.0,143.0,,,,0,0,0,0,0,0,0,0,0,0,202401,서울특별시 은평구 진관동 82-,37.6347001391755,126.92400627264
1138010500,,계단식,개별난방,자치관리,분양,서울 은평구 서오릉로21길 48,122.0,삼호건설,서울특별시 은평구 구산동 546- 구산동2단지e편한세상아파트,2.0,대림건설,A10022339,2, ,14135.364,91.0,15.0,0.0,16.0,구산동2단지e편한세상아파트,18600.0,023861671,15, ,20041011.0,,122.0,,,,0,0,0,0,0,0,0,0,0,0,202401,서울특별시 은평구 구산동 546-,37.6123399721437,126.905527414861
1138011400,,복도식,지역난방,위탁관리,임대,서울 은평구 진관4로 78-8,127.0,http://www.li-sh.do.kr/happy/intro.do,서울특별시 은평구 진관동 7- 은평뉴타운상림마을 9단지,2.0,현대산업개발(주),A10022468,1, ,13336.232,96.0,6.0,0.0,25.0,은평뉴타운상림마을 9단지,20993.0,023556190,7,http://www.i-sh.co.kr/happy/intro.do,20080514.0,6.0,127.0,,,,0,0,0,0,0,0,0,0,0,0,202401,서울특별시 은평구 진관동 7-,37.6460949791009,126.928324494486
1138010900,,혼합식,개별난방,위탁관리,분양,서울 은평구 가좌로12길 15,139.0,신사제2구역주택재개발 정비사업조합,서울특별시 은평구 신사동 371- 신사두산위브2차아파트,2.0,두산건설(주),A10022477,3,023850997,16564.82,115.0,24.0,0.0,0.0,신사두산위브2차아파트,25926.0,023850996,15,1002247700,20111028.0,6.0,139.0,,,,0,0,0,0,0,0,0,0,0,0,202401,서울특별시 은평구 신사동 371-,37.5990538480847,126.90740881531
1138010400,,복도식,개별난방,위탁관리,임대,서울 은평구 연서로27길 4,163.0,(유)자산하우징,서울특별시 은평구 갈현동 456-25 THE STUDIO 163,1.0,강남건영,A10022512,1,023560163,5601.06,0.0,0.0,162.0,1.0,THE STUDIO 163,6267.0,023360163,19, ,20240430.0,,163.0,,,,0,0,0,0,0,0,0,0,0,0,202401,서울특별시 은평구 갈현동 456-25,37.6178311041954,126.919063560235
1138011000,아파트,계단식,,위탁관리,분양,서울특별시 은평구 증산서길 79,122.0,임창재건축조합,서울특별시 은평구 증산동 255- 증산동 두산위브아파트,2.0,두산건설,A10022560,2,023750436,14162.45,32.0,0.0,0.0,90.0,증산동 두산위브아파트,18859.0,023777784,15,1002256000,20051004.0,5.0,122.0,15.0,11298.7233,3498.0,0,0,0,0,0,0,0,0,0,0,202401,서울특별시 은평구 증산동 255-,37.5840946531565,126.906118787843
1138010900,아파트,혼합식,개별난방,위탁관리,분양,서울특별시 은평구 가좌로 342,114.0,홍익건설,서울특별시 은평구 신사동 19-117 신사 홍익아파트,2.0,홍익건설,A10022590,1, ,11494.974,0.0,0.0,50.0,64.0,신사 홍익아파트,15850.0,023882216,14, ,19951204.0,4.0,114.0,14.0,8406.3,3437.0,0,0,0,0,0,0,0,0,0,0,202401,서울특별시 은평구 신사동 19-117,37.5977476546821,126.90795012317
1138010300,아파트,복도식,개별난방,위탁관리,임대,서울특별시 은평구 통일로 838-21,264.0,(주)위드웰에셋,서울특별시 은평구 불광동 323-21 연신내역루체스테이션,4.0,새천년건설,A10022803,1,023567109,12459.776,0.0,0.0,264.0,0.0,연신내역루체스테이션,11534.403,023567106,21, ,20240124.0,3.0,264.0,21.0,5844.09,3350.0,0,0,0,0,0,0,0,0,0,0,202401,서울특별시 은평구 불광동 323-21,37.6186596486768,126.923237760275
1138011000,주상복합,혼합식,,위탁관리,혼합,서울특별시 은평구 수색로 200,132.0,증산2재정비촉진구역주택재개발정비사업조,서울특별시 은평구 증산동 261- 디엠씨센트럴자이주상복합,2.0,GS건설(주),A10022981,1, ,15464.27,0.0,0.0,132.0,0.0,디엠씨센트럴자이주상복합,15464.27,0269524661,23, ,20220331.0,4.0,132.0,23.0,6217.59,3505.0,10279368,0,0,31339,768,0,1603,0,2815480,0,202401,서울특별시 은평구 증산동 261-,37.5794195375926,126.900673276716
1138011000,아파트,계단식,개별난방,위탁관리,분양,서울특별시 은평구 증산로 285,122.0,중앙산업(주),서울특별시 은평구 증산동 248- 증산중앙하이츠아파트,2.0,중앙산업(주),A10023056,1,023728986,14592.0,30.0,0.0,0.0,92.0,증산중앙하이츠아파트,,023728986,18, ,20010907.0,4.0,122.0,18.0,11290.62,3499.0,0,0,0,0,0,0,0,0,0,0,202401,서울특별시 은평구 증산동 248-,37.5831076277636,126.908312552494
1138010100,아파트,혼합식,개별난방,위탁관리,혼합,서울특별시 은평구 수색로 322,1486.0,수색13 재정비촉진구역 주택재개발 정비조합,서울특별시 은평구 수색동 191- DMC SKVIEW 아이파크포레,5.0,"sk에코플랜트, 현대산업개발",A10023076,21,0220391680,132976.189,98.0,0.0,868.0,498.0,DMC SKVIEW 아이파크포레,237912.0,0220391680,19, ,20230731.0,51.0,1464.0,19.0,97569.86,3488.0,129730520,0,0,0,0,0,16442,0,18259440,0,202401,서울특별시 은평구 수색동 191-,37.5873678307971,126.892550386685
1138010100,아파트,계단식,개별난방,위탁관리,혼합,서울특별시 은평구 은평터널로 15,1223.0,수색6재정비촉진구역 주택재개발정비사업조합,서울특별시 은평구 수색동 190- DMC파인시티자이,3.0,GS건설(주),A10023079,15,0269514207,116343.32,0.0,0.0,523.0,700.0,DMC파인시티자이,117305.0,0269514206,30, ,20230731.0,34.0,1223.0,30.0,84479.47,3489.0,100426910,0,0,337870,0,0,16215,0,17622470,0,202401,서울특별시 은평구 수색동 190-,37.5846837509466,126.894019845962
1138010100,아파트,타워형,개별난방,위탁관리,혼합,서울특별시 은평구 은평터널로 27,672.0,수색7재정비축진구역 주택재개발조합,서울특별시 은평구 수색동 189- DMC아트포레자이아파트,3.0,GS건설주식회사,A10023126,8,0269524487,62906.96,0.0,0.0,308.0,364.0,DMC아트포레자이아파트,100531.83,0269524486,22, ,20230630.0,22.0,672.0,22.0,47086.26,3490.0,63515970,0,0,324891,0,0,9887,0,10634150,0,202401,서울특별시 은평구 수색동 189-,37.5850745829803,126.897053085386
1138010400,,혼합식,개별난방,위탁관리,분양,서울특별시 은평구 서오릉로 258,109.0,우남주택개발(주),서울특별시 은평구 갈현동 540- 우남아파트,3.0,우남주택개발(주),A10023157,2, ,11911.58,23.0,0.0,48.0,38.0,우남아파트,11912.0,023888680,16, ,19980720.0,3.0,109.0,16.0,9162.58,3327.0,0,0,0,0,0,0,0,0,0,0,202401,서울특별시 은평구 갈현동 540-,37.6176785340223,126.906807153782
1138010600,아파트,복도식,개별난방,위탁관리,임대,서울특별시 은평구 통일로 767,977.0,대조피에프브이주식회사,서울특별시 은평구 대조동 241- 호반베르디움 스테이원,6.0,호반건설,A10023467,4,023536500,73250.2568,0.0,0.0,977.0,0.0,호반베르디움 스테이원,87070.0,023532000,28, ,20221229.0,4.0,977.0,28.0,30280.7158,3391.0,41209168,0,0,143392,0,0,6031,0,9111860,0,202401,서울특별시 은평구 대조동 241-,37.6139964990436,126.926499742667
1138010800,,계단식,개별난방,위탁관리,분양,서울 은평구 진흥로1길 28,64.0,서부종합시장(주),서울특별시 은평구 역촌동 31-6 아그네스풍림아이원,3.0,풍림산업,A10023728,1,023888782,12638.56,64.0,0.0,0.0,0.0,아그네스풍림아이원,18427.03,023888867,11, ,20090930.0,2.0,64.0,11.0,6602.14,,0,0,0,0,0,0,0,0,0,0,202401,서울특별시 은평구 역촌동 31-6,37.6029593097591,126.918961673328
1138010500,아파트,복도식,개별난방,위탁관리,임대,서울특별시 은평구 서오릉로 165,238.0,(주)덕영,서울특별시 은평구 구산동 198-3 구산주택,2.0,(주)서해종합건설,A10023734,1,023513142,12503.492,0.0,0.0,238.0,0.0,구산주택,12503.49,023513141,19, ,20220518.0,1.0,238.0,19.0,5498.32,3411.0,8665810,0,0,50526,0,0,1478,0,3263680,0,202401,서울특별시 은평구 구산동 198-3,37.612240346751,126.91504007892
1138011000,,타워형,개별난방,자치관리,분양,서울 은평구 수색로 217-1,115.0,GS건설(주),서울특별시 은평구 증산동 223-28 DMC자이2단지아파트,19.0,GS건설(주),A10023737,2, ,3085408.6,89.0,26.0,0.0,0.0,DMC자이2단지아파트,26829.64,023022335,19, ,20090924.0,5.0,115.0,19.0,13698.12,,0,0,0,0,0,0,0,0,0,0,202401,서울특별시 은평구 증산동 223-28,37.5786200225853,126.899533764375
1138011000,아파트,혼합식,개별난방,위탁관리,혼합,서울특별시 은평구 수색로 200,1256.0,증산2주택재개발 정비사업조합,서울특별시 은평구 증산동 258- DMC센트럴자이,0.0,GS건설,A10023875,13, ,125829.48,0.0,0.0,406.0,850.0,DMC센트럴자이,192152.94,0269526553,30,cafe.naver.com,20230112.0,35.0,1256.0,30.0,125829.48,3505.0,102953644,0,0,387389,0,0,18882,0,22481180,0,202401,서울특별시 은평구 증산동 258-,37.5794195375926,126.900673276716
1138010700,아파트,계단식,개별난방,위탁관리,분양,서울특별시 은평구 백련산로 112,358.0,응암제4구역 주택정비사업조합,서울특별시 은평구 응암동 771- E편한세상백련산아파트,3.0,DL건설,A10023994,8,0231573809,34991.82,0.0,0.0,125.0,233.0,E편한세상백련산아파트,54360.95,0231573808,15, ,20220714.0,0.0,358.0,15.0,27181.12,3475.0,33500630,0,0,166601,0,0,5309,0,5784500,0,202401,서울특별시 은평구 응암동 771-,37.5949971838286,126.923305668119
1138010300,아파트,복도식,개별난방,위탁관리,임대,서울특별시 은평구 통일로 742,201.0,한화생명,서울특별시 은평구 불광동 272-5 셀립은평,5.0,대림건설주식회사,A10024026,1,07073009455,7019.31,0.0,0.0,192.0,9.0,셀립은평,12605.61,07073359455,12, ,20210430.0,2.0,201.0,12.0,3970.68,3358.0,8975544,0,0,47214,0,0,0,0,0,0,202401,서울특별시 은평구 불광동 272-5,37.6118291183667,126.929364603214
1138010100,아파트,계단식,개별난방,위탁관리,혼합,서울특별시 은평구 수색로 216,644.0,수색9재정비촉진구역 주택재개발정비사업조합,서울특별시 은평구 수색동 30- DMC SK뷰 1단지 아파트,4.0,에스케이건설(주),A10024086,6,023030135,63877.117,50.0,0.0,333.0,261.0,DMC SK뷰 1단지 아파트,101631.45,023030134,30, ,20230824.0,2.0,644.0,30.0,45605.81,3505.0,62172200,0,0,198975,0,0,9266,0,10043840,0,202401,서울특별시 은평구 수색동 30-,37.5798457128547,126.899932768477
1138011400,,계단식,지역난방,위탁관리,분양,서울특별시 은평구 연서로44길 55,125.0,SH공사,서울특별시 은평구 진관동 135- 은평뉴타운폭포동4단지제4관리아파트,2.0,현대건설,A10024123,3,023586163,18265.84,124.0,1.0,0.0,0.0,은평뉴타운폭포동4단지제4관리아파트,26106.26,023586162,18, ,20100614.0,1.0,125.0,18.0,14618.91,3309.0,0,0,0,0,0,0,0,0,0,0,202401,서울특별시 은평구 진관동 135-,37.6276515409663,126.936495053805
1138010400,아파트,계단식,개별난방,자치관리,분양,서울특별시 은평구 서오릉로20길 5-10,110.0,현재건설,서울특별시 은평구 갈현동 542-1 현재트윈빌아파트,2.0,현재건설,A10024128,2,023853377,17090.34,84.0,26.0,0.0,0.0,현재트윈빌아파트,22955.19,023548118,14, ,20000421.0,2.0,110.0,14.0,13730.88,3327.0,0,0,0,0,0,0,0,0,0,0,202401,서울특별시 은평구 갈현동 542-1,37.6168688763487,126.908495832923
1138010300,아파트,복도식,개별난방,위탁관리,임대,서울특별시 은평구 불광로2길 27,100.0,불광4구역재개발조합,서울특별시 은평구 불광동 645-1 불광롯데캐슬4차아파트,4.0,롯데건설,A10024198,1,023570919,3635.45,0.0,0.0,100.0,0.0,불광롯데캐슬4차아파트,5440.33,023570909,10, ,20181129.0,0.0,100.0,10.0,3635.45,3364.0,4680180,0,0,20143,0,0,1074,0,882500,0,202401,서울특별시 은평구 불광동 645-1,37.6128280202704,126.934314263443
1138010700,아파트,계단식,개별난방,위탁관리,혼합,서울특별시 은평구 은평로 240,879.0,응암1구역주택재개발정비사업조합,서울특별시 은평구 응암동 770- 힐스테이트녹번역아파트,4.0,현대건설,A10024313,11,023899739,80974.17,0.0,0.0,420.0,459.0,힐스테이트녹번역아파트,120368.61,023899738,22,https://nokbeon.aptner.com/,20221020.0,36.0,879.0,22.0,60587.29,3473.0,49012360,0,0,257741,0,0,27634,0,15240420,0,202401,서울특별시 은평구 응암동 770-,37.6004214734002,126.934948113512
1138011000,아파트,계단식,개별난방,위탁관리,분양,서울특별시 은평구 증산로13길 44-5,119.0,문영건설,서울특별시 은평구 증산동 254- DMC문영퀸즈파크,2.0,문영건설,A10024581,1,023031062,13387.7,0.0,0.0,0.0,119.0,DMC문영퀸즈파크,18725.0,023031029,15, ,20040625.0,4.0,119.0,15.0,10110.48,3494.0,0,0,0,0,0,0,0,0,0,0,202401,서울특별시 은평구 증산동 254-,37.5876001284071,126.907696662489
1138011000,아파트,계단식,개별난방,위탁관리,분양,서울특별시 은평구 증산로 221,84.0,덕원공영주식회사,서울특별시 은평구 증산동 220-1 DMC 덕원아파트,0.0,덕원공영주식회사,A10024769,1,023046075,80808.0,18.0,0.0,38.0,28.0,DMC 덕원아파트,80808.0,023751492,18, ,19971215.0,,84.0,18.0,5906.65,3506.0,0,0,0,0,0,0,0,0,0,0,202401,서울특별시 은평구 증산동 220-1,37.5788129693947,126.903584224614
1138010200,아파트,계단식,,위탁관리,분양,서울특별시 은평구 응암로 366,111.0,해주개발주식회사,서울특별시 은평구 녹번동 279-1 해주드림빌아파트,5.0,해주개발주식회사,A10024774,2,023858742,9295.1,28.0,0.0,11.0,72.0,해주드림빌아파트,20768.91,023858712,15, ,20011114.0,4.0,111.0,15.0,9295.1,3459.0,0,0,0,0,0,0,0,0,0,0,202401,서울특별시 은평구 녹번동 279-1,37.6040535103323,126.922919259174
1138010100,아파트,혼합식,개별난방,위탁관리(직영+위탁),혼합,서울특별시 은평구 수색로 300,1192.0,수색4재정비촉진구역주택재개발정비사업조합,서울특별시 은평구 수색동 417- DMC롯데캐슬더퍼스트,3.0,롯데건설,A10024828,15,023038183,115809.27,99.0,0.0,621.0,472.0,DMC롯데캐슬더퍼스트,178408.54,023038182,25,dmccastle.aptner.com,20211209.0,34.0,1192.0,25.0,84056.95,3488.0,93911941,0,0,356094,0,0,18059,0,21387450,0,202401,서울특별시 은평구 수색동 417-,37.5850903459468,126.890441915048
1138010700,아파트,혼합식,개별난방+기타,위탁관리,혼합,서울특별시 은평구 은평로 220,2569.0,응암제2구역주택재개발조합,서울특별시 은평구 응암동 769- 녹번역e편한세상캐슬,3.0,"대림산업, 롯데건설",A10024831,32,023898562,235133.46,88.0,0.0,1687.0,794.0,녹번역e편한세상캐슬,368169.48,023898560,23,nbecastle.aptner.com,20210527.0,79.0,2569.0,23.0,170569.1,3472.0,194742419,0,0,767225,0,0,37823,0,48611470,0,202401,서울특별시 은평구 응암동 769-,37.6005343844723,126.932098856535
1138010700,아파트,혼합식,개별난방,위탁관리,혼합,서울특별시 은평구 응암로30길 15,760.0,응암제11구역 주택재개발정비사업조합,서울특별시 은평구 응암동 768- 백련산 해모로 아파트,2.0,한진중공업(주),A10024947,9,023568174,68527.9,2.0,0.0,413.0,345.0,백련산 해모로 아파트,112122.11,023568173,24, ,20200618.0,24.0,760.0,24.0,50179.57,3465.0,54643850,0,0,221831,0,0,12070,0,14981620,0,202401,서울특별시 은평구 응암동 768-,37.5959775729359,126.921690274973
1138010700,아파트,혼합식,개별난방,위탁관리,혼합,서울특별시 은평구 응암로30길 16,1305.0,응암제10구역 주택재개발정비사업조합,서울특별시 은평구 응암동 767- 백련산 sk뷰 아이파크,4.0,"sk view, 현대산업개발",A10025310,11,023569625,120184.8649,48.0,0.0,758.0,499.0,백련산 sk뷰 아이파크,173574.0,023569623,25, ,20200521.0,30.0,1305.0,25.0,88337.08,3466.0,91739960,0,0,396914,0,0,18775,0,21554660,0,202401,서울특별시 은평구 응암동 767-,37.5952285650967,126.91939457024
1138010900,아파트,계단식,개별난방,위탁관리,혼합,서울특별시 은평구 가좌로 334,380.0,신사동19번지 주택재건축정비사업조합,서울특별시 은평구 신사동 372- 응암역효성해링턴플레이스,3.0,효성중공업,A10025659,6,023521515,36190.06,0.0,0.0,123.0,257.0,응암역효성해링턴플레이스,52695.04,023521514,15,http://ehyosunghp.aptner.com/,20180730.0,18.0,380.0,15.0,26447.77,3437.0,30240000,233570,0,159506,0,0,6036,0,6958220,0,202401,서울특별시 은평구 신사동 372-,37.5981225315725,126.908729530954
1138011400,아파트,복도식,지역난방,위탁관리,임대,서울특별시 은평구 통일로 972,350.0,서울주택도시공사,서울특별시 은평구 진관동 122- 은뜨락행복주택,1.0,금호산업(주),A10025677,3,023572225,20287.361,0.0,0.0,350.0,0.0,은뜨락행복주택,30063.805,07073353765,15,hello.movill.net,20190208.0,7.0,350.0,15.0,14037.539,3311.0,12471400,0,13536450,55775,0,127,3287,1511,3334190,7932750,202401,서울특별시 은평구 진관동 122-,37.6301758375471,126.91991625048
1138010700,아파트,혼합식,개별난방,위탁관리,혼합,서울특별시 은평구 백련산로 67,678.0,응암3주택재건축정비사업조합,서울특별시 은평구 응암동 626-108 백련산파크자이아파트,4.0,GS건설,A10025683,9,0269495952,60933.021,0.0,0.0,421.0,257.0,백련산파크자이아파트,96903.309,0269495951,20,brspxisnd.co.kr,20210412.0,24.0,678.0,20.0,46123.88,3468.0,57762567,0,0,188426,0,0,10670,0,12161200,0,202401,서울특별시 은평구 응암동 626-108,37.5927972064559,126.921619781742
1138011400,아파트,계단식,지역난방,위탁관리,분양,서울특별시 은평구 통일로 1034,361.0,GS 건설,서울특별시 은평구 진관동 62- 은평스카이뷰자이아파트,4.0,GS 건설,A10025765,3,0269495182,42894.975,0.0,0.0,0.0,361.0,은평스카이뷰자이아파트,60953.3023,0269495181,33,http://admin.aptner.com,20190130.0,13.0,361.0,33.0,30519.6543,3306.0,32649020,0,30355970,113290,0,291,5678,2390,6380590,16849500,202401,서울특별시 은평구 진관동 62-,37.6352810682306,126.917656215121
1138010200,아파트,혼합식,개별난방,위탁관리,혼합,서울특별시 은평구 통일로 610,952.0,녹번제1구역제1지구 주택재개발정비사업조합,서울특별시 은평구 녹번동 282- 힐스테이트녹번,0.0,현대힐스테이트,A10025836,13,023897580,82015.761,4.0,0.0,652.0,296.0,힐스테이트녹번,128603.0,023897578,20, ,20181010.0,29.0,952.0,20.0,60955.94,3373.0,67413679,0,0,274979,0,0,13135,0,16863000,0,202401,서울특별시 은평구 녹번동 282-,37.6019824456298,126.935947829509
1138010200,아파트,계단식,개별난방,위탁관리,혼합,서울특별시 은평구 통일로 630,1305.0,녹번1-2 주택재개발정비사업,서울특별시 은평구 녹번동 21-134 래미안베라힐즈아파트,3.0,삼성물산,A10025846,20, ,126582.34,12.0,0.0,589.0,704.0,래미안베라힐즈아파트,187941.0,0231578878,20, ,20181227.0,54.0,1305.0,20.0,92094.91,3372.0,109294540,2326340,0,404241,0,0,19943,0,23971420,0,202401,서울특별시 은평구 녹번동 21-134,37.6028449679876,126.935955809882
1138011000,아파트,계단식,개별난방,위탁관리,분양,서울특별시 은평구 증산로 333,119.0,화수종합건설,서울특별시 은평구 증산동 250- 증산월드빌아파트,1.0,화수종합견설,A10025969,1, ,9710.709,0.0,0.0,0.0,119.0,증산월드빌아파트,15129.0,023060246,18, ,20020702.0,,119.0,18.0,9710.709,3497.0,0,0,0,0,0,0,0,0,0,0,202401,서울특별시 은평구 증산동 250-,37.5861942017317,126.911677057515
1138010300,아파트,계단식,개별난방,자치관리,분양,서울특별시 은평구 불광로 153,103.0,"은평구청직장조합, 불광지역조합",서울특별시 은평구 불광동 217-9 불광삼익아파트,2.0,(주)현재건걸,A10026061,1,023887921,8677.75,0.0,0.0,0.0,103.0,불광삼익아파트,13184.78,023851291,15, ,19920328.0,3.0,103.0,15.0,8722.15,3354.0,0,0,0,0,0,0,0,0,0,0,202401,서울특별시 은평구 불광동 217-9,37.6201492643964,126.931920289388
1138011400,아파트,혼합식,지역난방,위탁관리,분양,서울특별시 은평구 진관3로 33,142.0,(주)르시엘,서울특별시 은평구 진관동 66- 은평뉴타운 한화꿈에그린,4.0,한화건설,A10026376,2,023535597,12548.93,0.0,0.0,142.0,0.0,은평뉴타운 한화꿈에그린,12597.93,023535596,20, ,20180322.0,4.0,142.0,20.0,8514.05,3301.0,0,0,0,0,0,0,0,0,0,0,202401,서울특별시 은평구 진관동 66-,37.6397528801196,126.919945513653
1138011400,주상복합,혼합식,지역난방,위탁관리,분양,서울특별시 은평구 통일로 1080,260.0,(주)삼전건설,서울특별시 은평구 진관동 59-18 은평뉴타운솔하임,5.0,(주)삼전건설,A10026414,3,023543324,22370.638,0.0,0.0,260.0,0.0,은평뉴타운솔하임,22370.645,023533324,20, ,20170928.0,7.0,260.0,20.0,8219.396,3300.0,12898520,0,21235240,42450,0,108,1983,764,2616500,0,202401,서울특별시 은평구 진관동 59-18,37.6392342317325,126.917530394384
1138010700,아파트,계단식,개별난방,위탁관리(직영+위탁),혼합,서울특별시 은평구 백련산로 37,963.0,응암1주택재건축정비사업조합,서울특별시 은평구 응암동 764- 힐스테이트 백련산4차 아파트,4.0,현대건설,A10026834,13,023049118,96168.81,0.0,0.0,397.0,566.0,힐스테이트 백련산4차 아파트,147041.3,023049116,19,"백련산4차.apit,co.kr",20180219.0,36.0,963.0,19.0,71910.74,3469.0,78133870,147400,0,297246,0,0,16653,0,20982120,0,202401,서울특별시 은평구 응암동 764-,37.5894133333452,126.92227448589
1138011400,연립주택,계단식,지역난방,위탁관리,분양,서울특별시 은평구 진관4로 78-38,220.0,(주)신영,서울특별시 은평구 진관동 9- 은평지웰테라스,1.0,(주)한라건설,A10026842,12,023530912,23653.4799,0.0,0.0,0.0,220.0,은평지웰테라스,33646.2532,023530911,4,은평지웰테라스.apti.co.kr/,20170731.0,29.0,220.0,4.0,18583.6724,3303.0,25697240,0,40457940,0,0,0,0,0,4444740,0,202401,서울특별시 은평구 진관동 9-,37.6441360283736,126.93114524715
1138010700,주상복합,계단식,개별난방,위탁관리,분양,서울특별시 은평구 불광천길 536,78.0,뉴월드건설,서울특별시 은평구 응암동 113-35 애필리움아파트,4.0,뉴월드건설,A10027547,1,023881490,8509.02,2.0,0.0,2.0,74.0,애필리움아파트,14129.36,023881489,15, ,20070720.0,3.0,78.0,15.0,6638.48,3453.0,0,0,0,0,0,0,0,0,0,0,202401,서울특별시 은평구 응암동 113-35,37.5979126004398,126.916390991297
1138010700,아파트,계단식,개별난방,위탁관리,분양,서울특별시 은평구 응암로 319,95.0,(주)서강산업건설,서울특별시 은평구 응암동 109-3 서강스카이빌1차아파트,0.0,(주)서강산업건설,A10027551,1,023860665,17641.582,0.0,95.0,0.0,0.0,서강스카이빌1차아파트,24179.74,023860611,20, ,20011101.0,,95.0,20.0,14208.67,3454.0,0,0,0,0,0,0,0,0,0,0,202401,서울특별시 은평구 응암동 109-3,37.5997109401508,126.921450935505
1138010300,아파트,복도식,개별난방,위탁관리,임대,서울특별시 은평구 불광로2길 46,100.0,서울시,서울특별시 은평구 불광동 633-2 불광에스에이치빌,3.0,태영건설,A10027568,1,023587503,4720.0,0.0,0.0,100.0,0.0,불광에스에이치빌,8247.99,023587504,10, ,20050904.0,1.0,100.0,10.0,3209.0,3366.0,0,0,0,0,0,0,0,0,0,0,202401,서울특별시 은평구 불광동 633-2,37.6115390949586,126.93567596888
1138010300,아파트,복도식,개별난방,위탁관리,임대,서울특별시 은평구 불광로14길 10-4,147.0,현대건설,서울특별시 은평구 불광동 640- 북한산힐스테이트3차 3207동(임대동)아파트,5.0,현대건설,A10027569,1,023554056,6747.3,0.0,0.0,147.0,0.0,북한산힐스테이트3차 3207동(임대동)아파트,6780.0,023554055,15, ,20100825.0,2.0,147.0,10.0,4517.31,3362.0,0,0,0,0,0,0,0,0,0,0,202401,서울특별시 은평구 불광동 640-,37.619784895011,126.934286621938
1138010200,아파트,계단식,,위탁관리,혼합,서울특별시 은평구 통일로 660,1230.0,서울시은평구녹번1구역3지구 조합,서울특별시 은평구 녹번동 281- 북한산 푸르지오 아파트,4.0,대우건설,A10027816,22,023897395,128596.49,175.0,0.0,327.0,728.0,북한산 푸르지오 아파트,194596.11,023897394,20,www.bhsprugio.com,20150722.0,42.0,1230.0,20.0,97932.0,3370.0,112860410,324830,0,424261,0,0,18932,0,21881830,0,202401,서울특별시 은평구 녹번동 281-,37.6059008670873,126.936142883261
1138010300,아파트,복도식,개별난방,위탁관리,임대,서울특별시 은평구 통일로 792,188.0,현대건설(주),서울특별시 은평구 불광동 643-1 북한산힐스테이트7차제2 (임대),3.0,현대건설(주),A10028056,1,023897728,10358.8,0.0,0.0,188.0,0.0,북한산힐스테이트7차제2 (임대),18452.0,023897727,12, ,20110729.0,2.0,188.0,12.0,7082.9,3357.0,7631330,0,0,54653,0,0,2174,0,2071500,0,202401,서울특별시 은평구 불광동 643-1,37.6156571806508,126.926902462443
1138010700,아파트,계단식,개별난방,위탁관리,분양,서울특별시 은평구 백련산로 6,204.0,대주건설,서울특별시 은평구 응암동 669-1 대주피오레아파트,3.0,대주건설,A12201001,2,023086778,23087.7072,53.0,15.0,40.0,96.0,대주피오레아파트,35283.0,023086777,15, ,20031128.0,8.0,204.0,15.0,18999.73,3477.0,17186478,0,0,63654,0,0,3631,0,4567170,0,202401,서울특별시 은평구 응암동 669-1,37.5861456080931,126.923229496069
1138010700,아파트,계단식,개별난방,위탁관리,분양,서울특별시 은평구 백련산로 38,893.0,응암8구역주택재개발조합,서울특별시 은평구 응암동 760- 백련산힐스테이트2차,3.0,현대건설(주),A12201002,11,023020921,89165.36,86.0,0.0,401.0,406.0,백련산힐스테이트2차,163636.19,023020953,15,http:cafe.naver.com/bhills2,20111222.0,29.0,893.0,15.0,68113.24,3477.0,82854308,0,0,288549,0,0,16840,0,20609960,0,202401,서울특별시 은평구 응암동 760-,37.5892706101884,126.923090643465
1138010700,아파트,계단식,개별난방,위탁관리,분양,서울특별시 은평구 백련산로2길 19,1028.0,응암7구역 재개발사업조합,서울특별시 은평구 응암동 759- 백련산힐스테이트1차,0.0,현대건설,A12201003,15,0231510511,108820.3852,154.0,28.0,383.0,463.0,백련산힐스테이트1차,163509.83,0231510509,15,http://백련산힐스테이트1차.apti.co.kr/,20111222.0,44.0,1028.0,15.0,83606.28,3476.0,108053351,0,0,350374,0,0,21276,0,23929680,0,202401,서울특별시 은평구 응암동 759-,37.5924768384074,126.925269500776
1138010700,아파트,복도식,개별난방,위탁관리,임대,서울특별시 은평구 백련산로2길 19,552.0,SH공사,서울특별시 은평구 응암동 759-1 백련산힐스테이트임대,3.0,현대건설,A12201004,3,0231510412,17322.76,0.0,0.0,552.0,0.0,백련산힐스테이트임대,43451.81,0231510411,15, ,20111222.0,8.0,552.0,15.0,17322.76,3476.0,19897280,0,0,99078,0,0,6055,0,4496860,0,202401,서울특별시 은평구 응암동 759-1,37.5924768384074,126.925269500776
1138010700,아파트,복도식,개별난방,위탁관리,혼합,서울특별시 은평구 백련산로 160,350.0,동부건설,서울특별시 은평구 응암동 762- 녹번역센트레빌,3.0,동부건설,A12201005,6,023899341,27393.83,44.0,0.0,105.0,201.0,녹번역센트레빌,57854.5,023899340,19, ,20130926.0,13.0,350.0,19.0,27393.83,3474.0,31997479,0,0,111239,0,0,6071,0,7219360,0,202401,서울특별시 은평구 응암동 762-,37.5983345031022,126.925920084826
1138010700,아파트,복도식,개별난방,자치관리,분양,서울특별시 은평구 백련산로 127,206.0,응암5구역주택개량재개발조합,서울특별시 은평구 응암동 197-78 응암신동아,0.0,동아건설,A12201101,2,023868505,10858.26,0.0,0.0,206.0,0.0,응암신동아,15547.0,023876663,13, ,19900922.0,2.0,206.0,13.0,10858.26,3463.0,1341230,0,0,0,0,0,0,0,0,0,202401,서울특별시 은평구 응암동 197-78,37.5971446532124,126.923655969125
1138010700,아파트,혼합식,개별난방,자치관리,분양,서울특별시 은평구 응암로 318,299.0,금호산업,서울특별시 은평구 응암동 739- 응암금호,2.0,금호산업,A12201102,5,023542563,28879.45,0.0,0.0,150.0,149.0,응암금호,37280.09,023542451,21, ,19980703.0,7.0,299.0,21.0,21597.33,3464.0,17461970,0,0,80821,0,0,4878,0,5684630,0,202401,서울특별시 은평구 응암동 739-,37.5994661259867,126.921971643797
1138010700,아파트,계단식,개별난방,자치관리,분양,서울특별시 은평구 백련산로 146,361.0,응암 제3구역 재개발조합,서울특별시 은평구 응암동 176- 응암푸르지오,3.0,대우건설,A12201103,7,023853532,36124.93,54.0,0.0,103.0,204.0,응암푸르지오,48360.65,023513552,14, ,20080717.0,0.0,361.0,14.0,29519.22,3475.0,23195310,0,0,111038,0,0,6522,0,7800410,0,202401,서울특별시 은평구 응암동 176-,37.597777066917,126.926363056073
1138010700,아파트,혼합식,개별난방,위탁관리,분양,서울특별시 은평구 가좌로7나길 35,160.0,경남기업,서울특별시 은평구 응암동 714- 응암경남,1.0,경남기업,A12201301,2,023080223,15021.13,0.0,0.0,63.0,97.0,응암경남,17366.297,023070223,16, ,19951222.0,6.0,160.0,16.0,11090.32,3481.0,2149710,0,0,0,0,0,0,0,238400,0,202401,서울특별시 은평구 응암동 714-,37.5833381581922,126.920038795167
1138010300,아파트,계단식,개별난방,위탁관리,분양,서울특별시 은평구 불광로 170,155.0,정원연립재건축조합,서울특별시 은평구 불광동 636- 북한산수자인,1.0,한양,A12204001,2,023553206,12900.0,0.0,0.0,125.0,30.0,북한산수자인,17908.5,023553203,15, ,20060901.0,6.0,155.0,15.0,10016.95,3360.0,8689070,0,0,0,0,0,0,0,2804230,0,202401,서울특별시 은평구 불광동 636-,37.6217813394485,126.931654193461
1138010300,아파트,계단식,개별난방,위탁관리,분양,서울특별시 은평구 불광로 208,256.0,대창건설,서울특별시 은평구 불광동 71-16 북한산대창센시티,2.0,대창건설,A12204002,3,023895356,25277.432,17.0,0.0,96.0,143.0,북한산대창센시티,36959.57,023544350,17, ,20040630.0,2.0,256.0,17.0,19788.99,3359.0,17326096,0,0,74664,0,0,0,0,0,0,202401,서울특별시 은평구 불광동 71-16,37.6257025429828,126.929389312581
1138010300,아파트,계단식,개별난방,위탁관리,분양,서울특별시 은평구 불광로2길 33,603.0,불광2구역 주택재개발조합,서울특별시 은평구 불광동 635- 북한산힐스테이트1차,2.0,현대건설,A12204003,11,023564621,63983.3749,90.0,0.0,249.0,264.0,북한산힐스테이트1차,96246.867,023564620,12, ,20090716.0,31.0,603.0,12.0,47576.504,3366.0,55348600,0,0,188920,0,0,10827,0,13265090,0,202401,서울특별시 은평구 불광동 635-,37.6128212718274,126.935473714353
1138010300,아파트,계단식,개별난방,위탁관리,분양,서울특별시 은평구 불광로 122-10,1185.0,(불광3구역)주택재개발조합,서울특별시 은평구 불광동 641- 북한산힐스테이트3차,0.0,현대건설(주),A12204004,19,023533015,90668.06,113.0,0.0,554.0,518.0,북한산힐스테이트3차,187208.45,023533013,15,bghs3.co.kr,20100825.0,43.0,1185.0,15.0,90668.06,3362.0,107441777,0,0,396085,0,0,19682,0,23265260,0,202401,서울특별시 은평구 불광동 641-,37.6182703657052,126.93418080291
1138010300,아파트,복도식,개별난방,위탁관리,임대,서울특별시 은평구 불광로2길 41,135.0,삼성물산,서울특별시 은평구 불광동 637-1 북한산래미안아파트(임대),4.0,삼성물산,A12204005,1,023883094,7438.095,0.0,0.0,135.0,0.0,북한산래미안아파트(임대),15041.0,023873094,10, ,20100830.0,2.0,135.0,10.0,5078.7675,3366.0,0,0,0,0,0,0,0,0,0,0,202401,서울특별시 은평구 불광동 637-1,37.6116306495066,126.936199823498
1138010300,아파트,계단식,개별난방,위탁관리,분양,서울특별시 은평구 불광로 64,488.0,불광제4구역주택재개발정비사업조합,서울특별시 은평구 불광동 645- 불광롯데캐슬,0.0,롯데건설(주),A12204006,8,023562004,47157.31,42.0,0.0,295.0,151.0,불광롯데캐슬,73110.89,023562003,18, ,20130926.0,4.0,488.0,18.0,35322.89,3364.0,44805040,0,0,145762,0,0,7716,0,8822970,0,202401,서울특별시 은평구 불광동 645-,37.6131320544168,126.932470564865
1138010300,아파트,계단식,개별난방,위탁관리,분양,서울특별시 은평구 불광로2길 16,662.0,불광제1구역 재개발조합,서울특별시 은평구 불광동 633- 북한산현대홈타운,3.0,현대건설(주),A12204102,15,023887473,54503.469,113.0,0.0,206.0,343.0,북한산현대홈타운,95385.08,023887471,15, ,20040529.0,26.0,662.0,15.0,54503.469,3365.0,48163882,0,256620,271693,0,254,10788,0,12300580,0,202401,서울특별시 은평구 불광동 633-,37.6116774120569,126.933269559765
1138010400,아파트,계단식,개별난방,자치관리,분양,서울특별시 은평구 갈현로29길 11,200.0,미미주택(주),서울특별시 은평구 갈현동 538- 갈현미미,2.0,(주) 강산건설,A12205001,2,023581162,20288.54,50.0,0.0,98.0,52.0,갈현미미,27470.397,023591162,14, ,19970507.0,8.0,200.0,14.0,16487.61,3322.0,13321080,129380,0,57127,0,0,3057,0,4937090,0,202401,서울특별시 은평구 갈현동 538-,37.619233848102,126.913963985976
1138010500,아파트,계단식,개별난방,위탁관리,분양,서울특별시 은평구 서오릉로21길 47,327.0,대림,서울특별시 은평구 구산동 547- 갈현1단지e-편한세상,3.0,대림,A12205003,3,0231570394,35956.064,34.0,0.0,33.0,260.0,갈현1단지e-편한세상,37171.06,02-3157-0393,22, ,20041011.0,9.0,327.0,22.0,28144.603,3427.0,38339920,0,0,94622,0,0,6003,0,14290320,0,202401,서울특별시 은평구 구산동 547-,37.6126178231164,126.906756046562
1138010500,아파트,혼합식,개별난방,위탁관리,분양,서울특별시 은평구 서오릉로21길 36,366.0,갈현아파트재건축조합,서울특별시 은평구 구산동 382- 갈현현대아파트,1.0,현대건설,A12205004,4,023529429,28334.87,54.0,0.0,171.0,141.0,갈현현대아파트,45514.54,023547358,20, ,19981128.0,8.0,366.0,20.0,28334.87,3427.0,23634830,0,0,102713,0,0,6226,0,7105650,0,202401,서울특별시 은평구 구산동 382-,37.6127720930199,126.904974725064
1138010900,아파트,계단식,개별난방,위탁관리,분양,서울특별시 은평구 갈현로1길 36,178.0,두산,서울특별시 은평구 신사동 370- 신사두산위브,2.0,두산,A12208001,6,023538228,18697.6048,0.0,0.0,0.0,178.0,신사두산위브,26073.41,023538282,12,신사두산.apti.co.kr,20061130.0,8.0,178.0,12.0,14980.224,3434.0,13923840,0,0,78127,0,0,6033,0,7600810,0,202401,서울특별시 은평구 신사동 370-,37.6001577233593,126.905678823306
1138010900,아파트,계단식,개별난방,위탁관리,분양,서울특별시 은평구 은평터널로 121-6,228.0,이랜드건설,서울특별시 은평구 신사동 367- 신사이랜드타운,1.0,이랜드건설,A12208002,3,07073399337,21009.1,0.0,0.0,110.0,118.0,신사이랜드타운,26578.663,023059337,24, ,20040528.0,0.0,228.0,24.0,16618.2166,3446.0,14830500,0,0,0,0,0,0,0,4917710,0,202401,서울특별시 은평구 신사동 367-,37.5902754500152,126.903644735297
1138010900,아파트,혼합식,개별난방,위탁관리,분양,서울특별시 은평구 갈현로4길 26-5,150.0,성원건설,서울특별시 은평구 신사동 360- 신사성원,2.0,성원건설,A12208101,1,023569539,15382.0,0.0,0.0,86.0,64.0,신사성원,20062.0,023569537,17, ,20000411.0,3.0,150.0,17.0,10592.28,3422.0,9682968,0,0,96341,0,0,2525,0,3058250,0,202401,서울특별시 은평구 신사동 360-,37.6005565862719,126.913677367898
1138010900,아파트,계단식,개별난방,위탁관리,분양,서울특별시 은평구 가좌로 391,290.0,서울시경검찰증연합주택,서울특별시 은평구 신사동 297- 신사씨티,2.0,토왕건설,A12208102,2,023529617,25056.0,0.0,0.0,210.0,80.0,신사씨티,28789.0,023581892,20, ,19931119.0,9.0,290.0,20.0,18529.08,3434.0,14959070,0,0,77437,0,0,4898,0,5179920,0,202401,서울특별시 은평구 신사동 297-,37.6005411721761,126.903655278222
1138010900,아파트,계단식,개별난방,위탁관리,분양,서울특별시 은평구 갈현로1길 31,296.0,신사 제1구역 주택재개발조합,서울특별시 은평구 신사동 365- 신사한신휴플러스,2.0,한신공영,A12208103,7,023571416,23411.5634,58.0,0.0,120.0,118.0,신사한신휴플러스,41399.9,023571415,15, ,20031128.0,11.0,296.0,15.0,23800.32,3438.0,19115060,440680,0,114403,0,0,5026,0,5812630,0,202401,서울특별시 은평구 신사동 365-,37.5987361682017,126.906165846343
1138010900,아파트,계단식,개별난방,위탁관리,분양,서울특별시 은평구 갈현로3다길 15,298.0,라이프,서울특별시 은평구 신사동 354- 신사라이프씨티,3.0,라이프,A12208104,2,0263957868,32165.292,0.0,0.0,70.0,228.0,신사라이프씨티,33141.0,023877868,15, ,19921218.0,11.0,298.0,15.0,23093.8,3433.0,16689910,0,0,81992,0,0,0,0,41260,0,202401,서울특별시 은평구 신사동 354-,37.6026295707916,126.905204717654
1138010900,아파트,계단식,개별난방,위탁관리,분양,서울특별시 은평구 가좌로 344,380.0,동인건영외 2개 직장조합,서울특별시 은평구 신사동 355- 신사현대2차,2.0,현대산업개발,A12208105,3,023882305,42710.746,0.0,0.0,0.0,380.0,신사현대2차,44651.449,023889020,19, ,19940423.0,10.0,380.0,19.0,32235.4,3438.0,23033431,65950,0,109657,0,0,5916,0,7357560,0,202401,서울특별시 은평구 신사동 355-,37.5979186439956,126.90746525552
1138010900,아파트,복도식,개별난방,자치관리,분양,서울특별시 은평구 증산로15길 67-7,238.0,신성,서울특별시 은평구 신사동 155-1 신사신성,1.0,신성건설,A12208203,2,023098085,21646.2758,1.0,0.0,12.0,225.0,신사신성,22466.74,023059810,13, ,19880630.0,2.0,238.0,13.0,16382.68,3447.0,11766280,0,0,54136,0,0,3395,0,4327860,0,202401,서울특별시 은평구 신사동 155-1,37.5901940359917,126.905696946665
1138010900,아파트,계단식,개별난방,위탁관리,분양,서울특별시 은평구 은평터널로 164,445.0,산업은행 외 12개 주택조합,서울특별시 은평구 신사동 359- 새절역현대아파트,0.0,현대건설,A12208204,5,023746640,47076.55,0.0,0.0,0.0,445.0,새절역현대아파트,47954.0,023732920,15, ,19970925.0,16.0,445.0,15.0,37457.89,3444.0,27995880,0,0,126780,0,0,8406,0,9846490,0,202401,서울특별시 은평구 신사동 359-,37.5938605063117,126.908643132218
1138010900,아파트,복도식,개별난방,위탁관리,분양,서울특별시 은평구 증산로15길 35-10,570.0,라이프건설,서울특별시 은평구 신사동 140-1 신사미성,0.0,라이프건설,A12208205,5,0263837430,55823.2785,0.0,0.0,0.0,570.0,신사미성,57427.0,023067429,15, ,19871127.0,7.0,570.0,15.0,41245.8,3447.0,28293287,143610,0,130351,0,0,8128,0,10988170,0,202401,서울특별시 은평구 신사동 140-1,37.5895152217591,126.907740493268
1138010100,아파트,계단식,개별난방,위탁관리,분양,서울특별시 은평구 증산로1길 26,196.0,(주)한국토지신탁,서울특별시 은평구 수색동 413- DMC청구,0.0,청구,A12209001,3,023080171,20013.37,22.0,0.0,80.0,94.0,DMC청구,26638.91,023720171,18, ,20000316.0,8.0,196.0,18.0,15548.96,3505.0,9402740,0,0,51080,0,0,5827,0,6893910,0,202401,서울특별시 은평구 수색동 413-,37.580495569898,126.900966083211
1138011400,아파트,혼합식,지역난방,위탁관리,혼합,서울특별시 은평구 진관4로 78-7,208.0,SH공사,서울특별시 은평구 진관동 3- 은평뉴타운상림마을6단지 제1아파트(8단지 푸르지오),0.0,대우푸르지오,A12220001,5,023556082,22026.6,55.0,5.0,72.0,76.0,은평뉴타운상림마을6단지 제1아파트(8단지 푸르지오),31991.15,023556081,12,sanglim8.co.kr,20080514.0,11.0,208.0,12.0,17053.59,3304.0,13276110,0,29517670,55465,0,12552,3497,1325,3984300,6492500,202401,서울특별시 은평구 진관동 3-,37.6473922719123,126.930527973094
1138011400,아파트,계단식,지역난방,위탁관리,분양,서울특별시 은평구 진관4로 48-50,298.0,현대산업개발,서울특별시 은평구 진관동 11- 은평뉴타운상림마을13단지,1.0,SH공사,A12220002,11,023556324,46625.691,252.0,18.0,0.0,28.0,은평뉴타운상림마을13단지,65217.0,023556323,14,cafe.daum.net/sang lim13,20080614.0,15.0,298.0,14.0,37158.12,3303.0,28291950,0,63554790,100941,0,21252,5483,1877,6634680,6682120,202401,서울특별시 은평구 진관동 11-,37.643204075778,126.929208795549
1138011400,아파트,혼합식,지역난방,위탁관리,혼합,서울특별시 은평구 진관4로 37,335.0,SH공사,서울특별시 은평구 진관동 14- 은평뉴타운상림마을2단지,0.0,롯데건설(주),A12220003,9,023555093,30636.43,91.0,33.0,149.0,62.0,은평뉴타운상림마을2단지,61109.41,023555092,14,은평캐슬.apti.co.kr,20080514.0,20.0,335.0,14.0,30636.43,3302.0,30541602,0,53218400,100094,0,29861,6233,2578,7417720,12245500,202401,서울특별시 은평구 진관동 14-,37.644469386862,126.925073996113
1138011400,아파트,혼합식,지역난방,위탁관리,혼합,서울특별시 은평구 진관3로 70,551.0,SH,서울특별시 은평구 진관동 20- 은평뉴타운상림마을12단지,2.0,(주)롯데건설,A12220004,10,023556308,55631.399,118.0,0.0,180.0,253.0,은평뉴타운상림마을12단지,76945.032,023556307,14, ,20080514.0,21.0,551.0,14.0,41086.03,3302.0,33398418,0,71066197,150945,0,42856,8971,3374,9879410,15503460,202401,서울특별시 은평구 진관동 20-,37.6422598317106,126.923141080933
1138011400,아파트,혼합식,지역난방,위탁관리,혼합,서울특별시 은평구 진관4로 17,707.0,sh공사,서울특별시 은평구 진관동 19- 은평뉴타운상림마을1단지,2.0,삼환기업,A12220005,11,023552282,65598.799,159.0,0.0,403.0,145.0,은평뉴타운상림마을1단지,101274.0,023552281,14, ,20080514.0,24.0,707.0,14.0,48888.92,3302.0,35592837,970,103326770,178361,0,33409,10855,4012,11182940,-60060,202401,서울특별시 은평구 진관동 19-,37.6436459287601,126.922900461734
1138010400,주상복합,계단식,개별난방,자치관리,분양,서울특별시 은평구 연서로 149,175.0,대교디엔에스,서울특별시 은평구 갈현동 465-12 갈현베르빌주상복합아파트,3.0,대교 대앤에스,A12271402,1,023534933,31911.267,123.0,0.0,34.0,18.0,갈현베르빌주상복합아파트,31911.267,023534912,24, ,20040630.0,4.0,175.0,24.0,19138.587,3336.0,17680830,0,0,85279,0,0,3660,0,4424510,0,202401,서울특별시 은평구 갈현동 465-12,37.6122113176376,126.916913986936
1138010300,아파트,계단식,개별난방,위탁관리,분양,서울특별시 은평구 진흥로 267,647.0,불광제6구역 주택재개발조합,서울특별시 은평구 불광동 637- 북한산래미안,3.0,삼성물산,A12275201,9,023588516,52287.0727,119.0,0.0,251.0,277.0,북한산래미안,103142.0,023588515,15,www.bhsr.co.kr,20100830.0,24.0,647.0,15.0,52285.4427,3366.0,58406695,0,0,206484,0,0,11525,0,12900170,0,202401,서울특별시 은평구 불광동 637-,37.6118719282293,126.938565593536
1138010300,아파트,계단식,개별난방,위탁관리,분양,서울특별시 은평구 통일로 796,882.0,현대건설,서울특별시 은평구 불광동 643- 북한산힐스테이트7차,3.0,현대건설,A12275202,15,023896425,99854.03,147.0,55.0,166.0,514.0,북한산힐스테이트7차,164768.812,023896424,19, ,20110729.0,34.0,882.0,19.0,78306.287,3357.0,94440907,0,0,305500,0,0,14731,0,17036510,0,202401,서울특별시 은평구 불광동 643-,37.616343199117,126.925757582129
1138010100,주상복합,계단식,개별난방,위탁관리,분양,서울특별시 은평구 수색로 217,209.0,지에스 건설,서울특별시 은평구 수색동 75- DMC자이1단지,4.0,지에스 건설,A12275501,1,023099250,26424.58,200.0,9.0,0.0,0.0,DMC자이1단지,82068.92,023099252,19, ,20090924.0,7.0,209.0,19.0,26424.58,3504.0,26799731,0,0,82974,0,0,3409,0,3741780,0,202401,서울특별시 은평구 수색동 75-,37.5796932759305,126.898678379239
1138011000,아파트,,,기타,,서울 은평구 증산로13길 44-5,, ,서울특별시 은평구 증산동 254- 증산로13길44-5,, ,A12275801,1,023031062,,0.0,0.0,0.0,119.0,증산로13길44-5,,023031029,1, ,,,119.0,15.0,10110.48,,0,0,0,0,0,0,0,0,0,0,202401,서울특별시 은평구 증산동 254-,37.5876001284071,126.907696662489
1138010500,아파트,혼합식,개별난방,위탁관리,혼합,서울특별시 은평구 갈현로7길 56,203.0,SH공사,서울특별시 은평구 구산동 226- 구산그린빌,2.0,성원건설,A12276901,2,023514564,10057.928,0.0,0.0,203.0,0.0,구산그린빌,15045.03,023514563,12, ,20090211.0,5.0,203.0,12.0,6961.08,3428.0,5415410,0,0,0,0,0,2043,0,1474790,0,202401,서울특별시 은평구 구산동 226-,37.6051608009671,126.904298121593
1138010400,아파트,계단식,개별난방,자치관리,분양,서울특별시 은평구 갈현로29길 62,191.0,한남재건축조합,서울특별시 은평구 갈현동 545- 코오롱하늘채아파트,2.0,코오롱건설주식회사,A12281701,3,023886788,20887.4249,27.0,0.0,14.0,150.0,코오롱하늘채아파트,30024.579,023885005,16, ,20030923.0,8.0,191.0,16.0,16911.852,3319.0,15887240,0,0,61252,0,0,7393,0,8922470,0,202401,서울특별시 은평구 갈현동 545-,37.6233603600771,126.910915159001
1138010400,아파트,혼합식,개별난방,자치관리,분양,서울특별시 은평구 갈현로33길 24,278.0,현대산업개발(주),서울특별시 은평구 갈현동 537- 갈현현대1차,2.0,현대산업개발,A12281702,2,023530427,28648.016,67.0,0.0,134.0,77.0,갈현현대1차,35370.0,023820027,16, ,19970508.0,1.0,278.0,16.0,21523.24,3319.0,18208646,0,0,75074,0,0,4770,0,5901060,0,202401,서울특별시 은평구 갈현동 537-,37.6219704228009,126.913971706642
1138010400,아파트,혼합식,개별난방,위탁관리,분양,서울특별시 은평구 갈현로23길 41,193.0,한솔건설(주),서울특별시 은평구 갈현동 539- 갈현한솔아파트,0.0,한솔건설(주),A12281801,1,023553415,14165.98,47.0,0.0,100.0,46.0,갈현한솔아파트,23446.88,023533415,15, ,19971209.0,6.0,193.0,15.0,14165.98,3326.0,12062316,0,0,50056,0,0,0,0,351360,0,202401,서울특별시 은평구 갈현동 539-,37.6180648444086,126.910133017821
1138010500,아파트,계단식,개별난방,위탁관리,분양,서울특별시 은평구 갈현로17길 17,189.0,이수건설,서울특별시 은평구 구산동 159-10 브라운스톤구산,5.0,이수건설(주),A12282102,6,023896673,21402.0,30.0,0.0,24.0,135.0,브라운스톤구산,33178.83,023896670,15, ,20060327.0,8.0,189.0,15.0,16389.03,3429.0,16438972,0,0,59979,0,0,3593,0,4239970,0,202401,서울특별시 은평구 구산동 159-10,37.6119050040364,126.908887561499
1138010500,아파트,혼합식,개별난방,자치관리,분양,서울특별시 은평구 갈현로15길 53,171.0,인황건설,서울특별시 은평구 구산동 162-1 경향파크아파트,1.0,인황건설,A12282201,2,023587707,20459.55,42.0,0.0,0.0,129.0,경향파크아파트,21424.16,023587823,15, ,19891110.0,4.0,171.0,15.0,16094.57,3428.0,13106670,0,0,53117,0,0,0,0,0,0,202401,서울특별시 은평구 구산동 162-1,37.6109939403085,126.905584047403
1138010500,아파트,계단식,개별난방,위탁관리,분양,서울특별시 은평구 갈현로11길 46,475.0,재건축조합,서울특별시 은평구 구산동 224- 구산경남아너스빌,3.0,경남기업,A12282203,9,023522263,54418.42,116.0,0.0,0.0,359.0,구산경남아너스빌,72458.0,023522223,20, ,20040813.0,14.0,475.0,20.0,44054.98,3428.0,33449528,0,0,153864,0,0,0,0,0,0,202401,서울특별시 은평구 구산동 224-,37.6047988625219,126.905402187471
1138010200,아파트,계단식,개별난방,위탁관리,분양,서울특별시 은평구 서오릉로 46,192.0,현대산업개발(주),서울특별시 은평구 녹번동 278-1 녹번현대2차,0.0,현대산업개발(주),A12283601,2,023562781,24500.04,60.0,0.0,0.0,132.0,녹번현대2차,24502.0,023542781,17, ,20010524.0,8.0,192.0,17.0,18253.08,3379.0,15206980,0,0,81442,0,0,3761,0,4186460,0,202401,서울특별시 은평구 녹번동 278-1,37.6051317980921,126.924990368761
1138010200,아파트,혼합식,개별난방,위탁관리,분양,서울특별시 은평구 통일로 586-19,341.0,JR건설,서울특별시 은평구 녹번동 280-1 녹번JR아파트,2.0,JR건설,A12283602,5,023866545,31237.151,0.0,0.0,242.0,99.0,녹번JR아파트,39557.0,023866548,19, ,20020930.0,7.0,341.0,19.0,22894.949,3374.0,18131316,0,0,82549,0,0,5277,0,6140770,0,202401,서울특별시 은평구 녹번동 280-1,37.6002473802667,126.937577272025
1138010200,아파트,계단식,개별난방,위탁관리,분양,서울특별시 은평구 통일로 590,370.0,동익건설(주),서울특별시 은평구 녹번동 276- 녹번대림,0.0,(주)대림산업,A12283603,3,023877446,42238.02,38.0,0.0,0.0,332.0,녹번대림,48802.0,023877448,19, ,19930928.0,10.0,370.0,19.0,33262.44,3374.0,23444238,0,0,108186,0,0,0,0,0,0,202401,서울특별시 은평구 녹번동 276-,37.6006262035389,126.937156149208
1138010600,아파트,혼합식,개별난방,위탁관리,분양,서울특별시 은평구 서오릉로 94,357.0,삼성건설주식회사,서울특별시 은평구 대조동 231- 대조삼성타운,2.0,삼성건설주식회사,A12284501,2,023878890,34624.7877,35.0,0.0,240.0,82.0,대조삼성타운,50755.92,023877763,21, ,19971104.0,7.0,357.0,21.0,25505.45,3392.0,22212030,0,265480,132762,0,279,6305,0,7111860,0,202401,서울특별시 은평구 대조동 231-,37.6095200026749,126.921700201605
1138010300,아파트,혼합식,개별난방,위탁관리,분양,서울특별시 은평구 불광로 90,198.0,불광1동 재건축조합,서울특별시 은평구 불광동 631-1 불광대호2차,4.0,(주)대호,A12284701,2,023531490,20079.6,32.0,0.0,70.0,96.0,불광대호2차,27210.0,023531488,17, ,20000902.0,8.0,198.0,17.0,15589.68,3364.0,12298230,0,0,54233,0,0,3202,0,3782190,0,202401,서울특별시 은평구 불광동 631-1,37.6150686709961,126.933000699618
1138010300,아파트,혼합식,중앙난방,위탁관리,분양,서울특별시 은평구 통일로 780,1340.0,라이프주택건설(주),서울특별시 은평구 불광동 248- 불광미성,0.0,라이프주택건설(주),A12285703,10,023838572,150359.44,180.0,0.0,0.0,1160.0,불광미성,157033.0,023838570,15, ,19881013.0,23.0,1340.0,15.0,109700.0,3356.0,63800927,0,229251980,314272,0,0,19571,4579,25501090,15110700,202401,서울특별시 은평구 불광동 248-,37.6158621924384,126.928432696242
1138010100,아파트,계단식,개별난방,위탁관리,분양,서울특별시 은평구 은평터널로 60,280.0,한국토지신탁,서울특별시 은평구 수색동 416-1 DMC진흥아파트,2.0,진흥기업,A12287202,6,0263829482,26802.3616,56.0,0.0,112.0,112.0,DMC진흥아파트,37869.077,023029482,16, ,20030725.0,10.0,280.0,16.0,21168.0112,3492.0,16585870,0,0,79002,0,0,4418,0,5027800,0,202401,서울특별시 은평구 수색동 416-1,37.585169461977,126.899674297901
1138010100,아파트,복도식,개별난방,위탁관리,임대,서울특별시 은평구 은평터널로 66,464.0,sh공사,서울특별시 은평구 수색동 415-4 수색대림한숲타운제2,2.0,대림건설,A12287203,3,023089855,28675.2,0.0,0.0,464.0,0.0,수색대림한숲타운제2,28675.86,023089854,15, ,20030710.0,6.0,464.0,15.0,15209.92,3492.0,13721912,0,0,89242,0,0,8840,0,6030360,0,202401,서울특별시 은평구 수색동 415-4,37.5868473003911,126.901612877648
1138010100,아파트,혼합식,개별난방,위탁관리,분양,서울특별시 은평구 은평터널로 65,976.0,수색2-1구역 재개발조합,서울특별시 은평구 수색동 415-1 이편한세상 수색 에코포레,2.0,대림산업주식회사,A12287204,12,023082095,108555.35,275.0,0.0,256.0,445.0,이편한세상 수색 에코포레,133684.266,023082094,15,수색대림한숲.apti.co.kr,20030710.0,29.0,976.0,15.0,84543.465,3491.0,60758110,0,0,275045,0,0,0,0,0,0,202401,서울특별시 은평구 수색동 415-1,37.586899476029,126.89916689751
1138010900,아파트,복도식,개별난방,위탁관리,분양,서울특별시 은평구 은평터널로 163,167.0,신성건설,서울특별시 은평구 신사동 356- 뉴신사신성,1.0,신성건설,A12289401,2,023051161,19322.3175,0.0,0.0,0.0,167.0,뉴신사신성,20138.0,023051163,15, ,19931129.0,2.0,167.0,15.0,14098.14,3445.0,9447640,0,0,0,0,0,0,0,141960,0,202401,서울특별시 은평구 신사동 356-,37.5933116723871,126.907205887283
1138010900,아파트,혼합식,개별난방,위탁관리,분양,서울특별시 은평구 은평터널로7길 2,180.0,조합,서울특별시 은평구 신사동 358- 신성수정,2.0,(주)신성건설,A12289402,1,023760053,18261.15,0.0,0.0,95.0,85.0,신성수정,24596.0,023053339,17,해당사항없음,19961219.0,5.0,180.0,17.0,12873.45,3445.0,13814450,0,0,50948,0,0,3030,0,3785480,0,202401,서울특별시 은평구 신사동 358-,37.5925615004272,126.906172127572
1138010800,아파트,계단식,개별난방,위탁관리,분양,서울특별시 은평구 갈현로3나길 23,400.0,은평주택재건축조합,서울특별시 은평구 역촌동 232- 역촌센트레빌,2.0,동부건설,A12289501,7,023521401,43272.7313,71.0,0.0,82.0,247.0,역촌센트레빌,66632.1,023521340,15,cafe.daum.net/yccv,20110104.0,15.0,400.0,15.0,33965.97,3433.0,29982580,0,0,134265,0,0,7580,0,8364900,0,202401,서울특별시 은평구 역촌동 232-,37.6035646455654,126.905801470923
1138010700,아파트,계단식,개별난방,위탁관리,분양,서울특별시 은평구 백련산로 36,748.0,응암9구역주택재개발정비사업조합,서울특별시 은평구 응암동 761- 백련산힐스테이트3차,0.0,주시회사 현대건설,A12290901,10,023739468,80032.4,135.0,0.0,224.0,389.0,백련산힐스테이트3차,122530.16,023739466,15,www.hills3.co.kr,20111222.0,31.0,748.0,15.0,61715.17,3477.0,73854822,0,0,252017,0,0,15160,0,17862410,0,202401,서울특별시 은평구 응암동 761-,37.5884566532295,126.924767525406
1138010700,아파트,혼합식,개별난방,자치관리,분양,서울특별시 은평구 가좌로7나길 30,292.0,응암4-1 재개발조합,서울특별시 은평구 응암동 694-1 응암우성,1.0,우성건설(주),A12293002,4,023040820,32132.24,120.0,0.0,0.0,172.0,응암우성,32132.24,023055337,15, ,19880701.0,8.0,292.0,15.0,26337.38,3483.0,18033624,0,0,104797,0,0,0,0,0,0,202401,서울특별시 은평구 응암동 694-1,37.5840093684696,126.918938631283
1138011000,아파트,혼합식,개별난방,위탁관리,분양,서울특별시 은평구 증산로3길 26-1,429.0,초원빌라 재건축조합,서울특별시 은평구 증산동 244- DMC우방,3.0,(주)우방,A12294102,3,023755375,34239.58,80.0,0.0,184.0,165.0,DMC우방,62214.0,023037223,23, ,20000320.0,1.0,429.0,23.0,34239.58,3493.0,28547009,0,0,121011,0,0,7850,0,8611930,0,202401,서울특별시 은평구 증산동 244-,37.5814851103662,126.902347326188
1138011400,아파트,계단식,지역난방,위탁관리,분양,서울특별시 은평구 진관4로 48-51,300.0,sh공사,서울특별시 은평구 진관동 10- 은평뉴타운상림마을14단지,0.0,현대산업개발,A41279901,13,023556604,48505.641,196.0,88.0,0.0,16.0,은평뉴타운상림마을14단지,69069.2,023556604,14, ,20080614.0,17.0,300.0,14.0,38846.87,3303.0,28315909,0,60930540,103975,0,21936,5486,2056,6935850,10650080,202401,서울특별시 은평구 진관동 10-,37.6436351635752,126.92975645239
1138011400,아파트,혼합식,지역난방,위탁관리,혼합,서울특별시 은평구 진관4로 87,318.0,SH공사,서울특별시 은평구 진관동 5- 은평뉴타운상림마을5단지,2.0,대우푸르지오,A41279902,8,023553645,38908.271,90.0,33.0,139.0,56.0,은평뉴타운상림마을5단지,61409.73,023553644,14, ,20080514.0,18.0,318.0,14.0,29398.0,3304.0,21703495,0,50942840,94743,0,25698,5428,2321,6129730,10566660,202401,서울특별시 은평구 진관동 5-,37.6478419819654,126.929665012724
1138011400,아파트,혼합식,지역난방,위탁관리,혼합,서울특별시 은평구 진관4로 100,378.0,sh공사,서울특별시 은평구 진관동 2- 은평뉴타운상림마을7단지,2.0,대우푸르지오,A41279903,9,023555952,42333.913,120.0,3.0,87.0,168.0,은평뉴타운상림마을7단지,59833.589,023555951,14, ,20080514.0,18.0,378.0,14.0,31911.25,3304.0,30594659,1920,57849430,110531,0,26191,6640,2575,7574560,8162750,202401,서울특별시 은평구 진관동 2-,37.6498059898839,126.933151151756
1138011400,아파트,혼합식,지역난방,위탁관리,혼합,서울특별시 은평구 진관4로 107,379.0,SH,서울특별시 은평구 진관동 1- 은평뉴타운상림마을6단지,2.0,대우푸르지오,A41279904,7,023555906,26762.0,78.0,0.0,195.0,106.0,은평뉴타운상림마을6단지,53595.0,023555905,14, ,20080514.0,13.0,379.0,14.0,26981.89,3304.0,22277155,0,44785950,102440,0,23213,6416,2622,7549060,10750200,202401,서울특별시 은평구 진관동 1-,37.6497519777393,126.930887140716
1138011400,아파트,혼합식,지역난방,위탁관리,혼합,서울특별시 은평구 진관4로 77,241.0,sh공사,서울특별시 은평구 진관동 6- 은평뉴타운상림마을4단지,2.0,현대산업개발,A41279905,4,023555466,30458.368,35.0,29.0,68.0,109.0,은평뉴타운상림마을4단지,45114.88,023555465,14, ,20080514.0,15.0,241.0,14.0,22368.5,3303.0,18217825,0,36157180,79909,0,21608,4690,1924,5416900,7503600,202401,서울특별시 은평구 진관동 6-,37.646668707628,126.928443600221
1138011400,아파트,혼합식,,위탁관리,혼합,서울특별시 은평구 진관4로 48-17,230.0,SH공사,서울특별시 은평구 진관동 12- 은평뉴타운상림마을10단지,2.0,현대산업개발,A41279906,4,023556303,27236.321,53.0,4.0,80.0,93.0,은평뉴타운상림마을10단지,40031.0,023556302,10, ,20080514.0,13.0,230.0,10.0,19682.99,3303.0,19967919,0,34492395,72635,0,15893,4316,1585,4864530,6340000,202401,서울특별시 은평구 진관동 12-,37.6451329256381,126.926883785097
1138011400,아파트,혼합식,,위탁관리,혼합,서울특별시 은평구 진관4로 48-8,187.0,SH공사,서울특별시 은평구 진관동 15- 은평뉴타운상림마을11단지,0.0,현대산업개발,A41279907,6,023556303,20229.495,44.0,0.0,54.0,89.0,은평뉴타운상림마을11단지,28360.54,023556304,14, ,20080514.0,8.0,187.0,14.0,14455.6,3303.0,12762777,0,24889096,56084,0,11330,3171,1182,2825460,4609800,202401,서울특별시 은평구 진관동 15-,37.6439570568606,126.928212674738
1138011400,아파트,혼합식,지역난방,위탁관리,혼합,서울특별시 은평구 진관4로 47,255.0,sh공사,서울특별시 은평구 진관동 13- 은평뉴타운상림마을제3단지,0.0,현대산업개발주식회사,A41279908,3,023555206,31707.132,34.0,29.0,69.0,123.0,은평뉴타운상림마을제3단지,45297.7,023555205,14, ,20080514.0,16.0,255.0,14.0,23482.24,3303.0,21582499,0,43067100,83563,0,23269,5017,1970,6802660,6047900,202401,서울특별시 은평구 진관동 13-,37.645686478376,126.927010489747
1138011400,아파트,계단식,지역난방,위탁관리,분양,서울특별시 은평구 진관1로 22,162.0,서울특별시 SH공사,서울특별시 은평구 진관동 123- 은평뉴타운박석고개13단지아파트,2.0,현대건설,A41279909,4,023576154,22677.428,162.0,0.0,0.0,0.0,은평뉴타운박석고개13단지아파트,33049.7,023576153,15, ,20081212.0,6.0,162.0,15.0,18271.19,3311.0,15977320,970,30410910,0,0,0,2885,0,3281010,0,202401,서울특별시 은평구 진관동 123-,37.6312818742237,126.923009078531
1138011400,아파트,혼합식,지역난방,위탁관리,혼합,서울특별시 은평구 진관1로 21-10,947.0,sh공사,서울특별시 은평구 진관동 102- 은평뉴타운박석고개1단지,2.0,현대,A41279910,16,023575163,93975.585,204.0,0.0,409.0,334.0,은평뉴타운박석고개1단지,134074.76,023575164,15,cafe.naver.com/epnt21,20090112.0,36.0,947.0,15.0,71377.19,3311.0,59774368,0,115157870,258887,0,58652,15187,5865,20155120,23460000,202401,서울특별시 은평구 진관동 102-,37.6342707354029,126.919398866427
1138011400,아파트,혼합식,지역난방,위탁관리,혼합,서울특별시 은평구 진관1로 21-9,660.0,SH공사,서울특별시 은평구 진관동 101- 은평뉴타운박석고개제12단지아파트,2.0,현대건설,A41279911,14,023575608,61990.917,20.0,0.0,275.0,365.0,은평뉴타운박석고개제12단지아파트,90530.19,023575607,20, ,20090112.0,24.0,660.0,20.0,46854.69,3311.0,37964392,0,73575870,167250,0,35817,10998,3800,13260900,25054000,202401,서울특별시 은평구 진관동 101-,37.6329244639,126.919502961914
1138011400,아파트,혼합식,지역난방,위탁관리,혼합,서울특별시 은평구 진관2로 90,659.0,sh공사,서울특별시 은평구 진관동 107- 은평뉴타운마고정3단지,2.0,포스코건설,A41279912,13,023531308,64475.0,65.0,132.0,185.0,277.0,은평뉴타운마고정3단지,111283.085,023531307,19, ,20091113.0,33.0,659.0,19.0,64649.97,3310.0,50719942,0,97491860,199429,0,65524,11932,4656,11846930,25608000,202401,서울특별시 은평구 진관동 107-,37.6338060816554,126.925688437384
1138011400,아파트,혼합식,지역난방,위탁관리,혼합,서울특별시 은평구 진관1로 55,469.0,SH공사,서울특별시 은평구 진관동 106- 은평뉴타운마고정11단지,0.0,동부건걸(주),A41279913,9,023531282,41720.0,125.0,8.0,102.0,234.0,은평뉴타운마고정11단지,75185.0,023531281,18, ,20091126.0,14.0,469.0,18.0,41936.28,3310.0,31798240,0,64046835,138434,0,32985,8635,3576,9395970,16521120,202401,서울특별시 은평구 진관동 106-,37.6315663816842,126.927817322461
1138011400,아파트,혼합식,지역난방,위탁관리,혼합,서울특별시 은평구 진관2로 60,434.0,SH공사,서울특별시 은평구 진관동 105- 은평뉴타운마고정2단지,2.0,동부건설,A41279914,13,023531347,67676.28,105.0,60.0,117.0,152.0,은평뉴타운마고정2단지,68440.0,023531346,18, ,20091126.0,20.0,434.0,18.0,40492.59,3310.0,29545873,0,70540020,132303,0,32229,7742,3278,9185700,10784620,202401,서울특별시 은평구 진관동 105-,37.6339160374251,126.922796996822
1138011400,아파트,계단식,지역난방,위탁관리,분양,서울특별시 은평구 진관2로 111-7,448.0,SH공사,서울특별시 은평구 진관동 88- 은평뉴타운우물골8단지,2.0,금호건설,A41279915,14,023531573,45228.279,178.0,5.0,0.0,265.0,은평뉴타운우물골8단지,74148.61,023531572,15,womul8.com,20091223.0,23.0,448.0,15.0,44908.49,3306.0,30982080,0,90759400,140686,0,40605,8058,3094,9101750,-90000,202401,서울특별시 은평구 진관동 88-,37.6370356430819,126.931770514721
1138011400,아파트,혼합식,지역난방,위탁관리,혼합,서울특별시 은평구 진관2로 77,387.0,SH,서울특별시 은평구 진관동 83- 은평뉴타운우물골5단지,2.0,"두산건설,포스코 건설",A41279916,5,023531549,38944.372,13.0,0.0,199.0,175.0,은평뉴타운우물골5단지,57209.268,023531548,16,우물골제2관리소.apti.co.kr,20091223.0,26.0,387.0,16.0,27987.4,3306.0,23545640,0,45874495,103659,0,24431,6710,2677,7682920,17400500,202401,서울특별시 은평구 진관동 83-,37.634569572388,126.926834884276
1138011400,아파트,계단식,지역난방,위탁관리,분양,서울특별시 은평구 진관2로 57-7,353.0,두산,서울특별시 은평구 진관동 81- 은평뉴타운우물골6단지,0.0,SH,A41279917,11,023531676,35065.91,114.0,25.0,0.0,214.0,은평뉴타운우물골6단지,57802.0,023531675,15, ,20091223.0,15.0,353.0,15.0,35065.91,3306.0,25442520,0,66649790,108777,0,30976,6244,2309,6749780,12468600,202401,서울특별시 은평구 진관동 81-,37.6343737542102,126.92323609983
1138011400,아파트,계단식,지역난방,위탁관리,분양,서울특별시 은평구 진관2로 57-37,472.0,sh공사,서울특별시 은평구 진관동 84- 은평뉴타운우물골7단지,2.0,두산건설,A41279918,22,023531652,68639.061,293.0,74.0,0.0,105.0,은평뉴타운우물골7단지,92202.18,023531651,15, ,20100115.0,29.0,472.0,15.0,55983.77,3306.0,45359328,0,101555830,157128,0,48658,8316,3298,10062180,0,202401,서울특별시 은평구 진관동 84-,37.6351965318796,126.926054239126
1138011400,아파트,계단식,지역난방,위탁관리,분양,서울특별시 은평구 진관3로 77,486.0,sh공사,서울특별시 은평구 진관동 25- 은평뉴타운구파발9-2단지,1.0,삼성건설,A41279920,13,023520427,66532.66,220.0,76.0,0.0,190.0,은평뉴타운구파발9-2단지,91209.79,023520426,10, ,20100709.0,23.0,486.0,10.0,54120.84,3301.0,44891352,0,61535710,229146,0,38503,10671,3879,12287860,25601400,202401,서울특별시 은평구 진관동 25-,37.6447082905283,126.920876918142
1138011400,아파트,혼합식,지역난방,위탁관리,임대,서울특별시 은평구 진관3로 67,1022.0,sh공사,서울특별시 은평구 진관동 22- 은평뉴타운구파발9단지1관리,1.0,삼성물산,A41279921,15,023534313,98172.1,0.0,0.0,283.0,739.0,은평뉴타운구파발9단지1관리,135179.59,023534311,15, ,20100709.0,27.0,1022.0,15.0,77068.37,3301.0,63341500,10670,105935650,280646,0,41913,19206,7201,22517980,34564800,202401,서울특별시 은평구 진관동 22-,37.6427644551257,126.920932686788
1138011400,아파트,계단식,지역난방,위탁관리,분양,서울특별시 은평구 연서로48길 11,175.0,SH공사,서울특별시 은평구 진관동 155- 은평뉴타운제각말5단지제2,2.0,대우건설(주),A41279922,8,023588350,23155.95,127.0,0.0,0.0,48.0,은평뉴타운제각말5단지제2,34381.43,023588349,12,무,20100908.0,11.0,175.0,12.0,18293.04,3308.0,16125500,0,34592150,59129,0,15360,3145,1311,3675200,2792430,202401,서울특별시 은평구 진관동 155-,37.6377914977696,126.93681895439
1138011400,아파트,계단식,지역난방,위탁관리,분양,서울특별시 은평구 연서로48길 12,330.0,SH공사,서울특별시 은평구 진관동 154- 은평뉴타운제각말5단지제1,0.0,(주)대우건설 (주)태영건설,A41279923,13,023588474,42443.09,244.0,0.0,0.0,86.0,은평뉴타운제각말5단지제1,62949.65,023588473,15, ,20100908.0,19.0,330.0,15.0,33660.1,3308.0,30061023,0,65352480,107547,0,28655,6081,2327,7293520,11635000,202401,서울특별시 은평구 진관동 154-,37.6371422182011,126.935928308893
1138011400,아파트,계단식,지역난방,위탁관리,분양,서울특별시 은평구 연서로44길 7,571.0,SH공사,서울특별시 은평구 진관동 140- 은평뉴타운폭포동4단지제2,2.0,현대건설(주),A41279924,15,023585473,88789.55,385.0,186.0,0.0,0.0,은평뉴타운폭포동4단지제2,126510.58,023585472,20,은평뉴타운폭포동4단지.apti.co.kr,20100614.0,17.0,571.0,20.0,71816.96,3309.0,58763218,0,101058370,204564,0,40158,10611,3789,12866180,26257770,202401,서울특별시 은평구 진관동 140-,37.6282682010033,126.935544079171
1138011400,아파트,계단식,지역난방,위탁관리,분양,서울특별시 은평구 연서로 487,189.0,SH공사,서울특별시 은평구 진관동 94- 은평뉴타운제각말5단지제3관리사무소,2.0,대우푸르지오,A41279925,7,023588147,23273.83,93.0,0.0,0.0,96.0,은평뉴타운제각말5단지제3관리사무소,34736.46,023588146,11, ,20100908.0,13.0,189.0,11.0,18313.23,3305.0,16011728,0,32746870,59256,0,15871,3312,1238,4325500,7180400,202401,서울특별시 은평구 진관동 94-,37.640035647591,126.934626935357
1138011400,아파트,계단식,지역난방,위탁관리,분양,서울특별시 은평구 연서로44길 30,126.0,SH공사,서울특별시 은평구 진관동 132- 은평뉴타운폭포동4단지제3,0.0,현대건설,A41279926,3,023585936,18454.36,125.0,1.0,0.0,0.0,은평뉴타운폭포동4단지제3,26308.14,023585935,18, ,20100614.0,3.0,126.0,18.0,14786.9,3309.0,0,0,0,0,0,0,0,0,0,0,202401,서울특별시 은평구 진관동 132-,37.6276987531025,126.934680336431
1138011400,아파트,계단식,지역난방,위탁관리,분양,서울특별시 은평구 진관3로 15-45,334.0,sh공사,서울특별시 은평구 진관동 27- 은평뉴타운구파발10단지1관리,2.0,"벽산건설,금호건설",A41279927,9,023851552,45307.24,169.0,38.0,0.0,127.0,은평뉴타운구파발10단지1관리,63723.26,023851551,10, ,20101130.0,20.0,334.0,10.0,36008.5,3300.0,31243410,0,50894190,121396,0,20632,7100,2565,8090490,13338000,202401,서울특별시 은평구 진관동 27-,37.6442915792715,126.916171226315
1138011400,아파트,계단식,지역난방,위탁관리,임대,서울특별시 은평구 진관3로 15-35,423.0,SH공사,서울특별시 은평구 진관동 28- 은평뉴타운구파발10단지2관리,2.0,금호건설,A41279928,10,023852773,43887.97,0.0,0.0,97.0,326.0,은평뉴타운구파발10단지2관리,62953.52,023852772,15, ,20101130.0,14.0,423.0,15.0,33445.89,3300.0,26277500,0,38903700,120793,0,15182,8426,3171,8275120,21848190,202401,서울특별시 은평구 진관동 28-,37.6424906932298,126.917321258805
1138011400,아파트,계단식,지역난방,위탁관리,분양,서울특별시 은평구 연서로 455,412.0,sh공사,서울특별시 은평구 진관동 92- 은평뉴타운제각말5단지제4,2.0,대우건설,A41279929,14,023591808,47692.87,90.0,0.0,0.0,322.0,은평뉴타운제각말5단지제4,66393.0,023591807,15,제각말5-4.apti.co.kr,20100908.0,21.0,412.0,15.0,37163.39,3305.0,34609471,0,80409130,132442,0,34154,8182,3052,9061480,-36750,202401,서울특별시 은평구 진관동 92-,37.6373953656635,126.933915021143
1138011400,아파트,계단식,지역난방,위탁관리,임대,서울특별시 은평구 진관1로 77-8,297.0,SH공사,서울특별시 은평구 진관동 113- 은평뉴타운폭포동4단지제1,3.0,현대건설,A41279930,7,023586513,33638.82,0.0,0.0,0.0,297.0,은평뉴타운폭포동4단지제1,34884.91,023586512,20, ,20100614.0,10.0,297.0,20.0,25233.78,3310.0,25239370,0,31919720,88967,0,12230,6133,2277,7754070,14345100,202401,서울특별시 은평구 진관동 113-,37.6313627876469,126.930720986749
1138011400,아파트,혼합식,지역난방,위탁관리,임대,서울특별시 은평구 북한산로 2,712.0,금호건설,서울특별시 은평구 진관동 29- 은평뉴타운구파발10단지3관리,2.0,SH공사,A41279931,9,023856892,71236.39,0.0,0.0,254.0,458.0,은평뉴타운구파발10단지3관리,100028.79,023856891,15,www.i-sh.co.kr/happy/cms/main.do,20120223.0,23.0,712.0,15.0,52500.66,3300.0,42288360,0,68966720,206168,0,36464,14080,5421,15305830,29815500,202401,서울특별시 은평구 진관동 29-,37.6422433283206,126.916235958975
1138011400,아파트,혼합식,지역난방,위탁관리,혼합,서울특별시 은평구 연서로46길 7,426.0,SH공사,서울특별시 은평구 진관동 150- 은평뉴타운기자촌11단지,3.0,한라,A41279932,10,023592962,34106.1127,0.0,0.0,81.0,345.0,은평뉴타운기자촌11단지,67304.46,023592961,15,cafe.naver.com/gijachon11apt,20150123.0,26.0,426.0,15.0,34113.7,3308.0,38617530,0,49847890,127389,0,323,7165,2695,8262130,-92000,202401,서울특별시 은평구 진관동 150-,37.6339652491329,126.932682946126
