bjdCode,codeAptNm,codeHallNm,codeHeatNm,codeMgrNm,codeSaleNm,address,hoCnt,kaptAcompany,kaptAddr,kaptBaseFloor,kaptBcompany,kaptCode,kaptDongCnt,kaptFax,kaptMarea,kaptMparea_135,kaptMparea_136,kaptMparea_60,kaptMparea_85,kaptName,kaptTarea,kaptTel,kaptTopFloor,kaptUrl,kaptUsedate,kaptdEcntp,kaptdaCnt,ktownFlrNo,privArea,zipcode,전기사용금액,가스사용금액,난방사용금액,전기사용량,가스사용량,난방사용량,냉수사용량,온수사용량,냉수사용금액,온수사용금액,집계날짜,cleaned_address,lat,lon
1114016200,아파트,복도식,개별난방,위탁관리,임대,서울 중구 왕십리로39길 30,115.0,주)한진중공업,서울특별시 중구 신당동 845- 한진그랑빌,0.0,주)한진중공업,A10021020,1,0222533602,5091.05,0.0,0.0,115.0,0.0,한진그랑빌,5091.05,0222533601,1, ,20010618.0,,115.0,,,,0,0,0,0,0,0,0,0,0,0,202401,서울특별시 중구 신당동 845-,37.5637098514331,127.025708469371
1114013600,,복도식,중앙난방,위탁관리,분양,서울특별시 중구 퇴계로46길 26,282.0,파빌리온충무로피에프브이(주),서울특별시 중구 묵정동 35- 힐스테이트 남산,3.0,현대건설(주),A10022761,2,0222799333,15920.03,0.0,0.0,282.0,0.0,힐스테이트 남산,32569.34,0222799332,9, ,20240129.0,6.0,282.0,9.0,11058.39,4619.0,0,0,0,0,0,0,0,0,0,0,202401,서울특별시 중구 묵정동 35-,37.5616472044826,126.999403300614
1114015600,아파트,복도식,개별난방,위탁관리,혼합,서울특별시 중구 을지로15길 32,608.0,더센터시티 주식회사,서울특별시 중구 입정동 2-4 힐스테이트세운센트럴2단지,8.0,현대엔지니어링(주),A10023343,1,0222750302,45637.1695,0.0,0.0,608.0,0.0,힐스테이트세운센트럴2단지,77378.628,0222750301,27, ,20230307.0,6.0,608.0,27.0,29212.43,4544.0,43434260,0,0,123429,0,0,5273,0,7629130,0,202401,서울특별시 중구 입정동 2-4,37.5681000086275,126.994413610574
1114013400,아파트,복도식,개별난방,위탁관리,혼합,서울특별시 중구 마른내로 79,614.0,한호건설(주),서울특별시 중구 인현동2가 240- 세운푸르지오헤리시티,9.0,대우건설(주),A10023352,1,0222756341,18236.2114,0.0,0.0,614.0,0.0,세운푸르지오헤리시티,51129.0,0222756340,26, ,20230116.0,3.0,614.0,26.0,18236.2114,4548.0,29330100,0,0,164140,0,0,5037,0,4527470,0,202401,서울특별시 중구 인현동2,37.5645661166031,126.996645245993
1114015600,아파트,복도식,,위탁관리,혼합,서울특별시 중구 을지로15길 32,414.0,우리자산신탁(주),서울특별시 중구 입정동 189-1 힐스테이트세운센트럴1단지,8.0,(주)현대엔지니어링,A10023356,1,0222731982,20147.652,0.0,0.0,414.0,0.0,힐스테이트세운센트럴1단지,52810.0,0222731981,27, ,20230224.0,4.0,414.0,27.0,20145.78,4544.0,26760514,0,0,84514,0,0,3369,0,5011090,0,202401,서울특별시 중구 입정동 189-1,37.5681000086275,126.994413610574
1114016200,,복도식,개별난방,위탁관리,분양,서울특별시 중구 동호로7길 14,153.0,약수시장재개발협동조합,서울특별시 중구 신당동 367-15 약수역 더시티,0.0,(주)일군토건,A10023488,1,0222330169,6204.06,0.0,0.0,153.0,0.0,약수역 더시티,8844.64,0222330168,11, ,20210326.0,3.0,153.0,11.0,2898.12,4597.0,29204720,0,0,129416,0,0,4032,0,4613800,0,202401,서울특별시 중구 신당동 367-15,37.5532054555858,127.010718554062
1114016700,,혼합식,중앙난방,위탁관리,분양,서울특별시 중구 정동길 21-31,98.0,한솔건설,서울특별시 중구 정동 15-6 정동상림원아파트,3.0,경향신문사,A10023548,3, ,24982.4,34.0,64.0,0.0,0.0,정동상림원아파트,29334.45,027733477,13, ,20080925.0,,98.0,13.0,15111.34,4518.0,0,0,0,0,0,0,0,0,0,0,202401,서울특별시 중구 정동 15-6,37.5684369679003,126.970970407937
1114017100,도시형 생활주택(아파트),복도식,개별난방,위탁관리,임대,서울특별시 중구 중림로 21,277.0,(주)대륙지에스,서울특별시 중구 중림동 1154- 더플레이스충정로,2.0,(주)cj건설,A10023788,1, ,7345.82,0.0,0.0,276.0,0.0,더플레이스충정로,11168.47,023134270,7,www.theplacecjr.com,20120524.0,3.0,276.0,7.0,5040.34,4506.0,12002640,0,0,0,0,0,0,0,0,0,202401,서울특별시 중구 중림동 1154-,37.558980785321,126.966068233101
1114015400,도시형 생활주택(주상복합),복도식,개별난방,자치관리,분양,서울특별시 중구 동호로33길 15,157.0,케이비부동산신탁,서울특별시 중구 오장동 145-1 오렌지카운티 을지로,3.0,(주)오렌지이앤씨,A10024327,1,0222697558,4343.28,0.0,0.0,157.0,0.0,오렌지카운티 을지로,10093.27,07047057558,15, ,20200820.0,1.0,157.0,15.0,2341.12,4547.0,4969900,0,0,14886,0,0,575,0,766350,0,202401,서울특별시 중구 오장동 145-1,37.5652276672427,127.001411116707
1114016700,도시형 생활주택(아파트),복도식,개별난방,위탁관리,분양,서울특별시 중구 서소문로 89-20,168.0,(주)수경하우징,서울특별시 중구 정동 37- 삼정아트테라스정동,5.0,삼정기업,A10024359,1,027799115,5500.6094,0.0,0.0,168.0,0.0,삼정아트테라스정동,9775.1836,027799114,9, ,20201221.0,2.0,168.0,9.0,3670.401,4516.0,6954980,0,0,43952,0,0,0,0,0,0,202401,서울특별시 중구 정동 37-,37.5632510909133,126.972031493823
1114016800,아파트,계단식,,위탁관리,분양,서울특별시 중구 칠패로 27,137.0,정은스카이,서울특별시 중구 순화동 151- 순화동포스코더샵,0.0,포스코건설,A10024756,2,0200000000,21018.86,0.0,0.0,21.0,116.0,순화동포스코더샵,21019.0,0237898791,1, ,20070525.0,,137.0,27.0,10627.7,4511.0,0,0,0,0,0,0,0,0,0,0,202401,서울특별시 중구 순화동 151-,37.5602669008102,126.972035325682
1114016500,주상복합,혼합식,,위탁관리,분양,서울특별시 중구 난계로11길 30,1.0,한국토지신탁,서울특별시 중구 황학동 882- 황학코아루,3.0,우남건설,A10024801,3,0222544259,110.36,2.0,13.0,0.0,97.0,황학코아루,24468.11,0222544254,20, ,20101029.0,5.0,112.0,20.0,10404.38,4575.0,0,0,0,0,0,0,0,0,0,0,202401,서울특별시 중구 황학동 882-,37.5667434438878,127.022477811529
1114013300,도시형 생활주택(주상복합),복도식,개별난방,자치관리,분양,서울특별시 중구 퇴계로49길 14,171.0,대우조선해양건설,서울특별시 중구 충무로5가 36-2 충무로엘크루메트로시티2,5.0,대우조선해양건설,A10025223,1,0222614507,9898.24,0.0,0.0,171.0,0.0,충무로엘크루메트로시티2,22952.06,0222614506,20, ,20160610.0,3.0,171.0,20.0,4377.03,4559.0,8399412,0,0,25037,0,0,885,0,1403290,0,202401,서울특별시 중구 충무로5,37.5633945987251,126.999994227546
1114016200,아파트,계단식,개별난방,위탁관리,분양,서울특별시 중구 난계로 130,176.0,신당제11구역주택재개발정비사업주합,서울특별시 중구 신당동 856- 신당KCC스위첸아파트,3.0,kcc건설,A10025372,3,0222567503,24387.7613,0.0,0.0,75.0,101.0,신당KCC스위첸아파트,24241.0846,0222567502,16, ,20190605.0,7.0,176.0,16.0,11874.22,4581.0,14885391,0,0,0,0,0,0,0,2826150,0,202401,서울특별시 중구 신당동 856-,37.5633422415693,127.024451759871
1114016200,아파트,혼합식,개별난방,위탁관리,임대,서울특별시 중구 왕십리로 407,718.0,(주)하나스테이제1호위탁관리부동산투자회사,서울특별시 중구 신당동 171- 신당 파인힐 하나유보라,3.0,반도건설,A10025456,6,0222567294,33673.0677,0.0,0.0,718.0,0.0,신당 파인힐 하나유보라,66745.476,0222567293,20, ,20190607.0,0.0,718.0,20.0,20799.1811,4580.0,28359375,222420,0,114440,0,0,5390,0,7042650,0,202401,서울특별시 중구 신당동 171-,37.5647799977176,127.024709957671
1114017400,아파트,계단식,개별난방,위탁관리,분양,서울특별시 중구 만리재로 177,199.0,만리제1주택재개발 정비사업조합,서울특별시 중구 만리동2가 288- 서울역한라비발디센트럴아파트,2.0,(주)한라건설,A10026517,4,0231471198,21339.6286,2.0,0.0,0.0,197.0,서울역한라비발디센트럴아파트,32552.0,0231471199,14, ,20180116.0,0.0,199.0,14.0,16178.62,4501.0,19885484,0,0,65245,0,0,3041,0,3562710,0,202401,서울특별시 중구 만리동2,37.5545735828657,126.965847056196
1114013600,아파트,복도식,개별난방,자치관리,분양,서울특별시 중구 서애로1길 34,122.0,묵정아파트 주택조합,서울특별시 중구 묵정동 11-67 묵정아파트,0.0,라이프주택,A10026849,1,0222723129,6968.8,1.0,0.0,121.0,0.0,묵정아파트,7354.0,0222722129,10, ,19810525.0,,122.0,10.0,6455.11,4620.0,0,0,0,0,0,0,0,0,0,0,202401,서울특별시 중구 묵정동 11-67,37.5607074663453,127.000060665185
1114017400,아파트,혼합식,개별난방,위탁관리,혼합,서울특별시 중구 만리재로 175,1341.0,만리제2지구재개발 정비사업주택조합,서울특별시 중구 만리동2가 273- 서울역센트럴자이아파트,5.0,GS건설주식회사,A10026881,14,023629952,125964.2864,19.0,0.0,641.0,681.0,서울역센트럴자이아파트,186288.0,023629951,25,http://sscxi.xisnd.co.kr/,20170807.0,31.0,1341.0,25.0,91296.81,4500.0,96145979,294510,0,361726,0,0,22009,0,22992870,0,202401,서울특별시 중구 만리동2,37.5547908528642,126.964454371144
1114016800,아파트,복도식,개별난방,위탁관리,분양,서울특별시 중구 서소문로9길 28,296.0,순화 제1-1구역 도시환경정비사업조합,서울특별시 중구 순화동 217- 덕수궁롯데캐슬아파트,5.0,롯데건설,A10027364,2,027798435,30995.4968,56.0,0.0,88.0,152.0,덕수궁롯데캐슬아파트,76502.0,027798434,22, ,20160831.0,6.0,296.0,22.0,22997.2296,4516.0,24914709,0,0,76300,0,0,3207,0,3766853,0,202401,서울특별시 중구 순화동 217-,37.5637084894676,126.970042986983
1114013400,주상복합,복도식,개별난방,자치관리,분양,서울특별시 중구 마른내로 72,180.0,오래되서 모름,서울특별시 중구 인현동2가 192-30 인현신성,5.0,오래되서 모름,A10028201,1,0222687087,10573.74,22.0,2.0,134.0,22.0,인현신성,10808.8,0222677087,10,인현동신성.apti.co.kr,19680530.0,2.0,180.0,10.0,10573.7,4558.0,9161100,0,0,49377,0,0,0,0,0,0,202401,서울특별시 중구 인현동2,37.563546252348,126.995814962096
1114016500,아파트,복도식,개별난방,위탁관리,임대,서울특별시 중구 청계천로 400,336.0,황학구역주택재개발조합,서울특별시 중구 황학동 2545- SH황학롯데캐슬베네치아,0.0,롯데건설,A10044001,1,0220486115,25734.24,0.0,0.0,336.0,0.0,SH황학롯데캐슬베네치아,25734.98,0220486114,33,happy.i-sh.co.kr/main.do?deptid=70216,20081222.0,3.0,336.0,33.0,11296.32,4572.0,13870437,0,0,69227,0,0,3600,0,4007940,0,202401,서울특별시 중구 황학동 2545-,37.5708105464699,127.021463886656
1114016500,아파트,복도식,개별난방,위탁관리,분양,서울특별시 중구 청계천로 400,1534.0,황학주택재개발조합,서울특별시 중구 황학동 2545- 롯데캐슬베네치아,0.0,롯데건설,A10044002,5,0220486101,168908.64,266.0,0.0,478.0,790.0,롯데캐슬베네치아,382536.05,0220486100,33,www.clcv.co.kr,20081222.0,20.0,1534.0,33.0,126299.82,4572.0,139788757,0,0,710294,0,0,24135,0,24898040,0,202401,서울특별시 중구 황학동 2545-,37.5708105464699,127.021463886656
1114016200,아파트,계단식,개별난방,위탁관리,분양,서울특별시 중구 다산로36길 110,461.0,신당동 동화주택 주택재개발조합,서울특별시 중구 신당동 850- 신당푸르지오,3.0,대우건설(주),A10045001,9,0222541021,54649.09,81.0,74.0,40.0,266.0,신당푸르지오,83067.67,0222541020,23, ,20051228.0,12.0,461.0,23.0,44882.36,4587.0,40803150,0,0,142241,0,0,7995,0,9002160,0,202401,서울특별시 중구 신당동 850-,37.5598646712461,127.019034279491
1114016200,아파트,계단식,개별난방,위탁관리,분양,서울특별시 중구 청구로 64,737.0,신당 제7주택재개발아파트,서울특별시 중구 신당동 852- 청구e편한세상(분양),3.0,대림산업,A10045002,13,0222365535,86467.46,150.0,29.0,93.0,465.0,청구e편한세상(분양),118197.0,0222368877,15, ,20111213.0,33.0,737.0,15.0,67127.0,4587.0,72347948,0,0,264217,0,0,14004,0,16549530,0,202401,서울특별시 중구 신당동 852-,37.5599601596254,127.015451019186
1114016200,아파트,복도식,개별난방,위탁관리(직영+위탁),임대,서울특별시 중구 다산로 32,2034.0,sh공사,서울특별시 중구 신당동 844- 신당남산타운임대,0.0,동아건설,A10045301,7,0222560039,121031.136,0.0,0.0,2034.0,0.0,신당남산타운임대,121031.0,0222560037,18,happy.i-sh.co.kr/main.do?deptid=70154,20020525.0,24.0,2034.0,18.0,66633.84,4595.0,60740360,0,0,387577,0,0,22087,0,21305020,0,202401,서울특별시 중구 신당동 844-,37.5471505540187,127.005706247221
1114016200,아파트,혼합식,개별난방,위탁관리,분양,서울특별시 중구 다산로 32,3116.0,신당3구역 주택재개발 사업조함,서울특별시 중구 신당동 844- 신당남산타운(분양),3.0,현대건설.SK건설.동아건설,A10045302,35,0222318724,271522.2246,954.0,0.0,864.0,1298.0,신당남산타운(분양),432345.0,0222337500,18,남산타운.apti.co.kr,20020525.0,74.0,3116.0,18.0,271557.92,4595.0,204334020,1182740,0,865039,0,0,47317,0,53721690,0,202401,서울특별시 중구 신당동 844-,37.5471505540187,127.005706247221
1114016200,아파트,복도식,개별난방+기타,위탁관리,임대,서울특별시 중구 청구로1길 23,440.0,삼성물산,서울특별시 중구 신당동 843- 신당삼성임대,3.0,삼성물산,A10045401,3,0222524954,25405.6,0.0,0.0,440.0,0.0,신당삼성임대,25405.6,0222524953,21,happy.i-sh.co.kr/main.do?deptid=70147,19991222.0,6.0,440.0,21.0,14137.2,4588.0,11808758,179110,0,75026,0,0,4929,0,4397000,0,202401,서울특별시 중구 신당동 843-,37.5585358838305,127.01844745293
1114016200,아파트,복도식,개별난방,위탁관리,임대,서울특별시 중구 동호로10길 30,684.0,동아건설,서울특별시 중구 신당동 842- 약수하이츠아파트(임대),0.0,동아건설,A10045402,3,0222520453,35376.48,0.0,0.0,684.0,0.0,약수하이츠아파트(임대),35380.0,0222520452,18,www.i-sh.co.kr/apthomepage/MB01_main.jsp?deptid=70140,19990729.0,8.0,684.0,18.0,22346.28,4593.0,15785220,236640,0,113126,0,0,12439,0,0,0,202401,서울특별시 중구 신당동 842-,37.5551915990934,127.016359379417
1114016200,아파트,혼합식,개별난방,위탁관리,분양,서울특별시 중구 청구로1길 23,994.0,삼성물산,서울특별시 중구 신당동 843- 신당삼성(분양),5.0,삼성물산,A10045403,14,0222368497,107778.488,286.0,0.0,300.0,408.0,신당삼성(분양),147199.35,0222368496,23, ,19991222.0,25.0,994.0,23.0,85520.5,4588.0,64101243,0,0,288709,0,0,16945,0,22828930,0,202401,서울특별시 중구 신당동 843-,37.5585358838305,127.01844745293
1114016200,아파트,혼합식,개별난방,위탁관리,분양,서울특별시 중구 동호로10길 30,1598.0,동아건설(주),서울특별시 중구 신당동 842- 신당약수하이츠,3.0,동아건설(주),A10045404,16,0222543093,168217.86,358.0,0.0,488.0,752.0,신당약수하이츠,207783.22,0222543092,20, ,19990729.0,36.0,1598.0,20.0,129660.8,4593.0,87177425,0,0,428709,0,0,23005,0,38105080,0,202401,서울특별시 중구 신당동 842-,37.5551915990934,127.016359379417
1114016200,아파트,혼합식,개별난방,위탁관리,분양,서울특별시 중구 다산로36길 109,942.0,신당제1구역 재개발조합,서울특별시 중구 신당동 840- 신당현대,0.0,현대건설(주),A10045601,10,0222373853,114161.61,240.0,120.0,0.0,582.0,신당현대,114187.8,0222350993,15,www.sdhdapt.com,19930917.0,20.0,942.0,15.0,91135.17,4582.0,57758886,0,0,283950,0,0,0,0,750835,0,202401,서울특별시 중구 신당동 840-,37.5605041293678,127.022970424804
1114013200,아파트,복도식,개별난방,위탁관리,분양,서울특별시 중구 퇴계로 235,273.0,휴먼넥스(주),서울특별시 중구 충무로4가 306- 남산센트럴자이,7.0,GS건설(주),A10071301,2,0222640040,62046.9,111.0,102.0,0.0,60.0,남산센트럴자이,62049.401,0222640070,32, ,20091221.0,6.0,273.0,32.0,31863.915,4558.0,39983556,0,667760,105526,0,0,4426,0,4981460,0,202401,서울특별시 중구 충무로4,37.562514395202,126.997824376224
1114012200,주상복합,계단식,개별난방,위탁관리,분양,서울특별시 중구 소공로 46,236.0,(주)해창,서울특별시 중구 회현동2가 87- 쌍용남산플래티넘,7.0,쌍용건설(주),A10072501,2,023180286,46796.6906,0.0,236.0,0.0,0.0,쌍용남산플래티넘,74074.85,023180285,33, ,20100805.0,3.0,236.0,33.0,38196.84,4631.0,43552035,0,0,114349,0,0,4091,0,5612890,0,202401,서울특별시 중구 회현동2,37.5594079371846,126.983218671611
1114016200,아파트,혼합식,개별난방,위탁관리,분양,서울특별시 중구 다산로42나길 46,132.0,파라다이스건설,서울특별시 중구 신당동 846- 파라다이스,0.0,파라다이스건설,A10078102,1,0222321370,12852.888,0.0,0.0,42.0,90.0,파라다이스,16117.0,0222321233,15, ,20000710.0,4.0,132.0,15.0,10147.26,4585.0,8210210,0,17380,10136,0,0,169,0,2653250,0,202401,서울특별시 중구 신당동 846-,37.5624238591992,127.017298689385
1114016200,아파트,복도식,개별난방,위탁관리,임대,서울특별시 중구 청구로 64,158.0,신당제7주택재개발정비사업조합,서울특별시 중구 신당동 852-1 청구e편한세상임대,2.0,대림산업주식회사,A10078103,2,0222566995,8693.88,0.0,0.0,158.0,0.0,청구e편한세상임대,12845.64,0222566994,15, ,20111213.0,2.0,158.0,15.0,5656.02,4587.0,6087580,0,105420,39168,0,0,2393,0,2708300,0,202401,서울특별시 중구 신당동 852-1,37.5599601596254,127.015451019186
1114016200,아파트,계단식,개별난방,위탁관리,분양,서울특별시 중구 퇴계로90길 74,784.0,6개발구역조합,서울특별시 중구 신당동 851- 래미안신당하이베르,6.0,(주)삼성물산,A10078901,15,0222317751,82752.6,146.0,0.0,302.0,336.0,래미안신당하이베르,125318.12,0222317402,15,래미안하이베르.apti.co.kr/,20111028.0,30.0,784.0,15.0,63696.59,4582.0,76686287,0,0,263911,0,0,12983,0,13388410,0,202401,서울특별시 중구 신당동 851-,37.5610379790132,127.020985832433
1114016200,아파트,복도식,개별난방,위탁관리,임대,서울특별시 중구 퇴계로90길 74,161.0,신당제6주택 재개발 정비사업조합,서울특별시 중구 신당동 851-1 래미안신당하이베르임대,2.0,삼성물산(주),A10078902,1,0222566909,9148.02,0.0,0.0,161.0,0.0,래미안신당하이베르임대,14694.44,0222566908,15, ,20111028.0,2.0,161.0,15.0,6043.94,4582.0,5145010,0,0,36456,0,0,2321,0,2426640,0,202401,서울특별시 중구 신당동 851-1,37.5610379790132,127.020985832433
1114017300,아파트,계단식,개별난방,위탁관리,분양,서울특별시 중구 만리재로33길 21,181.0,LIG건설(주),서울특별시 중구 만리동1가 231- 엘아이지서울역리가,2.0,LIG건설(주),A10080701,4,023629294,20210.97,0.0,0.0,0.0,181.0,엘아이지서울역리가,29999.58,023629293,15, ,20120131.0,7.0,181.0,15.0,15380.3367,4501.0,16695330,0,0,59764,0,0,3228,0,2943062,0,202401,서울특별시 중구 만리동1,37.5562729792512,126.966882959987
1114017100,아파트,복도식,개별난방,위탁관리,임대,서울특별시 중구 중림로4길 41,355.0,충정1-3지구 재개발조합,서울특별시 중구 중림동 201- 중림삼성래미안아파트,3.0,삼성물산(주),A10085902,2,023633706,11214.379,0.0,0.0,355.0,0.0,중림삼성래미안아파트,23896.09,023623041,18,www.i-sh.co.kr,20010711.0,4.0,355.0,18.0,11214.45,4502.0,11846050,0,0,65076,0,0,3222,0,2408230,0,202401,서울특별시 중구 중림동 201-,37.5570690448489,126.964821110374
1114017100,아파트,계단식,개별난방,위탁관리,분양,서울특별시 중구 중림로 10,712.0,충정1-3지구 주택재개발조합,서울특별시 중구 중림동 200- 중림삼성사이버빌리지,2.0,삼성물산,A10085903,12,023931384,64407.0,198.0,0.0,180.0,334.0,중림삼성사이버빌리지,101913.508,023921305,18,www.uasis.com,20010711.0,18.0,712.0,18.0,61802.75,4502.0,42272560,127880,0,198527,0,0,12200,0,14437400,0,202401,서울특별시 중구 중림동 200-,37.5589266608979,126.964320892997
1114013200,주상복합,복도식,개별난방,자치관리,분양,서울특별시 중구 퇴계로 217,288.0,알수 없음,서울특별시 중구 충무로4가 120-3 충무로진양,1.0,알수 없음,A10086301,2,0222795305,32476.18,118.0,3.0,0.0,165.0,충무로진양,32476.18,0222795300,16, ,19700523.0,3.0,286.0,16.0,24702.49,4558.0,18667320,0,0,107703,0,0,3680,0,3509510,0,202401,서울특별시 중구 충무로4,37.5624227137843,126.995931151636
1114016500,주상복합,계단식,개별난방,위탁관리,분양,서울특별시 중구 퇴계로 447,263.0,즐거운나라,서울특별시 중구 황학동 2523- 황학아크로타워,0.0,대림산업,A10086801,3,0222343582,28032.0,142.0,15.0,0.0,106.0,황학아크로타워,55192.62,0222343581,20, ,20100331.0,6.0,263.0,20.0,28079.999,4575.0,37420875,0,0,108642,0,0,4654,0,5123520,0,202401,서울특별시 중구 황학동 2523-,37.5660419798503,127.021721835241
1114012100,주상복합,계단식,개별난방,위탁관리,분양,서울특별시 중구 퇴계로 72,233.0,마커스홀딩스,서울특별시 중구 회현동1가 206- 남산SK리더스뷰,7.0,SK건설,A10088101,2,0263298522,45521.02,49.0,184.0,0.0,0.0,남산SK리더스뷰,71341.93,0264018522,30, ,20100111.0,6.0,233.0,30.0,36856.07,4632.0,43599085,198000,0,115939,0,0,0,0,0,0,202401,서울특별시 중구 회현동1,37.5591253443035,126.980603849217
1114012100,주상복합,복도식,중앙난방,위탁관리,분양,서울특별시 중구 소공로 35,386.0,군인공제회,서울특별시 중구 회현동1가 208- 남산롯데캐슬아이리스,7.0,(주)롯데건설,A10088102,2,0237897785,46271.02,216.0,89.0,81.0,0.0,남산롯데캐슬아이리스,99538.88,023884114,32, ,20111118.0,10.0,386.0,32.0,46271.02,4632.0,60990940,0,43577190,144306,0,55161,5163,2076,6244470,11382000,202401,서울특별시 중구 회현동1,37.5582247092319,126.981744459746
1114017100,아파트,복도식,,위탁관리,분양,서울 중구 청파로 464,110.0,이수건설,서울특별시 중구 중림동 355- 브라운스톤서울아파트,7.0,이수건설,A10095301,1,0262618289,22463.66,55.0,28.0,0.0,27.0,브라운스톤서울아파트,22503.0,023128282,35, ,20060320.0,2.0,110.0,35.0,12529.232,,0,0,0,0,0,0,0,0,0,0,202401,서울특별시 중구 중림동 355-,37.5608187887289,126.968225883547
1114016300,주상복합,복도식,개별난방,위탁관리(직영+위탁),분양,서울특별시 중구 퇴계로75길 7,150.0,애경개발(주),서울특별시 중구 흥인동 119- 동대문와이즈캐슬,3.0,롯데건설(주),A10095501,1,0222567163,5133.98,0.0,0.0,150.0,0.0,동대문와이즈캐슬,10988.0,0222567161,15, ,20141023.0,2.0,150.0,15.0,2434.04,4569.0,3416414,0,0,22724,0,0,823,0,841060,0,202401,서울특별시 중구 흥인동 119-,37.5657536581952,127.015443726545
1114016300,주상복합,혼합식,개별난방,위탁관리,분양,서울특별시 중구 다산로46길 17,295.0,아시아신탁(주),서울특별시 중구 흥인동 13-1 청계천두산위브더제니스,6.0,두산중공업,A10095502,1,0222560090,40054.734,162.0,133.0,0.0,0.0,청계천두산위브더제니스,79632.2155,0222562345,36, ,20141222.0,0.0,295.0,36.0,40054.734,4570.0,50029210,475750,0,0,0,0,0,0,6906060,0,202401,서울특별시 중구 흥인동 13-1,37.5668675982177,127.017122913186
