bjdCode,codeAptNm,codeHallNm,codeHeatNm,codeMgrNm,codeSaleNm,address,hoCnt,kaptAcompany,kaptAddr,kaptBaseFloor,kaptBcompany,kaptCode,kaptDongCnt,kaptFax,kaptMarea,kaptMparea_135,kaptMparea_136,kaptMparea_60,kaptMparea_85,kaptName,kaptTarea,kaptTel,kaptTopFloor,kaptUrl,kaptUsedate,kaptdEcntp,kaptdaCnt,ktownFlrNo,privArea,zipcode,전기사용금액,가스사용금액,난방사용금액,전기사용량,가스사용량,난방사용량,냉수사용량,온수사용량,냉수사용금액,온수사용금액,집계날짜,cleaned_address,lat,lon
1126010500,아파트,계단식,개별난방,자치관리,분양,서울 중랑구 양원역로 37,250.0,경남건설,서울특별시 중랑구 망우동 226- 경남아파트,0.0,경남건설,A10020869,1, ,18478.7,60.0,0.0,0.0,190.0,경남아파트,19317.0,024345467,1, ,19890520.0,0.0,250.0,,,,0,0,0,0,0,0,0,0,0,0,202401,서울특별시 중랑구 망우동 226-,37.6038146854883,127.107071692641
1126010200,아파트,복도식,개별난방,자치관리,임대,서울 중랑구 면목로 490,135.0,정호기업주식회사,서울특별시 중랑구 상봉동 102-57 상봉타워,2.0,정호비앤씨건설,A10020884,1, ,3569.37,0.0,0.0,135.0,0.0,상봉타워,6634.862,024928849,1, ,20190508.0,2.0,135.0,,,,0,0,0,0,0,0,0,0,0,0,202401,서울특별시 중랑구 상봉동 102-57,37.5956441042638,127.086089016588
1126010400,주상복합,복도식,개별난방,위탁관리,분양,서울 중랑구 동일로 946,100.0,예화건설(주),서울특별시 중랑구 묵동 169-10 묵동신도브래뉴주상복합아파트,4.0,신도산업개발주식회사,A10020959,1,029723404,7406.0,0.0,0.0,0.0,100.0,묵동신도브래뉴주상복합아파트,16203.69,029723434,1,없음,20041012.0,1.0,100.0,,,,0,0,0,0,0,0,0,0,0,0,202401,서울특별시 중랑구 묵동 169-10,37.6150265366805,127.07698944928
1126010500,아파트,계단식,,자치관리,분양,서울 중랑구 망우로81길 27,233.0,금호건설,서울특별시 중랑구 망우동 178-80 염광아파트,1.0,염광건설,A10020968,11, ,13.0,0.0,0.0,131.0,102.0,염광아파트,19.0,024322334,5, ,19830325.0,,233.0,,,,0,0,0,0,0,0,0,0,0,0,202401,서울특별시 중랑구 망우동 178-80,37.6029156602567,127.10629365544
1126010300,아파트,계단식,개별난방,위탁관리,분양,서울 중랑구 중랑천로14길 34,118.0,대농연립주택조합,서울특별시 중랑구 중화동 454- 동양엔파트2차,2.0,동양엔파트,A10020974,2,024330065,13452.6,118.0,0.0,0.0,0.0,동양엔파트2차,19402.68,024330053,20, ,20130307.0,4.0,118.0,,,,0,0,0,0,0,0,0,0,0,0,202401,서울특별시 중랑구 중화동 454-,37.5942032909884,127.074346217752
1126010300,주상복합,혼합식,개별난방,위탁관리,분양,서울 중랑구 동일로129길 35,103.0,태능시장(주),서울특별시 중랑구 중화동 314-1 태능시장 주상복합빌딩,3.0,CNC종합건설(주),A10021393,1, ,11097.533,98.0,0.0,0.0,5.0,태능시장 주상복합빌딩,23825.0,024328641,1, ,20050328.0,4.0,103.0,,,,0,0,0,0,0,0,0,0,0,0,202401,서울특별시 중랑구 중화동 314-1,37.5992703826018,127.077554696692
1126010100,아파트,계단식,개별난방,위탁관리,분양,서울 중랑구 동일로 557,111.0,신우건설,서울특별시 중랑구 면목동 1518- 면목신우아파트,3.0,신우건설,A10021752,1, ,10467.78,57.0,0.0,0.0,54.0,면목신우아파트,15519.0,024345466,1, ,19980530.0,,111.0,,,,0,0,0,0,0,0,0,0,0,0,202401,서울특별시 중랑구 면목동 1518-,37.5801402021885,127.079248746063
1126010500,아파트,계단식,,위탁관리,분양,서울 중랑구 용마산로115길 109,146.0,아주산업(주),서울특별시 중랑구 망우동 495- 한일써너스빌리젠시2단지,5.0,한일건설(주),A10021760,1,0222070047,16919.86,146.0,0.0,0.0,0.0,한일써너스빌리젠시2단지,43503.0,0222070040,27, ,20080401.0,1.0,146.0,,,,0,0,0,0,0,0,0,0,0,0,202401,서울특별시 중랑구 망우동 495-,37.5974663223384,127.094160266661
1126010500,아파트,혼합식,개별난방,위탁관리,분양,서울 중랑구 용마산로116길 76,105.0,청광종합건설(주),서울특별시 중랑구 망우동 575- 망우동청광오뜨빌아파트,1.0,청광종합건설(주),A10021794,1, ,9871.951,70.0,0.0,0.0,35.0,망우동청광오뜨빌아파트,,024345059,15, ,20011218.0,0.0,105.0,,,,0,0,0,0,0,0,0,0,0,0,202401,서울특별시 중랑구 망우동 575-,37.5995814298586,127.104811467931
1126010100,도시형 생활주택(아파트),복도식,개별난방,자치관리,분양,서울 중랑구 동일로109가길 5,149.0,(주)엠디플러스,서울특별시 중랑구 면목동 1535- 현대휴온아파트,1.0,현대아산(주),A10021891,1,024340334,6449.8,0.0,0.0,141.0,8.0,현대휴온아파트,6449.8,07045434200,1, ,20130329.0,0.0,149.0,,,,0,0,0,0,0,0,0,0,0,0,202401,서울특별시 중랑구 면목동 1535-,37.5922400860881,127.078706865845
1126010200,,복도식,개별난방,위탁관리,임대,서울 중랑구 망우로 266,299.0,하나,서울특별시 중랑구 상봉동 118-8 상봉 동양엔파트,4.0,(주)동양,A10022528,1, ,15068.2775,0.0,0.0,224.0,75.0,상봉 동양엔파트,17350.0,0222083331,20, ,20240617.0,0.0,299.0,,,,0,0,0,0,0,0,0,0,0,0,202401,서울특별시 중랑구 상봉동 118-8,37.595155324396,127.082159140005
1126010400,아파트,계단식,개별난방,위탁관리,분양,서울특별시 중랑구 동일로 942,80.0,BYC건설,서울특별시 중랑구 묵동 169-11 묵동위더스빌 주상복합,3.0,BYC건설,A10022599,1,0260130179,13147.986,14.0,0.0,0.0,66.0,묵동위더스빌 주상복합,19109.22,029481113,20, ,20100630.0,4.0,80.0,20.0,7102.28,2033.0,0,0,0,0,0,0,0,0,0,0,202401,서울특별시 중랑구 묵동 169-11,37.6146708296243,127.077122619657
1126010200,도시형 생활주택(아파트),복도식,개별난방,자치관리,임대,서울특별시 중랑구 망우로50길 24,238.0,주식회사 조은집,서울특별시 중랑구 상봉동 90-3 봄작시티 24,3.0,주식회사 주함건설,A10022775,1, ,4246.6,0.0,0.0,238.0,0.0,봄작시티 24,12977.0,024356888,20, ,20230705.0,3.0,238.0,20.0,4246.6,2149.0,0,0,0,0,0,0,0,0,0,0,202401,서울특별시 중랑구 상봉동 90-3,37.5959888312639,127.088874421113
1126010600,도시형 생활주택(아파트),,,,임대,서울특별시 중랑구 신내역로1길 142,, ,서울특별시 중랑구 신내동 826- 우디안3단지,, ,A10022836,1, ,,0.0,0.0,50.0,0.0,우디안3단지,,0234233603,1, ,20170904.0,0.0,50.0,5.0,1488.88,2263.0,0,0,0,0,0,0,0,0,0,0,202401,서울특별시 중랑구 신내동 826-,37.6176622027121,127.11035297222
1126010500,아파트,계단식,지역난방,위탁관리,임대,서울특별시 중랑구 용마산로 670,495.0,(주)시티해양건설,서울특별시 중랑구 망우동 584- 신내역 시티프라디움 아파트,4.0,(주)시티건설 (주)시티종합건설,A10022919,4, ,56333.9841,0.0,0.0,0.0,495.0,신내역 시티프라디움 아파트,86297.6953,024338897,40,sscp.aptstory.com,20231120.0,10.0,495.0,40.0,42032.7882,2057.0,29455150,0,42582780,101501,0,443,5719,2532,6572460,11674020,202401,서울특별시 중랑구 망우동 584-,37.6119441454331,127.102489000658
1126010400,아파트,계단식,개별난방,위탁관리,혼합,서울특별시 중랑구 중랑천로 316,141.0,현대해상화재보험,서울특별시 중랑구 묵동 392- 묵동월드메르디앙,1.0,월드건설,A10023285,4,029733001,14434.57,0.0,0.0,1.0,140.0,묵동월드메르디앙,17656.57,029733001,12, ,20090319.0,7.0,141.0,12.0,11753.31,2004.0,0,0,0,0,0,0,2539,0,0,0,202401,서울특별시 중랑구 묵동 392-,37.6132804037442,127.073338722026
1126010100,아파트,혼합식,개별난방,위탁관리,혼합,서울특별시 중랑구 용마산로84길 9-16,243.0,조합,서울특별시 중랑구 면목동 1549- 용마산모아엘가파크포레,2.0,혜림건설,A10023384,5,0222099041,22781.94,0.0,0.0,85.0,158.0,용마산모아엘가파크포레,33806.58,0222099040,15, ,20230127.0,10.0,243.0,15.0,18179.89,2193.0,21728120,0,0,0,0,0,3377,0,3892290,0,202401,서울특별시 중랑구 면목동 1549-,37.5855423107625,127.095747744909
1126010100,아파트,복도식,개별난방,자치관리,분양,서울특별시 중랑구 사가정로41길 9,122.0,두산,서울특별시 중랑구 면목동 1500- 면목1차두산아파트,1.0,두산,A10023606,1,024372661,11102.84,0.0,0.0,70.0,52.0,면목1차두산아파트,11102.84,024372660,15, ,19930201.0,2.0,122.0,15.0,8596.44,2227.0,0,0,0,0,0,0,0,0,0,0,202401,서울특별시 중랑구 면목동 1500-,37.5816522208885,127.083981519364
1126010400,도시형 생활주택(주상복합),복도식,개별난방+기타,위탁관리,임대,서울특별시 중랑구 동일로 952,249.0,(주)지영사,서울특별시 중랑구 묵동 169-12 로프트원 태릉입구역,4.0,파인건설(주),A10023815,1,029728487,11241.13,0.0,0.0,249.0,0.0,로프트원 태릉입구역,16260.56,029728486,15, ,20200108.0,2.0,249.0,15.0,3716.34,2033.0,7440130,0,3422070,23607,0,21740,1074,479,1241460,2155500,202401,서울특별시 중랑구 묵동 169-12,37.6153331239502,127.076880465585
1126010500,아파트,복도식,지역난방,위탁관리,임대,서울특별시 중랑구 양원역로 92,1216.0,한국토지주택공사,서울특별시 중랑구 망우동 608- LH서울양원1단지,1.0,대보건설,A10023816,4,024340511,72038.864,0.0,0.0,1216.0,0.0,LH서울양원1단지,72038.864,07044966201,25,양원1단지apti.co.kr/,20220124.0,20.0,1216.0,25.0,32932.68,2264.0,21900890,0,12526200,207961,0,170,8638,3705,7399480,18339750,202401,서울특별시 중랑구 망우동 608-,37.6085925751363,127.10623808512
1126010400,도시형 생활주택(아파트),복도식,개별난방,위탁관리,임대,서울특별시 중랑구 공릉로2길 8-4,235.0,더블라썸묵동,서울특별시 중랑구 묵동 176-39 칼튼테라스,5.0,파인건설,A10023834,1,029785558,13682.4025,0.0,0.0,235.0,0.0,칼튼테라스,17339.9386,029785557,15, ,20211101.0,0.0,235.0,15.0,5051.5845,2037.0,6041700,0,0,27529,0,0,1351,0,1585030,0,202401,서울특별시 중랑구 묵동 176-39,37.6118425179795,127.078245490703
1126010100,도시형 생활주택(주상복합),복도식,개별난방,위탁관리,분양,서울특별시 중랑구 면목로69길 16,157.0,덕우홈스텔,서울특별시 중랑구 면목동 538- 중랑지웰에스테이트,2.0,신영건설,A10023835,2,024364300,2296.3134,0.0,0.0,157.0,0.0,중랑지웰에스테이트,8475.51,024376400,8, ,20131015.0,4.0,157.0,8.0,2296.31,2219.0,9078160,0,0,56214,0,0,4668,0,4982140,0,202401,서울특별시 중랑구 면목동 538-,37.5872526201728,127.086344176161
1126010300,,복도식,개별난방,위탁관리,분양,서울 중랑구 중랑천로14길 58,144.0,범양,서울특별시 중랑구 중화동 208-4 범양프레체,3.0,한사랑농촌문화재단,A10023899,1, ,10625.04,0.0,0.0,144.0,0.0,범양프레체,10970.0,0222095666,15, ,20120911.0,2.0,144.0,15.0,2583.36,,0,0,0,0,0,0,0,0,0,0,202401,서울특별시 중랑구 중화동 208-4,37.5945315127732,127.075917984894
1126010500,아파트,계단식,지역난방,위탁관리,혼합,서울특별시 중랑구 양원역로10길 47,403.0,한국토지주택공사,서울특별시 중랑구 망우동 620- 중랑숲시티프라디움,0.0,"(주)시티건설, 삼부토건(주)",A10023952,4,024330967,30967.041,0.0,0.0,403.0,0.0,중랑숲시티프라디움,46187.84,024330965,29, ,20220107.0,11.0,403.0,29.0,21725.25,2264.0,29893238,0,24423960,118769,0,195,7134,2620,7628180,18272640,202401,서울특별시 중랑구 망우동 620-,37.6074344344934,127.108819150392
1126010500,아파트,계단식,지역난방,위탁관리,분양,서울특별시 중랑구 봉화산로 301,218.0,건강,서울특별시 중랑구 망우동 - 신내역 힐데스하임아파트,2.0,원건설,A10024008,3,0269510634,23679.5096,0.0,0.0,0.0,218.0,신내역 힐데스하임아파트,37807.8368,0269510633,25, ,20211008.0,6.0,218.0,25.0,18499.6675,2057.0,21348400,0,28663000,70912,2393,132,3829,1457,4135600,0,202401,서울특별시 중랑구 망우동 - 신내역 힐데스하임아파트,37.610012572607,127.104986588195
1126010500,아파트,계단식,지역난방,위탁관리,임대,서울특별시 중랑구 양원역로10길 75,331.0,(주)양원어울림대한제13호위탁관리부동산투자회사,서울특별시 중랑구 망우동 - 양원역 금호어울림포레스트아파트,2.0,금호건설,A10024018,4,024969608,33620.9327,0.0,0.0,0.0,331.0,양원역 금호어울림포레스트아파트,47410.5262,024969607,25,https://xn--jj0br3qmlbv0s5tdbgl1eof886h6vcyyi.apti.co.kr/aptHome/,20211130.0,9.0,331.0,25.0,25995.5825,2264.0,14750120,0,20957070,83149,0,205,4915,2069,5449920,12342000,202401,서울특별시 중랑구 망우동 - 양원역 금호어울림포레스트아파트,37.6074862318171,127.109608366526
1126010500,아파트,계단식,지역난방,위탁관리,분양,서울특별시 중랑구 용마산로136길 160,490.0,금강주택,서울특별시 중랑구 망우동 26- 신내역 금강펜테리움 센트럴파크아파트,2.0,금강주택,A10024214,5,024357344,53209.189,0.0,0.0,0.0,490.0,신내역 금강펜테리움 센트럴파크아파트,53209.189,024357343,25,snkkpenterium.com-main.apt,20210729.0,12.0,490.0,25.0,41379.674,2264.0,43017746,0,1493640,155967,0,338,9573,3829,10667560,68477800,202401,서울특별시 중랑구 망우동 26-,37.6098573400658,127.108856317366
1126010100,아파트,혼합식,개별난방,위탁관리,분양,서울특별시 중랑구 망우로26길 43,132.0,풍림건설,서울특별시 중랑구 면목동 1514- 면목풍림아파트,3.0,풍림건설,A10024366,1,0264528218,12507.12,0.0,0.0,96.0,36.0,면목풍림아파트,16128.0,024368218,20, ,19970123.0,,132.0,20.0,8749.44,2118.0,0,0,0,0,0,0,0,0,0,0,202401,서울특별시 중랑구 면목동 1514-,37.5912130601645,127.072200413223
1126010100,아파트,계단식,개별난방,위탁관리,분양,서울특별시 중랑구 용마산로 209,245.0,면목6구역재건건축정비사업조합,서울특별시 중랑구 면목동 1548- 쌍용더플래티넘용마산,4.0,쌍용건설,A10024443,5,024338773,23977.15,0.0,0.0,106.0,139.0,쌍용더플래티넘용마산,36654.0759,024338772,15,쌍용더플래티넘용마산.apti.co.kr,20201214.0,9.0,245.0,15.0,17513.4299,2255.0,25347188,0,0,83266,0,0,4390,0,5049220,0,202401,서울특별시 중랑구 면목동 1548-,37.5721214955079,127.085749618276
1126010100,아파트,계단식,개별난방,위탁관리,혼합,서울특별시 중랑구 동일로91길 23,453.0,면목5주택 재건축정비사업조합,서울특별시 중랑구 면목동 1544- 면목 라온 프라이빗 아파트,2.0,라온건설(주),A10024703,4,024355120,44421.7884,25.0,0.0,171.0,257.0,면목 라온 프라이빗 아파트,63364.0,024325120,30, ,20200630.0,0.0,453.0,30.0,33164.5,2234.0,37745031,0,0,198672,0,0,9304,0,8826990,0,202401,서울특별시 중랑구 면목동 1544-,37.5819476796567,127.078583268739
1126010100,아파트,혼합식,개별난방,위탁관리,혼합,서울특별시 중랑구 동일로92길 40,1505.0,면목3주택 재건축정비사업조합,서울특별시 중랑구 면목동 1545- 사가정 센트럴 아이파크 아파트,2.0,현대산업개발,A10024741,11,024359240,162602.353,87.0,0.0,378.0,1040.0,사가정 센트럴 아이파크 아파트,244759.145,024339240,30, ,20200730.0,1.0,1505.0,30.0,120893.69,2225.0,146305100,317420,0,531189,0,0,24771,0,28963560,0,202401,서울특별시 중랑구 면목동 1545-,37.5818929536315,127.080375944624
1126010600,아파트,복도식,지역난방,위탁관리(직영+위탁),임대,서울특별시 중랑구 신내로 208,229.0,서울주택도시공사,서울특별시 중랑구 신내동 640- 신내글로리움아파트,0.0,(주)옥토,A10025137,1,0234233770,14594.14,0.0,0.0,229.0,0.0,신내글로리움아파트,20759.73,07041463750,24, ,20191001.0,0.0,229.0,24.0,9058.08,2052.0,9505210,0,5544680,0,0,0,4168,0,4450220,7160840,202401,서울특별시 중랑구 신내동 640-,37.6170001495716,127.093117583409
1126010100,아파트,계단식,개별난방,위탁관리,혼합,서울특별시 중랑구 사가정로72길 26,497.0,면목1주택재건축정비사업조합,서울특별시 중랑구 면목동 520-19 한양수자인사가정파크아파트,2.0,(주)한양,A10025159,8,024959866,46966.2852,0.0,0.0,167.0,330.0,한양수자인사가정파크아파트,73098.1737,024969866,17, ,20191127.0,19.0,497.0,17.0,35186.68,2260.0,42455230,0,0,162195,0,0,8152,0,8930630,0,202401,서울특별시 중랑구 면목동 520-19,37.5800711747193,127.093430676323
1126010400,아파트,계단식,지역난방,위탁관리,임대,서울특별시 중랑구 신내로 277,86.0,서울주택도시공사,서울특별시 중랑구 묵동 7- 묵동리본타워,1.0,금호산업(주),A10025187,1,028738734,9505.23,0.0,0.0,59.0,27.0,묵동리본타워,11881.81,029738733,29, ,20130624.0,2.0,86.0,29.0,5832.53,2021.0,0,0,0,0,0,0,0,0,0,0,202401,서울특별시 중랑구 묵동 7-,37.6190336864781,127.086231060231
1126010600,아파트,복도식,개별난방,위탁관리,임대,서울특별시 중랑구 신내역로 160,289.0,서울주택도시공사,서울특별시 중랑구 신내동 831- 신내우디안4단지 아파트,1.0,한일건설,A10025397,3,0234232807,7918.95,0.0,0.0,289.0,0.0,신내우디안4단지 아파트,17068.71,0234232806,7,ikwangin.com,20180914.0,4.0,289.0,7.0,7918.95,2263.0,9430710,0,0,34070,0,0,1976,0,2169610,0,202401,서울특별시 중랑구 신내동 831-,37.6167551318307,127.111456996121
1126010400,아파트,계단식,개별난방,위탁관리,혼합,서울특별시 중랑구 숙선옹주로 45,719.0,묵1동재건축사업정비조합,서울특별시 중랑구 묵동 396- e편한세상화랑대아파트,4.0,(주)대림산업,A10025855,12,029797658,75939.943,48.0,0.0,236.0,435.0,e편한세상화랑대아파트,116253.595,029797656,25,cafe.naver.com/ep02030,20171206.0,0.0,719.0,25.0,55401.14,2030.0,56703940,0,0,226115,0,0,0,0,0,0,202401,서울특별시 중랑구 묵동 396-,37.6156214447956,127.082735516021
1126010300,아파트,계단식,개별난방,위탁관리,혼합,서울특별시 중랑구 동일로136길 15,109.0,청풍연립재건축조합,서울특별시 중랑구 중화동 453- 청광플러스원 아파트,1.0,청광종합건설(주),A10026046,2,024937275,11426.18,0.0,0.0,0.0,109.0,청광플러스원 아파트,14027.69,024337275,15, ,20070723.0,0.0,109.0,15.0,9187.7,2050.0,0,0,0,0,0,0,0,0,0,0,202401,서울특별시 중랑구 중화동 453-,37.6025548174692,127.080170207366
1126010400,아파트,계단식,개별난방,위탁관리,분양,서울특별시 중랑구 동일로 932,274.0,(주)부광피앤디,서울특별시 중랑구 묵동 170-1 묵동자이2단지아파트,5.0,GS건설(주),A10026469,2,029497155,38874.56,250.0,24.0,0.0,0.0,묵동자이2단지아파트,58121.47,029497154,35,mdxi.aptner.com/,20101214.0,4.0,274.0,35.0,29954.22,2033.0,36178743,0,0,173367,0,0,4810,0,4723260,0,202401,서울특별시 중랑구 묵동 170-1,37.6138348860458,127.077545015528
1126010600,아파트,계단식,개별난방,위탁관리,분양,서울특별시 중랑구 봉화산로56길 140,133.0,대성,서울특별시 중랑구 신내동 803- 신내대성유니드아파트,1.0,대성,A10027297,1,0234210296,13068.908,30.0,0.0,28.0,75.0,신내대성유니드아파트,16601.81,0234210295,15, ,20050526.0,0.0,133.0,15.0,10446.23,2069.0,0,0,0,0,0,0,0,0,0,0,202401,서울특별시 중랑구 신내동 803-,37.6027387362779,127.096284818062
1126010300,주상복합,계단식,개별난방,위탁관리,분양,서울특별시 중랑구 망우로 203,103.0,부광 아이앤디,서울특별시 중랑구 중화동 208-33 중화동양엔파트 주상복합,3.0,동양,A10027456,2,024325756,16144.68,0.0,0.0,0.0,103.0,중화동양엔파트 주상복합,22688.0,024325755,18, ,20100525.0,3.0,103.0,18.0,8695.44,2116.0,0,0,0,0,0,0,0,0,0,0,202401,서울특별시 중랑구 중화동 208-33,37.5939956436071,127.075008982696
1126010500,아파트,계단식,개별난방,위탁관리,분양,서울특별시 중랑구 상봉로26길 29,66.0,대성연립 주택조합,서울특별시 중랑구 망우동 576- 가야아파트,2.0,가야종합건설 주,A10027498,1,024337624,6751.8,0.0,0.0,11.0,55.0,가야아파트,9626.33,024339736,12, ,20020325.0,3.0,66.0,12.0,4959.02,2169.0,0,0,0,0,0,0,0,0,0,0,202401,서울특별시 중랑구 망우동 576-,37.5958198603651,127.094712021585
1126010200,주상복합,타워형,개별난방,위탁관리,분양,서울특별시 중랑구 상봉로 131,264.0,"한국자산신탁, 아우딘디엔피",서울특별시 중랑구 상봉동 79- 상봉듀오트리스,8.0,"포스코, 포스코A&C",A10027670,2,024969390,45328.64,200.0,64.0,0.0,0.0,상봉듀오트리스,99839.19,024969391,41,www.duoturris.com,20160120.0,6.0,264.0,41.0,35997.84,2150.0,42379600,0,0,115133,0,0,4398,0,5574990,0,202401,서울특별시 중랑구 상봉동 79-,37.5974066200134,127.092177640813
1126010600,아파트,복도식,개별난방,위탁관리,임대,서울특별시 중랑구 신내로16길 17,222.0,SH공사,서울특별시 중랑구 신내동 314-25 신내의료안심주택,1.0,SD종합건설,A10027775,2,024939502,5535.57,0.0,0.0,222.0,0.0,신내의료안심주택,13099.58,024939501,7, ,20151029.0,4.0,222.0,7.0,5535.57,2053.0,4887290,0,0,30929,0,0,1440,0,706720,0,202401,서울특별시 중랑구 신내동 314-25,37.6141751592324,127.097180289147
1126010100,아파트,계단식,개별난방,위탁관리,혼합,서울특별시 중랑구 용마산로 210,265.0,면목제2구역재건축조합,서울특별시 중랑구 면목동 1537- 용마산하늘채아파트,2.0,코오롱글로벌,A10028033,5,024359721,29313.0359,35.0,0.0,52.0,178.0,용마산하늘채아파트,45070.7209,024359720,15, ,20151008.0,12.0,265.0,15.0,22220.1475,2256.0,24570834,0,0,85691,0,0,0,0,0,0,202401,서울특별시 중랑구 면목동 1537-,37.5719685219483,127.087082579511
1126010600,아파트,혼합식,개별난방,위탁관리,분양,서울특별시 중랑구 신내로14길 21,235.0,(주)동성,서울특별시 중랑구 신내동 797- 신내동성7차,3.0,(주)동성,A13113001,1,0234219416,22752.526,21.0,0.0,148.0,66.0,신내동성7차,36477.083,0234219417,18,신내동성7차.apti,19990427.0,6.0,235.0,18.0,16792.38,2067.0,13339440,0,0,57709,0,0,3716,0,4059130,0,202401,서울특별시 중랑구 신내동 797-,37.6061237684817,127.097147956287
1126010600,아파트,혼합식,개별난방,위탁관리,분양,서울특별시 중랑구 용마산로125길 50,284.0,벽산건설(주),서울특별시 중랑구 신내동 437- 신내벽산,3.0,벽산건설(주),A13113002,3,0234232128,22597.668,48.0,0.0,156.0,80.0,신내벽산,43059.926,0234232127,24, ,20000628.0,5.0,284.0,24.0,22597.668,2071.0,17845946,0,0,78805,0,0,4578,0,5398970,0,202401,서울특별시 중랑구 신내동 437-,37.60296415945,127.099868188631
1126010600,아파트,혼합식,지역난방,위탁관리,분양,서울특별시 중랑구 봉화산로 216,478.0,(주)동성건설,서울특별시 중랑구 신내동 591- 신내동성4차,3.0,(주)동성건설,A13113003,4,0234211493,49379.51,84.0,0.0,270.0,124.0,신내동성4차,57570.0,0234211492,23, ,19970725.0,10.0,478.0,23.0,37032.92,2067.0,28152708,0,76485770,129240,0,406,8412,2667,9387910,0,202401,서울특별시 중랑구 신내동 591-,37.6068884470407,127.097027772006
1126010600,아파트,혼합식,지역난방,위탁관리,분양,서울특별시 중랑구 신내로 110,800.0,(주)동성,서울특별시 중랑구 신내동 618- 신내동성3차아파트,2.0,(주)동성,A13113004,6,024328549,91671.536,252.0,0.0,306.0,242.0,신내동성3차아파트,114403.0,024945285,26, ,19970507.0,18.0,800.0,26.0,69938.44,2054.0,53125880,0,118663273,229501,0,692741,18235,5457,18587480,16916700,202401,서울특별시 중랑구 신내동 618-,37.6097999635226,127.096294599887
1126010600,아파트,계단식,개별난방+기타,위탁관리,분양,서울특별시 중랑구 봉화산로56길 112,214.0,보광아파트 주택정비사업조합,서울특별시 중랑구 신내동 804- 신내경남아너스빌,1.0,경남기업,A13113006,4,0234216405,22064.0,0.0,0.0,0.0,214.0,신내경남아너스빌,29055.8,0234226405,15, ,20070216.0,9.0,214.0,15.0,17650.52,2069.0,18892920,0,0,60596,0,0,3825,0,5721720,0,202401,서울특별시 중랑구 신내동 804-,37.6040134222925,127.096877609532
1126010600,아파트,혼합식,개별난방,위탁관리,혼합,서울특별시 중랑구 신내역로 165,1896.0,서울특별시 SH공사,서울특별시 중랑구 신내동 817- 신내 데시앙포레,3.0,(주)태영건설,A13113007,23,024968343,266279.28,252.0,0.0,1034.0,610.0,신내 데시앙포레,267015.06,024968341,24, ,20131211.0,59.0,1896.0,24.0,133451.74,2055.0,143241836,0,0,579946,0,0,29164,0,30317010,0,202401,서울특별시 중랑구 신내동 817-,37.6165826807685,127.109631685269
1126010600,아파트,혼합식,개별난방,위탁관리,혼합,서울특별시 중랑구 신내역로1길 85,1402.0,SH공사,서울특별시 중랑구 신내동 816- 신내우디안1단지,3.0,한신공영(주),A13113008,16,024969685,92808.0,90.0,0.0,808.0,504.0,신내우디안1단지,190866.39,024969683,24, ,20140618.0,0.0,1402.0,24.0,93848.93,2055.0,94342580,0,0,426798,0,0,25088,0,24713730,0,202401,서울특별시 중랑구 신내동 816-,37.6168090895238,127.106293721634
1126010400,아파트,계단식,개별난방,위탁관리,분양,서울특별시 중랑구 동일로157길 70,601.0,현대산업개발,서울특별시 중랑구 묵동 385- 묵동아이파크,0.0,현대산업개발,A13114002,8,0264676501,74241.0,133.0,0.0,0.0,468.0,묵동아이파크,92217.5,0264676500,24, ,20020621.0,15.0,601.0,24.0,54725.6523,2007.0,39469980,0,0,180020,0,0,11173,0,13865950,0,202401,서울특별시 중랑구 묵동 385-,37.6095684664635,127.073841554702
1126010400,아파트,,,기타,,서울 중랑구 동일로144길 3,, ,서울특별시 중랑구 묵동 188-1 장미,, ,A13114003,1, ,,100.0,0.0,0.0,0.0,장미,,029742288,1, ,,,100.0,5.0,9362.1,,0,0,0,0,0,0,0,0,0,0,202401,서울특별시 중랑구 묵동 188-1,37.6061438168485,127.07991029965
1126010400,아파트,계단식,개별난방,위탁관리,분양,서울특별시 중랑구 공릉로2길 39,193.0,묵동금호어울림아파트,서울특별시 중랑구 묵동 386- 묵동금호어울림,1.0,금호건설,A13114103,2,029756355,17410.74,81.0,0.0,11.0,101.0,묵동금호어울림,28353.2,029781118,19, ,20031203.0,7.0,193.0,19.0,17410.74,2036.0,15362071,0,0,60338,0,0,3242,0,4079870,0,202401,서울특별시 중랑구 묵동 386-,37.6128950918525,127.079935191823
1126010400,아파트,혼합식,개별난방,위탁관리,분양,서울특별시 중랑구 공릉로2라길 4,248.0,신안종합건설,서울특별시 중랑구 묵동 384- 묵동신안3차,2.0,신안종합건설,A13114106,2,029783778,26152.069,52.0,0.0,91.0,105.0,묵동신안3차,36949.586,029783777,18,홈페이지 없음.,20000916.0,7.0,248.0,18.0,19820.29,2040.0,17112614,257300,0,67981,0,0,0,0,0,0,202401,서울특별시 중랑구 묵동 384-,37.6131399604483,127.081675138324
1126010400,아파트,계단식,개별난방,위탁관리,분양,서울특별시 중랑구 동일로169길 41,163.0,삼성연립,서울특별시 중랑구 묵동 388- 묵동동구햇살,2.0,동구건설,A13114201,3,0260819031,16632.59,0.0,0.0,0.0,163.0,묵동동구햇살,23256.5,029499031,15, ,20040512.0,8.0,163.0,15.0,13688.75,2004.0,9831633,0,0,60102,0,0,3311,0,3849880,0,202401,서울특별시 중랑구 묵동 388-,37.6133074065466,127.074246195371
1126010100,아파트,계단식,개별난방,위탁관리,분양,서울특별시 중랑구 겸재로30길 42,199.0,유진건설,서울특별시 중랑구 면목동 1531- 면목마젤란21,1.0,유진건설,A13120001,3,024956274,19879.32,0.0,0.0,23.0,176.0,면목마젤란21,24136.0,024956273,15, ,20070315.0,8.0,199.0,15.0,15759.045,2217.0,13593510,0,1830000,59300,0,0,6221,0,7959490,0,202401,서울특별시 중랑구 면목동 1531-,37.5871522206426,127.084138509042
1126010100,아파트,계단식,개별난방,자치관리(직영),분양,서울특별시 중랑구 답십리로77길 139,42.0,두산개발(주),서울특별시 중랑구 면목동 1501- 면목두산6차,0.0,두산개발(주),A13120003,1,0222097321,317043.72,0.0,0.0,42.0,42.0,면목두산6차,9988.48,0222077320,22, ,19931112.0,2.0,84.0,22.0,6068.58,2241.0,0,0,0,0,0,0,0,0,0,0,202401,서울특별시 중랑구 면목동 1501-,37.5775950889197,127.080690907548
1126010100,아파트,계단식,개별난방,위탁관리,분양,서울특별시 중랑구 답십리로75길 73,386.0,면목제1단지 재건축주택조합,서울특별시 중랑구 면목동 1529- 면목경남아너스빌,1.0,경남기업(주),A13120403,9,024350569,37336.18,0.0,0.0,142.0,244.0,면목경남아너스빌,49102.842,024350568,15, ,20061129.0,16.0,386.0,15.0,29140.258,2242.0,25619591,0,0,0,0,0,0,0,7565420,0,202401,서울특별시 중랑구 면목동 1529-,37.5768749774403,127.080481152665
1126010100,아파트,계단식,개별난방,자치관리,분양,서울특별시 중랑구 용마산로 290,165.0,재건축조합,서울특별시 중랑구 면목동 1525- 용마산금호어울림,4.0,금호건설,A13120701,3,024324575,16951.87,12.0,0.0,0.0,153.0,용마산금호어울림,25764.0,024321717,12, ,20060626.0,0.0,165.0,12.0,13684.741,2258.0,14323184,0,0,51402,0,0,2959,0,3679360,0,202401,서울특별시 중랑구 면목동 1525-,37.5777367897826,127.091358900658
1126010100,아파트,계단식,개별난방,위탁관리,분양,서울특별시 중랑구 용마산로 271,178.0,금호건설,서울특별시 중랑구 면목동 1528- 면목금호어울림,2.0,면목동 대농빌라조합,A13120704,3,024378502,18524.84,0.0,0.0,0.0,178.0,면목금호어울림,25194.0,024378501,15, ,20051027.0,7.0,178.0,15.0,14947.9727,2251.0,14464715,0,70850,54662,0,0,0,0,0,0,202401,서울특별시 중랑구 면목동 1528-,37.5773677919025,127.089649371438
1126010200,아파트,계단식,개별난방,자치관리,분양,서울특별시 중랑구 상봉중앙로8길 76,467.0,1,서울특별시 중랑구 상봉동 499- 상봉건영캐스빌,3.0,1,A13122001,9,0234218076,50590.11,0.0,0.0,0.0,467.0,상봉건영캐스빌,62616.0,0234218075,26, ,20060210.0,13.0,467.0,26.0,39530.3825,2080.0,32823834,0,0,145508,0,0,9261,0,10741830,0,202401,서울특별시 중랑구 상봉동 499-,37.6027047277333,127.091465865252
1126010200,주상복합,계단식,개별난방,위탁관리,혼합,서울특별시 중랑구 망우로 353,497.0,현대엠코(주),서울특별시 중랑구 상봉동 500- 상봉프레미어스엠코,7.0,현대엠코(주),A13122002,3,024966912,73633.31,382.0,6.0,41.0,68.0,상봉프레미어스엠코,106914.0,024966910,48,sbamco.aptstory.com,20131118.0,10.0,497.0,48.0,50920.99,2087.0,75798909,4167500,0,354104,23536,0,10236,0,10890720,0,202401,서울특별시 중랑구 상봉동 500-,37.5983328190955,127.091624142481
1126010200,아파트,계단식,개별난방,위탁관리,분양,서울특별시 중랑구 상봉중앙로8길 104,582.0,(주)태영,서울특별시 중랑구 상봉동 497- 상봉태영데시앙,1.0,(주)태영,A13122104,11,0234224584,62109.75,0.0,0.0,98.0,484.0,상봉태영데시앙,82567.0,0234221925,27, ,20030805.0,17.0,582.0,27.0,46938.0283,2078.0,41002187,0,0,0,0,0,0,0,14261030,0,202401,서울특별시 중랑구 상봉동 497-,37.6025450830901,127.093635097168
1126010500,아파트,계단식,개별난방,위탁관리,분양,서울특별시 중랑구 용마산로112가길 34,191.0,예성종합건설,서울특별시 중랑구 망우동 577- 예성그린캐슬아파트,1.0,예성종합건설,A13123001,4,024912199,17997.04,0.0,0.0,74.0,117.0,예성그린캐슬아파트,22732.7,024912188,23, ,20040525.0,6.0,191.0,23.0,14279.74,2180.0,12707490,0,0,57364,0,0,0,0,0,0,202401,서울특별시 중랑구 망우동 577-,37.5971454492592,127.101898667181
1126010500,아파트,계단식,개별난방,위탁관리,분양,서울특별시 중랑구 망우로75길 19,381.0,다올유씨엘,서울특별시 중랑구 망우동 583- 중랑숲Liga아파트,2.0,LIG건설,A13123002,10,024930265,42326.165,90.0,0.0,81.0,210.0,중랑숲Liga아파트,60107.0,024930266,15,중랑숲liga.apti.co.kr,20120831.0,17.0,381.0,15.0,32678.2,2065.0,32659650,0,0,133820,0,0,7301,0,8400920,0,202401,서울특별시 중랑구 망우동 583-,37.6017262522479,127.104896125324
1126010500,아파트,,,기타,,서울 중랑구 망우로 504-10,, ,서울특별시 중랑구 망우동 574- 금호,, ,A13123003,1,024380027,,15.0,0.0,40.0,18.0,금호,,024380027,1, ,,,73.0,21.0,5629.34,,0,0,0,0,0,0,0,0,0,0,202401,서울특별시 중랑구 망우동 574-,37.6001285426107,127.107975055293
1126010500,아파트,,,기타,,서울 중랑구 망우로76길 51,, ,서울특별시 중랑구 망우동 579- 한울네세창,, ,A13123004,1, ,,0.0,0.0,0.0,55.0,한울네세창,, ,1, ,,,55.0,11.0,4605.37,,0,0,0,0,0,0,0,0,0,0,202401,서울특별시 중랑구 망우동 579-,37.5984089891568,127.106302078245
1126010500,아파트,혼합식,개별난방,자치관리(직영),분양,서울특별시 중랑구 망우로 504-7,198.0,신원건설,서울특별시 중랑구 망우동 573- 망우신원,2.0,일해건설,A13123101,1,024943401,21696.9,0.0,0.0,118.0,80.0,망우신원,21696.95,024943437,22, ,19990311.0,4.0,198.0,22.0,13780.51,2178.0,10768060,0,0,51634,0,0,2834,0,3095370,0,202401,서울특별시 중랑구 망우동 573-,37.6002176347145,127.108777270671
1126010500,아파트,계단식,개별난방,위탁관리,분양,서울특별시 중랑구 양원역로 18,686.0,장미아파트주택재건축정비사업조합,서울특별시 중랑구 망우동 580- 중랑숲금호어울림,2.0,금호산업(주),A13123102,13,0262392041,70124.68,79.0,0.0,155.0,452.0,중랑숲금호어울림,100207.36,0222095446,15,www.intm.co.kr/망우금호어울림,20060428.0,24.0,686.0,15.0,56790.88,2063.0,46570553,0,0,207483,0,0,10765,0,15534670,0,202401,서울특별시 중랑구 망우동 580-,37.6027743133849,127.108648043621
1126010200,아파트,혼합식,개별난방,위탁관리,분양,서울특별시 중랑구 망우로 346,504.0,채널산업(주),서울특별시 중랑구 상봉동 81-5 한일써너스빌아파트,3.0,한일건설,A13170401,3,024939006,43207.772,50.0,0.0,0.0,454.0,한일써너스빌아파트,89535.0,024939048,25, ,20031201.0,10.0,504.0,25.0,43207.772,2150.0,40601861,0,0,151624,0,0,8745,0,10299200,0,202401,서울특별시 중랑구 상봉동 81-5,37.5974524780309,127.091369638781
1126010100,아파트,,,기타,,서울특별시 중랑구 중랑천로 14,, ,서울특별시 중랑구 면목동 1520- 일신강변,, ,A13175101,1, ,,0.0,0.0,26.0,36.0,일신강변,, ,1, ,,,62.0,13.0,4611.55,2133.0,0,0,0,0,0,0,0,0,0,0,202401,서울특별시 중랑구 면목동 1520-,37.5868559860088,127.074607809126
1126010100,아파트,복도식,개별난방,위탁관리,분양,서울특별시 중랑구 봉우재로6길 19,79.0,남대하종합건설(주),서울특별시 중랑구 면목동 1523- 솔루테,1.0,남대하종합건설(주),A13175102,1,024951032,9369.05,13.0,0.0,0.0,66.0,솔루테,11180.739,024951031,14, ,20011114.0,,79.0,14.0,6542.6,2131.0,0,0,0,0,0,0,0,0,0,0,202401,서울특별시 중랑구 면목동 1523-,37.5892548769076,127.076995277743
1126010100,아파트,혼합식,개별난방,위탁관리,분양,서울특별시 중랑구 중랑천로 20,1362.0,한신공영,서울특별시 중랑구 면목동 193-1 면목한신,0.0,한신공영,A13175103,10,024361685,90753.6878,0.0,0.0,1012.0,350.0,면목한신,93503.0,024968158,15, ,19871230.0,21.0,1362.0,15.0,69996.78,2133.0,53105693,0,0,276727,0,0,0,0,1524320,0,202401,서울특별시 중랑구 면목동 193-1,37.5864831132149,127.075805081355
1126010500,아파트,계단식,개별난방,위탁관리,분양,서울특별시 중랑구 용마산로115길 127,128.0,아주산업(주),서울특별시 중랑구 망우동 479- 한일써너스빌리젠시,5.0,한일건설(주),A13176101,1,0222070047,14242.56,0.0,0.0,0.0,128.0,한일써너스빌리젠시,14248.0,0222070040,28, ,20080401.0,4.0,128.0,28.0,10841.34,2163.0,0,0,0,0,0,0,0,0,0,0,202401,서울특별시 중랑구 망우동 479-,37.5975232054583,127.093668889688
1126010500,아파트,계단식,개별난방,위탁관리,분양,서울특별시 중랑구 양원역로6가길 19,174.0,(주)한진중공업,서울특별시 중랑구 망우동 578- 중랑해모로,1.0,(주) 한진중공업,A13176102,3,024945970,19445.756,0.0,35.0,21.0,118.0,중랑해모로,19621.42,024965972,12, ,20070516.0,7.0,174.0,12.0,16086.67,2063.0,8832370,61140,0,52694,0,0,5828,0,6600110,0,202401,서울특별시 중랑구 망우동 578-,37.6032912781038,127.109841273166
1126010400,아파트,혼합식,개별난방,위탁관리,분양,서울특별시 중랑구 동일로 941,188.0,묵동 우성아파트 재건축조합,서울특별시 중랑구 묵동 379- 묵동극동늘푸른아파트,3.0,(주)극동건설,A13176801,2,029768341,17877.796,0.0,0.0,76.0,112.0,묵동극동늘푸른아파트,25595.71,029768340,20,묵동극동늘푸른.apti.co.kr,19990401.0,4.0,188.0,20.0,13796.84,2002.0,12954034,0,0,49003,0,0,5679,0,6126910,0,202401,서울특별시 중랑구 묵동 379-,37.6148667612404,127.076203123812
1126010600,아파트,복도식,지역난방,위탁관리,분양,서울특별시 중랑구 신내로19길 42,1609.0,서울시 도시개발공사,서울특별시 중랑구 신내동 650- 신내6단지,1.0,대주건설,A13176901,16,0234212063,123283.627,0.0,0.0,1609.0,0.0,신내6단지,123284.0,0234212062,12,sinnae6.com,19960313.0,21.0,1609.0,12.0,79792.29,2028.0,69018193,0,151266980,327244,0,59535,21484,6917,24448360,34585000,202401,서울특별시 중랑구 신내동 650-,37.6141017641988,127.091034702557
1126010600,아파트,복도식,지역난방,위탁관리,임대,서울특별시 중랑구 신내로 127,335.0,서울주택도시공사,서울특별시 중랑구 신내동 657- 신내9단지임대,0.0,진흥기업(주),A13176902,2,0234211928,19682.6,0.0,0.0,335.0,0.0,신내9단지임대,19849.63,0234211927,15,happy.i-sh.co.kr/main.do?deptid=20182,19960621.0,4.0,335.0,15.0,13346.4,2026.0,0,0,18168130,0,0,22953,1453,0,0,6015420,202401,서울특별시 중랑구 신내동 657-,37.6108674372868,127.095651882252
1126010100,아파트,계단식,개별난방,위탁관리,임대,서울특별시 중랑구 용마산로 228,905.0,한신공영,서울특별시 중랑구 면목동 1382- 면목,0.0,SH공사,A13177701,4,0222090872,44085.0,0.0,0.0,905.0,0.0,면목,44092.0,024381942,15,http://happy.i-sh.co.kr/cms/main.do,19911014.0,8.0,905.0,15.0,29332.24,2257.0,14311830,0,0,168025,0,0,0,0,0,0,202401,서울특별시 중랑구 면목동 1382-,37.5741661331223,127.088302169337
1126010100,,계단식,개별난방,자치관리,분양,서울특별시 중랑구 동일로 483,118.0,강호연립재건축조합,서울특별시 중랑구 면목동 1521- 면목두원,2.0,두원중공업(주),A13177702,1,024957868,10720.32,0.0,0.0,72.0,46.0,면목두원,13776.12,024957868,24, ,19981125.0,1.0,118.0,24.0,8178.48,2248.0,0,0,0,0,0,0,0,0,0,0,202401,서울특별시 중랑구 면목동 1521-,37.5735627859187,127.079752424193
1126010600,아파트,혼합식,지역난방,위탁관리,혼합,서울특별시 중랑구 용마산로 669,1326.0,SH공사,서울특별시 중랑구 신내동 317- 신내데시앙,0.0,태영건설,A13178101,15,0234220016,130623.67,219.0,0.0,714.0,393.0,신내데시앙,169682.28,0234220013,15, ,20100108.0,32.0,1326.0,15.0,101199.27,2053.0,88305336,0,138365110,407221,0,94497,16865,9888,20389280,53790720,202401,서울특별시 중랑구 신내동 317-,37.6097690028367,127.098976905071
1126010600,아파트,,,,,서울 중랑구 봉화산로56길 73,, ,서울특별시 중랑구 신내동 449-1 경원,0.0, ,A13178102,1, ,0.0,0.0,0.0,80.0,0.0,경원,,024367763,1,없음,,,80.0,5.0,4611.6,,0,0,0,0,0,0,0,0,0,0,202401,서울특별시 중랑구 신내동 449-1,37.6053457087307,127.098194496466
1126010100,아파트,계단식,개별난방,위탁관리,분양,서울특별시 중랑구 용마산로86길 9-27,161.0,서경한성동남조합신성건설,서울특별시 중랑구 면목동 1527- 면목신성미소지움,2.0,신성건설,A13181201,2,024381283,16529.6124,0.0,0.0,0.0,161.0,면목신성미소지움,22636.943,024364511,17, ,20041112.0,4.0,161.0,17.0,12910.7993,2192.0,10899660,96960,0,46527,0,0,2634,0,3126570,0,202401,서울특별시 중랑구 면목동 1527-,37.5873662061942,127.096060534833
1126010100,아파트,계단식,개별난방,위탁관리,분양,서울특별시 중랑구 용마산로 348,440.0,금호건설,서울특별시 중랑구 면목동 494- 용마금호타운,1.0,금호건설,A13181203,5,024917735,50897.0,0.0,0.0,0.0,440.0,용마금호타운,50897.0,024353683,15, ,19921223.0,15.0,440.0,15.0,37356.0,2194.0,32877690,0,0,129987,0,0,0,0,300720,0,202401,서울특별시 중랑구 면목동 494-,37.5835281683818,127.094371404549
1126010100,아파트,혼합식,개별난방,위탁관리,분양,서울특별시 중랑구 사가정로71길 11,174.0,면목3동 재건축조함,서울특별시 중랑구 면목동 1073- 용마한신2차아파트,2.0,한신공영,A13183202,1,024322838,16555.37,0.0,0.0,70.0,104.0,용마한신2차아파트,21501.0,024322836,18, ,19980529.0,5.0,174.0,18.0,12981.24,2196.0,10514040,0,0,47219,0,0,5750,0,6294160,0,202401,서울특별시 중랑구 면목동 1073-,37.5810042902107,127.094503959947
1126010100,아파트,혼합식,개별난방,자치관리,분양,서울특별시 중랑구 사가정로71길 19,565.0,면목3구역 재개발조합,서울특별시 중랑구 면목동 1077-1 용마한신,0.0,한신공영,A13183204,4,0222073906,41858.129,0.0,0.0,461.0,104.0,용마한신,43455.0,024340144,15, ,19900628.0,10.0,565.0,15.0,30457.98,2196.0,25685260,0,0,117068,0,0,0,0,0,0,202401,서울특별시 중랑구 면목동 1077-1,37.5808368956261,127.095052598876
1126010100,아파트,계단식,개별난방,위탁관리,분양,서울특별시 중랑구 용마산로62길 43,174.0,공영토건,서울특별시 중랑구 면목동 1499- 용마동아아파트,1.0,공영토건,A13183303,2,0262132431,14769.12,0.0,0.0,0.0,174.0,용마동아아파트,19821.69,024912431,15, ,19930318.0,6.0,174.0,15.0,14768.82,2260.0,12087070,0,0,51779,0,0,3058,0,3958750,0,202401,서울특별시 중랑구 면목동 1499-,37.5784385345249,127.094611661002
1126010100,아파트,계단식,개별난방,위탁관리,분양,서울특별시 중랑구 용마산로 285,256.0,금성진영연립,서울특별시 중랑구 면목동 581- 면목대원칸타빌,2.0,(주)대원,A13183405,4,024912363,27526.04,113.0,0.0,38.0,105.0,면목대원칸타빌,39564.888,024912362,19, ,20030401.0,7.0,256.0,19.0,22119.3997,2251.0,20593561,0,0,79132,0,0,0,0,0,0,202401,서울특별시 중랑구 면목동 581-,37.5776001414221,127.089908440848
1126010100,아파트,계단식,개별난방,위탁관리,분양,서울특별시 중랑구 동일로 501,216.0,강호연립재건조합,서울특별시 중랑구 면목동 1516- 면목삼익,3.0,삼익주택,A13183502,3,0262184339,22527.88,48.0,0.0,88.0,80.0,면목삼익,32692.815,024934339,25, ,19971220.0,5.0,216.0,25.0,17409.12,2248.0,16675400,355520,0,63559,0,0,0,0,155720,0,202401,서울특별시 중랑구 면목동 1516-,37.5755811183776,127.079463416499
1126010100,아파트,혼합식,개별난방,위탁관리,분양,서울특별시 중랑구 동일로 476,573.0,면목동 강호.동일연합재건축조합,서울특별시 중랑구 면목동 715- 면목늘푸른동아아파트,2.0,동아건설산업(주),A13183504,4,0222084354,57674.8973,76.0,0.0,275.0,222.0,면목늘푸른동아아파트,73968.19,0222084353,19, ,20021130.0,0.0,573.0,19.0,43773.45,2247.0,35336000,0,0,156725,0,0,10308,0,10496890,0,202401,서울특별시 중랑구 면목동 715-,37.5736890471969,127.080369617106
1126010100,아파트,계단식,개별난방,위탁관리,분양,서울특별시 중랑구 겸재로29길 27,178.0,주택조합,서울특별시 중랑구 면목동 1505- 아남리치카운티,1.0,아남건설,A13183701,5,024353314,17661.542,0.0,0.0,52.0,126.0,아남리치카운티,22206.7,024353313,12, ,20041210.0,9.0,178.0,12.0,13793.362,2145.0,11101727,0,0,63184,0,0,5698,0,6843330,0,202401,서울특별시 중랑구 면목동 1505-,37.5899098441801,127.085204234465
1126010100,아파트,혼합식,개별난방,위탁관리,분양,서울특별시 중랑구 사가정로42길 90,555.0,(주)두산건설,"서울특별시 중랑구 면목동 1522- 면목두산4,5단지",3.0,(주)두산,A13184107,7,024368955,44489.32,50.0,0.0,204.0,301.0,"면목두산4,5단지",83253.86,024368954,25, ,20000927.0,14.0,555.0,25.0,44489.32,2241.0,42710778,-7280,0,152960,5037,0,10076,0,14071700,0,202401,서울특별시 중랑구 면목동 1522-,37.5779593558972,127.081092507639
1126010100,아파트,계단식,개별난방,위탁관리,분양,서울특별시 중랑구 용마산로 252,626.0,(주)현대산업개발,서울특별시 중랑구 면목동 1502- 면목현대,6.0,(주)현대산업개발,A13184208,4,0264956400,73614.02,0.0,0.0,0.0,626.0,면목현대,75795.0,0222096400,20, ,19940929.0,15.0,626.0,20.0,51712.08,2258.0,37554537,0,202130,174853,0,0,0,0,1572380,0,202401,서울특별시 중랑구 면목동 1502-,37.5751759965089,127.089222458333
1126010100,아파트,혼합식,개별난방,위탁관리,분양,서울특별시 중랑구 중랑천로 43,266.0,신성,서울특별시 중랑구 면목동 1519- 면목신성은하수,2.0,신성,A13184301,2,024321902,26808.69,57.0,0.0,153.0,56.0,면목신성은하수,35382.87,024321903,19, ,19981031.0,6.0,266.0,19.0,19802.38,2118.0,16486080,0,0,76020,0,0,8302,0,9861120,0,202401,서울특별시 중랑구 면목동 1519-,37.5892833117345,127.072500066072
1126010100,아파트,혼합식,개별난방,위탁관리,분양,서울특별시 중랑구 용마산로 259,183.0,강남주택외3개조합,서울특별시 중랑구 면목동 1513- 면목삼호,2.0,(주)삼호,A13184401,1,024955633,22355.72,18.0,0.0,26.0,139.0,면목삼호,23208.91,024363976,13, ,20000527.0,8.0,183.0,13.0,14913.27,2251.0,11846685,0,0,53691,0,0,0,0,0,0,202401,서울특별시 중랑구 면목동 1513-,37.5764102807284,127.088247311103
1126010100,아파트,혼합식,개별난방,위탁관리,분양,서울특별시 중랑구 용마산로 278,168.0,성원건설(주),서울특별시 중랑구 면목동 1515- 면목성원,2.0,성원건설(주),A13184502,2,024950900,17267.24,29.0,0.0,80.0,59.0,면목성원,22779.971,024924848,20, ,19970613.0,0.0,168.0,20.0,13133.19,2258.0,-30020,0,0,43502,0,0,0,0,0,0,202401,서울특별시 중랑구 면목동 1515-,37.577412034973,127.090939526414
1126010400,아파트,복도식,지역난방,위탁관리,분양,서울특별시 중랑구 숙선옹주로 91,1070.0,SH공사,서울특별시 중랑구 묵동 13- 신내4단지,1.0,SH공사,A13184609,12,0234218553,72852.8682,0.0,0.0,1070.0,0.0,신내4단지,72852.8682,0234218552,12, ,19960614.0,14.0,1070.0,12.0,52200.18,2029.0,44246430,0,97842220,207137,0,54992,14297,4571,15967840,22250560,202401,서울특별시 중랑구 묵동 13-,37.6172653669997,127.085544432545
1126010400,아파트,계단식,지역난방,자치관리,분양,서울특별시 중랑구 신내로21길 16,1244.0,대림두산건설,서울특별시 중랑구 묵동 20- 신내5단지대림두산,0.0,대림두산건설,A13184610,28,0234230262,174042.9448,1244.0,0.0,0.0,0.0,신내5단지대림두산,272760.0,0234210261,12,www.sndadua.co.kr,19951204.0,51.0,1244.0,12.0,143952.56,2023.0,102771943,0,268957450,413370,0,1908069,27101,10741,31108870,39667700,202401,서울특별시 중랑구 묵동 20-,37.6168016402746,127.086884860446
1126010400,아파트,혼합식,개별난방,위탁관리,분양,서울특별시 중랑구 공릉로13길 30,221.0,수정연립재건축조합,서울특별시 중랑구 묵동 167- 묵동신도1차,2.0,신도종합건설,A13184804,2,029492309,21278.36,44.0,0.0,89.0,88.0,묵동신도1차,29612.0,029792309,23, ,19981015.0,5.0,221.0,23.0,17617.49,2018.0,12723570,0,0,72265,0,0,3648,0,4271030,0,202401,서울특별시 중랑구 묵동 167-,37.6165209093159,127.07699925845
1126010400,아파트,혼합식,개별난방,위탁관리,분양,서울특별시 중랑구 중랑천로 332,225.0,한국종건,서울특별시 중랑구 묵동 378- 묵동한국,3.0,한국종건,A13185402,2,029798366,24631.4048,47.0,0.0,109.0,69.0,묵동한국,33230.0,029798365,19, ,19990603.0,5.0,225.0,19.0,17763.96,2003.0,15191507,263050,0,0,0,0,0,0,7876450,0,202401,서울특별시 중랑구 묵동 378-,37.6148043977304,127.073528575483
1126010400,아파트,혼합식,개별난방,위탁관리,분양,서울특별시 중랑구 숙선옹주로9길 25,159.0,세방건설,서울특별시 중랑구 묵동 383- 묵동세방,0.0,세방기업(주),A13185501,2,0264635783,15473.49,0.0,0.0,66.0,93.0,묵동세방,18709.84,029775783,19, ,20000703.0,4.0,159.0,19.0,11660.58,2030.0,11140870,0,0,63942,0,0,0,0,0,0,202401,서울특별시 중랑구 묵동 383-,37.6158046285885,127.083612048302
1126010400,아파트,혼합식,개별난방,자치관리,분양,서울특별시 중랑구 공릉로2나길 46,171.0,신안종합건설(주),서울특별시 중랑구 묵동 382- 묵동신안2차,2.0,신안종합건설(주),A13185502,1,029726182,17407.962,0.0,0.0,78.0,93.0,묵동신안2차,24229.393,029726181,19,없음,20000229.0,5.0,171.0,19.0,12565.842,2035.0,9585210,0,0,43310,0,0,0,0,0,0,202401,서울특별시 중랑구 묵동 382-,37.613981054395,127.080199235291
1126010400,아파트,혼합식,개별난방,위탁관리,분양,서울특별시 중랑구 공릉로2라길 15,285.0,신안종합건설,서울특별시 중랑구 묵동 381- 묵동신안1차,20.0,신안종합건설,A13185507,2,029726624,30119.1438,76.0,0.0,118.0,91.0,묵동신안1차,41678.91,029726621,19, ,19991028.0,7.0,285.0,19.0,22773.41,2036.0,17234629,0,0,80551,0,0,9021,0,12131460,0,202401,서울특별시 중랑구 묵동 381-,37.6128659356467,127.081333245605
1126010400,아파트,계단식,개별난방,위탁관리,분양,서울특별시 중랑구 공릉로18길 59,587.0,이수건설(주),서울특별시 중랑구 묵동 387- 묵동브라운스톤태릉,2.0,이수건설(주),A13185508,6,0232964493,59748.31,108.0,0.0,110.0,369.0,묵동브라운스톤태릉,85686.31,0232964492,19, ,20040311.0,16.0,587.0,19.0,48504.5522,2020.0,39805194,0,0,228412,0,0,11929,0,12793220,0,202401,서울특별시 중랑구 묵동 387-,37.6187220377937,127.081537279057
1126010200,아파트,계단식,개별난방,위탁관리,분양,서울특별시 중랑구 상봉중앙로1다길 21,375.0,우정건설(주),서울특별시 중랑구 상봉동 496- 상봉우정,0.0,우정건설(주),A13185602,5,0234225234,40533.305,50.0,0.0,90.0,235.0,상봉우정,54075.5,0234225233,25, ,20020514.0,8.0,375.0,25.0,29879.945,2082.0,24047742,0,0,140159,0,0,7698,0,8887940,0,202401,서울특별시 중랑구 상봉동 496-,37.5998227882824,127.089390602044
1126010200,아파트,계단식,개별난방,위탁관리,분양,서울특별시 중랑구 봉화산로48길 62,408.0,(주)제일은행 직장주택조합,서울특별시 중랑구 상봉동 1- 신내건영1차,2.0,(주) 건영,A13185603,4,024938520,34663.68,0.0,0.0,0.0,408.0,신내건영1차,53195.45,024349620,25, ,19970813.0,11.0,408.0,25.0,34663.68,2077.0,27755750,0,0,122667,0,0,0,0,0,0,202401,서울특별시 중랑구 상봉동 1-,37.6034753401116,127.093654269252
1126010200,아파트,혼합식,개별난방,위탁관리,분양,서울특별시 중랑구 신내로7길 20,1113.0,건영,서울특별시 중랑구 상봉동 63- 신내건영2차아파트,0.0,건영,A13185607,14,0222072501,113807.88,0.0,0.0,192.0,921.0,신내건영2차아파트,134964.0,0262182500,25, ,19961104.0,21.0,1113.0,25.0,86837.78,2085.0,65260340,0,0,311549,0,0,0,0,0,0,202401,서울특별시 중랑구 상봉동 63-,37.6013911865577,127.096099061687
1126010200,아파트,혼합식,지역난방,위탁관리,분양,서울특별시 중랑구 봉화산로 146,858.0,"LG건설(주), 쌍용건설(주)",서울특별시 중랑구 상봉동 484- 신내엘지쌍용,0.0,"LG건설(주), 쌍용건설(주)",A13186305,9,0234212537,80819.1,0.0,0.0,0.0,858.0,신내엘지쌍용,102187.84,0234212536,15,신내엘지쌍용아파트.apti.co.kr,19960327.0,15.0,858.0,15.0,60432.96,2075.0,51895691,0,112156075,214986,0,584463,13791,3855,17546770,21588000,202401,서울특별시 중랑구 상봉동 484-,37.6036065370475,127.090402567969
1126010200,아파트,복도식,지역난방,위탁관리,임대,서울특별시 중랑구 봉화산로 153,1000.0,서울주택도시공사,서울특별시 중랑구 상봉동 481- 신내12단지,1.0,삼환기업,A13186306,8,0234216320,46082.6,0.0,0.0,1000.0,0.0,신내12단지,48672.66,0234212000,15,www.i-sh.co.kr/happy/cms/main.do,19951127.0,16.0,1000.0,15.0,27380.0,2044.0,6558910,0,48507840,0,0,0,0,0,649606,20705869,202401,서울특별시 중랑구 상봉동 481-,37.6058186173408,127.091609767692
1126010200,아파트,혼합식,개별난방,위탁관리,분양,서울특별시 중랑구 신내로7가길 31,368.0,영건(주),서울특별시 중랑구 상봉동 495- 동부아파트,2.0,동부건설,A13186401,2,024325065,36734.8,44.0,0.0,184.0,140.0,동부아파트,43502.79,024944110,22, ,19990429.0,8.0,368.0,22.0,27072.8,2079.0,21644727,0,0,98018,0,0,6400,0,7858190,0,202401,서울특별시 중랑구 상봉동 495-,37.602073131276,127.093424324951
1126010600,아파트,계단식,개별난방,위탁관리,분양,서울특별시 중랑구 봉화산로56길 51,153.0,(주)우남건설,서울특별시 중랑구 신내동 802- 신내우남푸르미아,1.0,(주)우남건설,A13186502,3,0234233201,16456.1952,19.0,0.0,0.0,134.0,신내우남푸르미아,22916.15,0234233200,19, ,20050404.0,4.0,153.0,19.0,13481.11,2068.0,11042280,0,0,49450,0,0,3680,0,3947290,0,202401,서울특별시 중랑구 신내동 802-,37.6060884746945,127.098961382584
1126010600,아파트,혼합식,개별난방,위탁관리,분양,서울특별시 중랑구 용마산로125길 92,242.0,석탑건설,서울특별시 중랑구 신내동 787- 신내석탑,2.0,석탑건설,A13186503,2,0222087855,26681.04,0.0,0.0,125.0,117.0,신내석탑,27400.63,0222087876,22, ,19970131.0,6.0,242.0,22.0,17375.7,2058.0,16994029,0,0,70711,0,0,0,0,0,0,202401,서울특별시 중랑구 신내동 787-,37.6035690241397,127.101207793509
1126010600,아파트,계단식,개별난방,위탁관리,분양,서울특별시 중랑구 용마산로129가길 41,260.0,영풍건설,서울특별시 중랑구 신내동 801- 신내영풍마드레빌,2.0,영풍건설,A13186504,5,0234230227,27801.254,0.0,0.0,0.0,260.0,신내영풍마드레빌,36705.0,0234212150,24, ,20040213.0,6.0,260.0,24.0,22060.61,2068.0,20535983,0,0,77603,0,0,4940,0,6039050,0,202401,서울특별시 중랑구 신내동 801-,37.606020188045,127.100232635403
1126010600,아파트,혼합식,지역난방,위탁관리,분양,서울특별시 중랑구 신내로 128,1047.0,(주)동성,"서울특별시 중랑구 신내동 397- 신내동성1,2차",1.0,(주)동성,A13186708,9,024951640,108504.01,188.0,0.0,442.0,417.0,"신내동성1,2차",118462.0,024951630,20,신내동성1차2차.apti.co.kr,19930205.0,22.0,1047.0,20.0,83174.2,2054.0,60026510,0,133942952,275708,0,724587,0,5770,2000000,31735000,202401,서울특별시 중랑구 신내동 397-,37.6089405259894,127.097809061184
1126010600,아파트,혼합식,개별난방,위탁관리,분양,서울특별시 중랑구 송림길 16,152.0,다우훼밀리아파트,서울특별시 중랑구 신내동 796- 신내다우훼밀리,0.0,다우종합건설,A13186801,1,024958697,11641.5,13.0,0.0,66.0,73.0,신내다우훼밀리,15008.12,024948697,22, ,19990129.0,3.0,152.0,22.0,11641.5,2086.0,9283174,0,0,43900,0,0,2381,0,2645870,0,202401,서울특별시 중랑구 신내동 796-,37.6002516324525,127.095854693677
1126010600,아파트,복도식,개별난방,위탁관리,분양,서울특별시 중랑구 용마산로129나길 101,277.0,김형태,서울특별시 중랑구 신내동 487- 라이프미성,0.0,라이프건설,A13186905,2,024326422,19157.89,0.0,0.0,195.0,82.0,라이프미성,26167.43,024366422,12, ,19920424.0,4.0,277.0,12.0,18077.36,2071.0,2807830,325530,0,0,0,0,0,2154,0,279010,202401,서울특별시 중랑구 신내동 487-,37.6032529186598,127.098807349222
1126010600,아파트,계단식,개별난방,위탁관리,분양,서울특별시 중랑구 봉화산로56길 145-1,704.0,한전조합,서울특별시 중랑구 신내동 479- 신내중앙하이츠,0.0,중앙건설(주),A13186907,5,024390929,60509.0816,0.0,0.0,0.0,704.0,신내중앙하이츠,78862.0,024390979,15, ,19960328.0,25.0,704.0,15.0,59818.88,2071.0,40878580,0,0,195807,0,0,0,0,882110,0,202401,서울특별시 중랑구 신내동 479-,37.6021302639212,127.097205273778
1126010600,아파트,계단식,개별난방,위탁관리,분양,서울특별시 중랑구 신내로 51,876.0,성원건설,서울특별시 중랑구 신내동 783- 신내성원,2.0,성원건설,A13187004,5,024398791,92645.76,0.0,0.0,0.0,876.0,신내성원,104746.04,024390198,25, ,19940929.0,22.0,876.0,25.0,73944.04,2076.0,53250290,0,0,268813,0,0,0,0,0,0,202401,서울특별시 중랑구 신내동 783-,37.6059761741832,127.09472455776
1126010600,아파트,혼합식,지역난방,위탁관리,분양,서울특별시 중랑구 신내로 155,763.0,"두산개발,화성산업",서울특별시 중랑구 신내동 656- 신내8단지두산화성,1.0,"두산건설,화성산업",A13187201,8,0234211715,75265.841,0.0,0.0,0.0,763.0,신내8단지두산화성,86432.114,0234210603,15, ,19951222.0,18.0,763.0,15.0,55417.68,2025.0,44467725,0,80939510,201678,0,573,12597,4384,16251720,35072000,202401,서울특별시 중랑구 신내동 656-,37.6138589784362,127.094322735978
1126010600,아파트,계단식,지역난방,위탁관리,분양,서울특별시 중랑구 신내로17길 41,818.0,진로,서울특별시 중랑구 신내동 654- 신내진로아파트,2.0,진로,A13187203,17,0234210134,113198.02,770.0,48.0,0.0,0.0,신내진로아파트,142806.0,0234210131,12, ,19951206.0,36.0,818.0,12.0,91553.06,2027.0,70588940,0,146342270,247353,0,1074012,14950,5659,18904310,30739760,202401,서울특별시 중랑구 신내동 654-,37.614694452091,127.093773559363
1126010600,아파트,복도식,지역난방,위탁관리,분양,서울특별시 중랑구 봉화산로 193,804.0,서울시도시개발공사,서울특별시 중랑구 신내동 661- 신내대명11단지,0.0,대명건설,A13187302,6,0234210277,57622.441,0.0,0.0,804.0,0.0,신내대명11단지,63544.852,0234210276,15, ,19960313.0,12.0,804.0,15.0,40010.3,2043.0,3860950,0,61241050,0,0,28158,10705,3621,10908510,22993350,202401,서울특별시 중랑구 신내동 661-,37.6068322383951,127.094457238177
1126010600,아파트,복도식,지역난방,위탁관리,분양,서울특별시 중랑구 신내로 127,1315.0,SH공사,서울특별시 중랑구 신내동 657- 신내9단지,0.0,진흥,A13187305,10,0234230512,83069.423,0.0,0.0,1315.0,0.0,신내9단지,85762.22,0234211936,15, ,19960621.0,16.0,1315.0,15.0,54106.78,2026.0,45047562,0,113138350,236839,0,65220,13226,5722,17696710,16136040,202401,서울특별시 중랑구 신내동 657-,37.6108674372868,127.095651882252
1126010600,아파트,복도식,지역난방,위탁관리,임대,서울특별시 중랑구 신내로 115,1432.0,서울주택도시공사(SH),서울특별시 중랑구 신내동 660- 신내10단지,0.0,(주)건영,A13187306,8,0234214039,67578.713,0.0,0.0,1432.0,0.0,신내10단지,69017.0,0234214037,15,happy.i-sh.co.kr,19960311.0,17.0,1432.0,15.0,45104.6,2043.0,9922180,0,75565660,62366,0,128391,37,5482,26400,29221770,202401,서울특별시 중랑구 신내동 660-,37.6092975270629,127.094904201668
1126010600,아파트,혼합식,개별난방,위탁관리,분양,서울특별시 중랑구 용마산로 616,532.0,새한건설(주),서울특별시 중랑구 신내동 795- 신내새한아파트,2.0,새한건설(주),A13187406,6,0234232028,54277.5428,92.0,0.0,212.0,228.0,신내새한아파트,68381.15,0234232027,24, ,19981127.0,10.0,532.0,24.0,42562.44,2058.0,35906272,536370,0,157364,0,0,10043,0,12070630,0,202401,서울특별시 중랑구 신내동 795-,37.6049332871517,127.10122617607
1126010300,아파트,혼합식,개별난방,위탁관리,분양,서울특별시 중랑구 봉화산로27길 32,156.0,극동건설,서울특별시 중랑구 중화동 19- 중화극동,1.0,극동건설,A13187501,1,024345822,17030.12,0.0,0.0,0.0,156.0,중화극동,17030.12,024945822,13, ,19910429.0,6.0,156.0,13.0,13006.25,2048.0,10441920,0,0,50184,0,0,0,0,0,0,202401,서울특별시 중랑구 중화동 19-,37.6035511005784,127.083719618544
1126010300,아파트,혼합식,개별난방,위탁관리,분양,서울특별시 중랑구 동일로 752,1544.0,"신천실업(주),청법지역주택외8개조합",서울특별시 중랑구 중화동 450- 중화한신아파트,2.0,한신공영,A13187702,9,024340365,144206.26,0.0,0.0,892.0,652.0,중화한신아파트,144301.0,0222070365,27, ,19971011.0,24.0,1544.0,27.0,105896.94,2095.0,85114073,852500,0,506557,929,0,27620,0,31181150,0,202401,서울특별시 중랑구 중화동 450-,37.5970090851956,127.082070702444
1126010100,아파트,혼합식,개별난방,위탁관리,분양,서울특별시 중랑구 면목로37길 58,344.0,.,서울특별시 중랑구 면목동 1510- 면목두산2.3차,2.0,두산개발주식회사,A13188406,4,0262193277,46562.48,96.0,0.0,0.0,248.0,면목두산2.3차,58890.33,024333277,25,없음,19950403.0,8.0,344.0,25.0,33906.16,2237.0,30357596,444530,0,109527,0,0,0,0,0,0,202401,서울특별시 중랑구 면목동 1510-,37.5807751024093,127.083602633631
